{"data":[{"landUse":"Helianthus bolanderi A. Gray","ownership":"Liberty Tax, Inc.","laws":"4041376382172","lon":58.5563017,"lat":51.5574609,"Year":1880},
{"landUse":"Capparis corymbosa Lam.","ownership":"Conyers Park Acquisition Corp.","laws":"4971926081251665","lon":14.4392961,"lat":55.8569131,"Year":1880},
{"landUse":"Ardisia elliptica Thunb.","ownership":"Double Eagle Acquisition Corp.","laws":"4182053965307912","lon":7.761063,"lat":35.0801925,"Year":1880},
{"landUse":"Carex laxiculmis Schwein.","ownership":"Cresud S.A.C.I.F. y A.","laws":"4041379109929","lon":59.5495402,"lat":-2.9001285,"Year":1881},
{"landUse":"Crataegus texana Buckley","ownership":"Medallion Financial Corp.","laws":"4041597678147651","lon":25.69498,"lat":40.058197,"Year":1880},
{"landUse":"Salvia patens Cav.","ownership":"Keysight Technologies Inc.","laws":"4112459495502","lon":4.1772002,"lat":17.0740883,"Year":1880},
{"landUse":"Kleinhovia L.","ownership":"Trecora Resources","laws":"4280890192531","lon":48.507933,"lat":14.2025174,"Year":1880},
{"landUse":"Claytonia sibirica L. var. sibirica","ownership":"JMP Group LLC","laws":"4011046720614","lon":-7.2269461,"lat":35.8113988,"Year":1880},
{"landUse":"Scopolia Jacq.","ownership":"Lehman ABS Corporation","laws":"4041379980899","lon":47.0602152,"lat":15.8278,"Year":1880},
{"landUse":"Miconia serrulata (DC.) Naud.","ownership":"Brooks Automation, Inc.","laws":"4902490176975161","lon":8.490877,"lat":13.6855601,"Year":1880},
{"landUse":"Buellia placodiomorpha Vain.","ownership":"O'Reilly Automotive, Inc.","laws":"4017958257782708","lon":49.2216972,"lat":-7.9601828,"Year":1880},
{"landUse":"Sidalcea malviflora (DC.) A. Gray ex Benth. ssp. dolosa C.L. Hitchc.","ownership":"Check-Cap Ltd.","laws":"4017953592151","lon":6.8928179,"lat":57.8661799,"Year":1881},
{"landUse":"Asimina obovata (Willd.) Nash","ownership":"VALE S.A.","laws":"4017958773905","lon":55.10013,"lat":44.9398868,"Year":1880},
{"landUse":"Nigella hispanica L.","ownership":null,"laws":"4041594861247","lon":40.03553,"lat":14.5508865,"Year":1881},
{"landUse":"Triodanis Raf. ex Greene","ownership":null,"laws":null,"lon":null,"lat":null,"Year":null},
{"landUse":"Verrucaria ceuthocarpa Wahlenb.","ownership":"J P Morgan Chase & Co","laws":"4017953164902","lon":36.334307,"lat":40.64278,"Year":1880},
{"landUse":"Saxifraga adscendens L. ssp. oregonensis (Raf.) Bacig.","ownership":"CommerceHub, Inc.","laws":"4041590260843084","lon":-8.4324536,"lat":30.214647,"Year":1879},
{"landUse":"Cyrtandra tintinnabula Rock","ownership":"Luna Innovations Incorporated","laws":"4017957289730347","lon":40.8428562,"lat":22.116224,"Year":1880},
{"landUse":"Caloplaca epithallina Lynge","ownership":"AeroVironment, Inc.","laws":"4041592415111","lon":60.3428116,"lat":43.4968733,"Year":1879},
{"landUse":"Quercus ×rudkinii Britton (pro sp.)","ownership":"FinTech Acquisition Corp. II","laws":"4041596944910009","lon":15.2988083,"lat":9.2610914,"Year":1880},
{"landUse":"Elymus glaucus Buckley ssp. glaucus","ownership":"Panera Bread Company","laws":null,"lon":null,"lat":null,"Year":null},
{"landUse":"Leptosiphon montanus (Greene) J.M. Porter & L.A. Johnson","ownership":"Spectrum Brands Holdings, Inc.","laws":"4017957100902","lon":-8.6797285,"lat":40.2938995,"Year":1880},
{"landUse":"Ephedra torreyana S. Watson","ownership":"Planet Fitness, Inc.","laws":"4017950505545","lon":40.2466889,"lat":56.9568013,"Year":1879},
{"landUse":"Pediomelum linearifolium (Torr. & A. Gray) J. Grimes","ownership":"Prudential Global Short Duration High Yield Fund, Inc.","laws":"4017954338136857","lon":57.857193,"lat":24.348365,"Year":1880},
{"landUse":"Salix ×gaspensis C.K. Schneid.","ownership":"FlexShares Real Assets Allocation Index Fund","laws":"4017957373517","lon":32.790614,"lat":19.992977,"Year":1880},
{"landUse":"Noccaea montana (L.) F.K. Mey. [excluded]","ownership":"First Savings Financial Group, Inc.","laws":null,"lon":null,"lat":null,"Year":null},
{"landUse":"Poa mannii Munro ex Hillebr.","ownership":"ArQule, Inc.","laws":"4017955726567","lon":55.580853,"lat":14.0838656,"Year":1880},
{"landUse":null,"ownership":"Gafisa SA","laws":"4017952350721416","lon":29.9601879,"lat":39.4596137,"Year":1879},
{"landUse":"Syringa josikaea Jacq. f. ex Rchb.","ownership":"Jewett-Cameron Trading Company","laws":"4041375070302590","lon":40.951501,"lat":46.8615704,"Year":1879},
{"landUse":"Toxicodendron rydbergii (Small ex Rydb.) Greene","ownership":"Helmerich & Payne, Inc.","laws":"4041597962511984","lon":44.718853,"lat":-9.989961,"Year":1880},
{"landUse":"Elaphoglossum hirtum (Sw.) C. Chr.","ownership":"Great Southern Bancorp, Inc.","laws":"4041592452536","lon":-8.1491211,"lat":27.018126,"Year":1881},
{"landUse":"Galium angustifolium Nutt. ex A. Gray ssp. borregoense Dempster & Stebbins","ownership":"Jason Industries, Inc.","laws":"4041594348393","lon":-7.1057357,"lat":43.2625974,"Year":1879},
{"landUse":"Xylosma hawaiiensis Seem.","ownership":"Melrose Bancorp, Inc.","laws":"4017954172585821","lon":34.355068,"lat":31.363344,"Year":1879},
{"landUse":"Brachyelytrum erectum (Schreb. ex Spreng.) P. Beauv.","ownership":"Liberty Expedia Holdings, Inc.","laws":"4041371207549","lon":0.556948,"lat":7.8401615,"Year":1879},
{"landUse":"Salix elaeagnos Scop.","ownership":"ICU Medical, Inc.","laws":null,"lon":null,"lat":null,"Year":null},
{"landUse":"Cleome serrata Jacq.","ownership":"Highland/iBoxx Senior Loan ETF","laws":"4041597637921436","lon":4.5827227,"lat":4.575601,"Year":1880},
{"landUse":null,"ownership":"Wintrust Financial Corporation","laws":"4017954540371516","lon":53.450694,"lat":-9.9831,"Year":1881},
{"landUse":"Calycadenia oppositifolia (Greene) Greene","ownership":"Qwest Corporation","laws":"4041593606320","lon":29.2188245,"lat":30.3312397,"Year":1879},
{"landUse":"Sagina procumbens L.","ownership":"Trinity Biotech plc","laws":"4017958678104","lon":-27.4887196,"lat":58.249304,"Year":1881},
{"landUse":"Erysimum capitatum (Douglas ex Hook.) Greene","ownership":"Stepan Company","laws":null,"lon":null,"lat":null,"Year":null},
{"landUse":"Collema pulchellum Ach. var. subnigrescens (Müll. Arg.) Degel.","ownership":"WeatherStorm Forensic Accounting Long Short ETF","laws":"4041599091705248","lon":48.0545221,"lat":53.4835228,"Year":1880},
{"landUse":"Oonopsis foliosa (A. Gray) Greene","ownership":"NutriSystem Inc","laws":"4041371165093","lon":-8.4513,"lat":-20.1060273,"Year":1880},
{"landUse":"Opuntia stricta (Haw.) Haw.","ownership":"Trustmark Corporation","laws":"4328041292902211","lon":29.652491,"lat":47.4175416,"Year":1880},
{"landUse":"Brodiaea stellaris S. Watson","ownership":"Lattice Semiconductor Corporation","laws":"4017955523121","lon":40.6897403,"lat":47.49476,"Year":1880},
{"landUse":"Dianthus barbatus L.","ownership":"Kandi Technologies Group, Inc.","laws":"4041375827524165","lon":9.9298167,"lat":32.5609226,"Year":1880},
{"landUse":"Xanthoparmelia chlorochroa (Tuck.) Hale","ownership":"Richardson Electronics, Ltd.","laws":"4041590389730","lon":30.6074358,"lat":11.276586,"Year":1880},
{"landUse":null,"ownership":"Netshoes (Cayman) Limited","laws":"4759612501582","lon":42.5909476,"lat":21.8727408,"Year":1881},
{"landUse":"Iris delavayi Micheli","ownership":"American River Bankshares","laws":"4041373699222","lon":51.4986953,"lat":13.6343413,"Year":1879},
{"landUse":"Carex pyrenaica Wahlenb. ssp. micropoda (C.A. Mey.) Hultén","ownership":"MacroGenics, Inc.","laws":"4041370897183","lon":46.4830794,"lat":14.57218,"Year":1879},
{"landUse":"Astragalus tephrodes A. Gray","ownership":"Affiliated Managers Group, Inc.","laws":null,"lon":null,"lat":null,"Year":null},
{"landUse":"Castilleja nervata Eastw.","ownership":"Koss Corporation","laws":"4041379298151","lon":25.2743983,"lat":29.531057,"Year":1880},
{"landUse":"Mimulus layneae (Greene) Jeps.","ownership":null,"laws":"4017956821468697","lon":51.807911,"lat":47.2174874,"Year":1879},
{"landUse":"Geum urbanum L.","ownership":"Asia Tigers Fund, Inc. (The)","laws":"4041595309695320","lon":33.400684,"lat":51.1811979,"Year":1880},
{"landUse":"Cynoglossum occidentale A. Gray","ownership":"PowerShares DWA NASDAQ Momentum Portfolio","laws":"4041375001919249","lon":41.8963254,"lat":41.3620123,"Year":1880},
{"landUse":"Gaura neomexicana Wooton","ownership":"Global X NASDAQ China Technology ETF","laws":null,"lon":null,"lat":null,"Year":null},
{"landUse":"Phacelia dubia (L.) Trel. var. georgiana McVaugh","ownership":"Southwest Bancorp, Inc.","laws":"4041596976324","lon":24.7258954,"lat":58.7075528,"Year":1880},
{"landUse":"Betula papyrifera Marshall var. cordifolia (Regel) Fernald","ownership":"Emclaire Financial Corp","laws":"4017951122639","lon":53.495408,"lat":17.0977975,"Year":1880},
{"landUse":"Ivesia baileyi S. Watson var. baileyi","ownership":"Western Asset High Yield Defined Opportunity Fund Inc.","laws":"4041592587960864","lon":26.629211,"lat":29.4099289,"Year":1880},
{"landUse":"Arceuthobium abietinum (Engelm.) Hawksw. & Wiens ssp. wiensii Mathiasen & C.M. Daugherty","ownership":"A. Schulman, Inc.","laws":"4233280446862590","lon":12.8775114,"lat":-12.1230818,"Year":1880},
{"landUse":"Pediomelum latestipulatum (Shinners) Mahler var. appressum (D.J. Ockendon) Gandhi & L.E. Brown","ownership":"Salem Media Group, Inc.","laws":"4041590892767594","lon":46.6522807,"lat":55.045149,"Year":1881},
{"landUse":"Asclepias angustifolia Schweigg.","ownership":"Patriot Transportation Holding, Inc.","laws":"4375149446557278","lon":20.4343787,"lat":-34.6104702,"Year":1880},
{"landUse":"Astragalus tricarinatus A. Gray","ownership":"Belmond Ltd.","laws":"4041374578297634","lon":32.5171226,"lat":46.5075851,"Year":1880},
{"landUse":"Arthonia pyrrhula Nyl.","ownership":"First Financial Northwest, Inc.","laws":"4017959065483","lon":48.4978938,"lat":27.465141,"Year":1880},
{"landUse":"Aquilegia scopulorum Tidestr.","ownership":null,"laws":"4017951689645320","lon":50.1381207,"lat":-27.3482312,"Year":1880},
{"landUse":"Leucaena leucocephala (Lam.) de Wit ssp. glabrata (Rose) S. Zárate","ownership":null,"laws":"4773260842123","lon":45.030617,"lat":22.545902,"Year":1880},
{"landUse":"Eriogonum spathulatum A. Gray","ownership":"Public Storage","laws":"4041373193450644","lon":50.2620534,"lat":31.2724505,"Year":1881},
{"landUse":"Lopadium pezizoideum (Ach.) Körb.","ownership":"Saratoga Investment Corp","laws":"4041590890513","lon":26.4168857,"lat":52.4262274,"Year":1880},
{"landUse":"Ferocactus hamatacanthus (Muehlenpf.) Britton & Rose var. sinuatus (A. Dietr.) L.D. Benson","ownership":"Praxair, Inc.","laws":null,"lon":null,"lat":null,"Year":null},
{"landUse":"Citharexylum ×perkinsii Moldenke","ownership":"Willamette Valley Vineyards, Inc.","laws":null,"lon":null,"lat":null,"Year":null},
{"landUse":"Nerisyrenia Greene","ownership":"Torchmark Corporation","laws":"4017955483371223","lon":-11.792902,"lat":17.791111,"Year":1881},
{"landUse":"Limonia L.","ownership":"Sumitomo Mitsui Financial Group Inc","laws":"4017953914824316","lon":53.7111077,"lat":-7.7817534,"Year":1881},
{"landUse":"Dichanthelium commutatum (Schult.) Gould","ownership":"El Pollo Loco Holdings, Inc.","laws":"4017955131671685","lon":49.7049411,"lat":54.7288441,"Year":1880},
{"landUse":"Herzogiella Broth.","ownership":"Life Storage, Inc.","laws":"4041371243072","lon":14.5719534,"lat":10.7534694,"Year":1880},
{"landUse":"Euphorbia esula L. var. uralensis (Fisch. ex Link) Dorn","ownership":"VEON Ltd.","laws":"4223509665937614","lon":-27.4047174,"lat":15.2256074,"Year":1880},
{"landUse":"Canoparmelia amazonica (Nyl.) Elix & Hale","ownership":"NeuroMetrix, Inc.","laws":null,"lon":null,"lat":null,"Year":null},
{"landUse":"Philadelphus californicus Benth.","ownership":"KCAP Financial, Inc.","laws":"4041370697600732","lon":-38.8808579,"lat":12.9092962,"Year":1880},
{"landUse":"Ensete Horan.","ownership":"Tableau Software, Inc.","laws":"4041595826702","lon":53.7111077,"lat":15.8785099,"Year":1880},
{"landUse":"Pentzia incana (Thunb.) Kuntze","ownership":"Republic First Bancorp, Inc.","laws":"4041374481432716","lon":53.7283566,"lat":42.6503176,"Year":1879},
{"landUse":"Mentzelia dispersa S. Watson var. obtusa Jeps.","ownership":"Quaker Chemical Corporation","laws":"4549886472961285","lon":49.715157,"lat":35.2495378,"Year":1880},
{"landUse":"Oxytropis oreophila A. Gray var. oreophila","ownership":"Staffing 360 Solutions, Inc.","laws":"4017950596398783","lon":44.956193,"lat":57.7581391,"Year":1880},
{"landUse":"Pleomele hawaiiensis O. Deg. & I. Deg.","ownership":"Ashford Hospitality Trust Inc","laws":"4041594177077752","lon":19.379122,"lat":-9.9605397,"Year":1880},
{"landUse":"Limnanthes pumila Howell ssp. grandiflora (Arroyo) S.C. Meyers & K.L. Chambers","ownership":"PLDT Inc.","laws":"4146679405222","lon":25.549887,"lat":7.4654418,"Year":1880},
{"landUse":"Acalypha mexicana Müll. Arg.","ownership":"Insight Select Income Fund","laws":"4041375139177","lon":45.506995,"lat":-12.1140973,"Year":1880},
{"landUse":"Phlox drummondii Hook. ssp. tharpii (Whitehouse) Wherry","ownership":"Ion Geophysical Corporation","laws":"4017950207852","lon":42.1636682,"lat":20.2542725,"Year":1880},
{"landUse":"Psathyrostachys Nevski","ownership":"Digital Realty Trust, Inc.","laws":"4017957853765","lon":38.624235,"lat":-33.4891416,"Year":1879},
{"landUse":"Helianthus neglectus Heiser","ownership":"Champions Oncology, Inc.","laws":"4017952154144","lon":29.33903,"lat":-0.6647007,"Year":1880},
{"landUse":"Dorycnium pentaphyllum Scop.","ownership":"Iron Mountain Incorporated","laws":"4722155414241","lon":48.3909721,"lat":54.0521127,"Year":1879},
{"landUse":"Erigeron yukonensis Rydb.","ownership":"Banco Santander, S.A.","laws":"4704604137540","lon":41.4266886,"lat":41.53083,"Year":1881},
{"landUse":"Carex leptalea Wahlenb. ssp. leptalea","ownership":"CommerceHub, Inc.","laws":null,"lon":null,"lat":null,"Year":null},
{"landUse":"Viola pubescens Aiton var. pubescens","ownership":"Renasant Corporation","laws":"4233730328855047","lon":40.4369723,"lat":24.086165,"Year":1881},
{"landUse":"Viola canadensis L.","ownership":"Atlas Financial Holdings, Inc.","laws":"4403696372111","lon":-7.2964746,"lat":54.7991023,"Year":1880},
{"landUse":"Carex styloflexa Buckley","ownership":"SunTrust Banks, Inc.","laws":null,"lon":null,"lat":null,"Year":null},
{"landUse":"Hibiscus arnottianus A. Gray","ownership":"Addus HomeCare Corporation","laws":"4627643691083390","lon":36.284107,"lat":-8.5056516,"Year":1880},
{"landUse":"Eccremocactus Britton & Rose","ownership":"Brunswick Corporation","laws":"4427554100074","lon":-27.097026,"lat":39.639844,"Year":1880},
{"landUse":null,"ownership":null,"laws":"4066511235167","lon":59.9050895,"lat":55.0385549,"Year":1880},
{"landUse":"Styrax benzoin Dryand.","ownership":"Alliant Energy Corporation","laws":"4041379785439457","lon":40.9785232,"lat":8.0088881,"Year":1880},
{"landUse":"Hypericum graveolens Buckley","ownership":"National Beverage Corp.","laws":null,"lon":null,"lat":null,"Year":null},
{"landUse":"Penstemon palmeri A. Gray","ownership":"J P Morgan Chase & Co","laws":null,"lon":null,"lat":null,"Year":null},
{"landUse":"Plagiomnium medium (Bruch & Schimp.) T. Kop. var. medium","ownership":"Biocept, Inc.","laws":"4698683440202580","lon":44.30672,"lat":20.4593254,"Year":1879},
{"landUse":"Caesalpinia wootonii (Britton) Eifert ex Isely","ownership":"Howard Hughes Corporation (The)","laws":"4568033056519017","lon":32.032275,"lat":30.742803,"Year":1881},
{"landUse":"Dactylorhiza aristata (Fisch. ex Lindl.) Soó var. aristata","ownership":"Proto Labs, Inc.","laws":"4017954849659","lon":31.9703701,"lat":31.221062,"Year":1880},
{"landUse":"Chrysothamnus Nutt.","ownership":"Amaya Inc.","laws":"4041379387571962","lon":-7.690753,"lat":23.296786,"Year":1880},
{"landUse":"Camassia quamash (Pursh) Greene ssp. utahensis Gould","ownership":"Barclays PLC","laws":"4041379981582","lon":42.7333428,"lat":-7.2038055,"Year":1881},
{"landUse":"Corispermum pacificum Mosyakin","ownership":"Red Robin Gourmet Burgers, Inc.","laws":"4837857598768","lon":8.016667,"lat":-7.6966822,"Year":1880},
{"landUse":"Celtis tournefortii Lam.","ownership":"RH","laws":"4041370093981","lon":48.8466523,"lat":-7.2881839,"Year":1880},
{"landUse":null,"ownership":"Global Water Resources, Inc.","laws":"4017957097559102","lon":30.962471,"lat":38.9048517,"Year":1880},
{"landUse":"Heterocyphelium Vain.","ownership":"Globant S.A.","laws":"4041598263882256","lon":41.0390875,"lat":25.941708,"Year":1880},
{"landUse":"Leptochloa fusca (L.) Kunth ssp. fascicularis (Lam.) N. Snow","ownership":"Celsius Holdings, Inc.","laws":"4041590312161","lon":16.7095,"lat":38.2509637,"Year":1880},
{"landUse":"Eriogonum hoffmannii S. Stokes","ownership":"STERIS plc","laws":"4445049823100","lon":-8.5262,"lat":59.9287227,"Year":1880},
{"landUse":"Lesquerella valida Greene","ownership":"Scorpio Tankers Inc.","laws":"4879912745404158","lon":12.7166672,"lat":33.612843,"Year":1880},
{"landUse":"Parmotrema dilatatum (Vain.) Hale","ownership":"Trupanion, Inc.","laws":"4041374045672","lon":32.9985237,"lat":35.575417,"Year":1881},
{"landUse":"Helicteres jamaicensis Jacq.","ownership":"Blackrock MuniHoldings Fund II, Inc.","laws":"4441205648175","lon":-21.0800303,"lat":-22.5514872,"Year":1880},
{"landUse":"Scaevola sericea Vahl","ownership":null,"laws":"4465547617706338","lon":27.948308,"lat":-6.2401676,"Year":1880},
{"landUse":"Poa chaixii Vill.","ownership":"QUALCOMM Incorporated","laws":"4901405597076044","lon":25.410654,"lat":-6.2074293,"Year":1880},
{"landUse":"Halodule wrightii Asch.","ownership":"Credit Acceptance Corporation","laws":null,"lon":null,"lat":null,"Year":null},
{"landUse":"Quercus ×runcinata (A. DC.) Engelm.","ownership":null,"laws":"4098281697037","lon":10.108752,"lat":-20.1514708,"Year":1880},
{"landUse":"Pangium edule Reinw. ex Blume","ownership":"NextEra Energy, Inc.","laws":"4017951032564","lon":-7.0117033,"lat":59.3347189,"Year":1880},
{"landUse":"Fumaria officinalis L. ssp. officinalis","ownership":"Medical Transcription Billing, Corp.","laws":"4041379525033","lon":-3.3186067,"lat":27.30459,"Year":1880},
{"landUse":"Lindernia ciliata (Colsmann) Pennell","ownership":"Vitamin Shoppe, Inc","laws":"4354190588765977","lon":31.919897,"lat":42.5069391,"Year":1880},
{"landUse":"Acacia choriophylla Benth.","ownership":"Greif Bros. Corporation","laws":"4041597252378","lon":15.5835978,"lat":26.83411,"Year":1881},
{"landUse":"Lysimachia filifolia Forbes","ownership":"Natl Westminster Pfd","laws":"4041372901299202","lon":36.4062241,"lat":55.6271504,"Year":1880},
{"landUse":"Astragalus villosus Michx.","ownership":"Lantheus Holdings, Inc.","laws":"4017957566706","lon":-15.8402218,"lat":-8.5314465,"Year":1880},
{"landUse":"Fontinalis antipyretica Hedw. var. gigantea (Sull.) Sull.","ownership":"Forum Energy Technologies, Inc.","laws":"4041374058188","lon":29.276391,"lat":56.9940675,"Year":1880},
{"landUse":"Tripleurospermum maritimum (L.) W.D.J. Koch","ownership":"Federated Premier Intermediate Municipal Income Fund","laws":"4017956662225","lon":11.5484585,"lat":53.936,"Year":1880},
{"landUse":"Neoregelia L.B. Sm.","ownership":"Kayne Anderson Energy Development Company","laws":null,"lon":null,"lat":null,"Year":null},
{"landUse":"Ranunculus hydrocharoides A. Gray var. hydrocharoides","ownership":"Aegon NV","laws":"4041594212904","lon":21.459233,"lat":14.5352162,"Year":1880},
{"landUse":"Quercus ×hawkinsiae Sudw.","ownership":"Embraer-Empresa Brasileira de Aeronautica","laws":"4096517773192","lon":45.0725651,"lat":52.6973953,"Year":1880},
{"landUse":"Myriophyllum verticillatum L.","ownership":"Zions Bancorporation","laws":"4041374102710656","lon":46.5448323,"lat":21.857958,"Year":1880},
{"landUse":"Petasites frigidus (L.) Fr. var. palmatus (Aiton) Cronquist","ownership":"Voya Global Equity Dividend and Premium Opportunity Fund","laws":"4041592695993","lon":23.5711899,"lat":50.781501,"Year":1880},
{"landUse":"Claytonia perfoliata Donn ex Willd. ssp. mexicana (Rydb.) John M. Mill. & K.L. Chambers","ownership":"America Movil, S.A.B. de C.V.","laws":"4041592358345","lon":25.073688,"lat":-6.9278214,"Year":1881},
{"landUse":"Lilium maritimum Kellogg","ownership":"Center Coast MLP & Infrastructure Fund","laws":"4017952900024493","lon":-1.4493473,"lat":-6.7050629,"Year":1881},
{"landUse":"Carex ×exsalina Lepage","ownership":"VistaGen Therapeutics, Inc.","laws":"4271911539371270","lon":-25.6177713,"lat":15.9754252,"Year":1879},
{"landUse":"Ranunculus bonariensis Poir.","ownership":"Perrigo Company","laws":"4002779969783","lon":55.8038507,"lat":13.9534752,"Year":1880},
{"landUse":"Camellia sinensis (L.) Kuntze","ownership":"Halcon Resources Corporation","laws":"4041376992718897","lon":51.7565958,"lat":-6.2335134,"Year":1880},
{"landUse":"Caloplaca feracissima H. Magn.","ownership":"Adtalem Global Education Inc.","laws":"4834934454149","lon":15.6600225,"lat":44.0264621,"Year":1880},
{"landUse":null,"ownership":"Leju Holdings Limited","laws":"4041597343110","lon":36.1457192,"lat":25.5025179,"Year":1880},
{"landUse":"Nuphar lutea (L.) Sm. ssp. sagittifolia (Walter) E.O. Beal","ownership":"Dover Motorsports, Inc.","laws":"4275590285007","lon":-7.0416627,"lat":46.3443125,"Year":1880},
{"landUse":"Alternanthera paronychioides A. St.-Hil. var. paronychioides","ownership":"D/B/A Chubb Limited New","laws":"4017954651196","lon":39.330439,"lat":38.963066,"Year":1880},
{"landUse":"Phaeophyscia pusilloides (Zahlbr.) Essl.","ownership":"Sunoco LP","laws":"4041376466801","lon":37.9811976,"lat":42.9979838,"Year":1881},
{"landUse":"Triticum urartu Thumanian ex Gandilyan","ownership":"Employers Holdings Inc","laws":"4307804309362","lon":-34.0479376,"lat":27.320917,"Year":1880},
{"landUse":"Cyrto-hypnum (Hampe) Hampe & Lor.","ownership":"Luxfer Holdings PLC","laws":"4041597344611403","lon":-19.157438,"lat":58.3005959,"Year":1880},
{"landUse":"Lipochaeta ovata R.C. Gardner","ownership":"Nordson Corporation","laws":"4003835954835","lon":8.1087597,"lat":-20.0859007,"Year":1879},
{"landUse":"Astragalus reventus A. Gray","ownership":"Finjan Holdings, Inc.","laws":"4041371155508","lon":12.7854969,"lat":45.2671352,"Year":1880},
{"landUse":"Parmotrema mordenii (Hale) Hale","ownership":"Kayne Anderson MLP Investment Company","laws":"4041377724042","lon":-2.609012,"lat":50.254933,"Year":1880},
{"landUse":"Thelypteris reptans (J.F. Gmel.) Morton","ownership":null,"laws":"4331562922455","lon":-30.0263293,"lat":-6.7353,"Year":1880},
{"landUse":"Solidago mollis Bartlett var. angustata Shinners","ownership":"Plumas Bancorp","laws":"4041377320939973","lon":37.0891468,"lat":-6.5277643,"Year":1880},
{"landUse":"Sphagnum girgensohnii Russow","ownership":"McGrath RentCorp","laws":"4370914904704","lon":48.6299901,"lat":44.412308,"Year":1880},
{"landUse":"Chamaesyce ophthalmica (Pers.) Burch","ownership":"Chemical Financial Corporation","laws":"4017956795971692","lon":22.646141,"lat":-19.2580383,"Year":1881},
{"landUse":"Chimaphila umbellata (L.) W.P.C. Barton ssp. occidentalis (Rydb.) Hultén","ownership":"Group 1 Automotive, Inc.","laws":"4041373973107257","lon":-4.6,"lat":50.0326661,"Year":1880},
{"landUse":"Atriplex argentea Nutt.","ownership":"Invesco Value Municipal Income Trust","laws":"4144769235874947","lon":29.742172,"lat":38.7102377,"Year":1880},
{"landUse":"Larix gmelinii (Rupr.) Rupr. var. japonica (Maxim. ex Regel) Pilg.","ownership":"Entercom Communications Corporation","laws":"4017952510147","lon":40.4222721,"lat":0.8768231,"Year":1880},
{"landUse":"Arceuthobium M. Bieb.","ownership":"BioLineRx Ltd.","laws":"4330499723598","lon":49.8856767,"lat":13.5096503,"Year":1879},
{"landUse":"Brachiaria (Trin.) Griseb.","ownership":"Champions Oncology, Inc.","laws":"4041372168971386","lon":59.903525,"lat":38.7946533,"Year":1880},
{"landUse":"Carex mendocinensis Olney","ownership":"Genworth Financial Inc","laws":"4614084766421","lon":0.125082,"lat":53.9804128,"Year":1879},
{"landUse":"Eriogonum longifolium Nutt. var. lindheimeri Gandog.","ownership":"Nam Tai Property Inc.","laws":"4041371094665","lon":22.656408,"lat":15.482604,"Year":1880},
{"landUse":"Rudbeckia subtomentosa Pursh","ownership":null,"laws":"4041593499072","lon":44.5483119,"lat":52.7201592,"Year":1880},
{"landUse":"Strumpfia Jacq.","ownership":"BroadVision, Inc.","laws":"4041595033838","lon":40.4369723,"lat":19.3852368,"Year":1880},
{"landUse":"Platyhypnidium pringlei (Cardot) Broth.","ownership":null,"laws":"4041597321071365","lon":19.4838854,"lat":-27.633137,"Year":1880},
{"landUse":"Laennecia Cass.","ownership":"Pinnacle Foods, Inc.","laws":"4041370756199","lon":49.3996493,"lat":46.4270739,"Year":1880},
{"landUse":"Antenoron Raf.","ownership":"Synalloy Corporation","laws":"4912283019537027","lon":33.387684,"lat":7.4686205,"Year":1880},
{"landUse":"Gaillardia aestivalis (Walter) H. Rock var. aestivalis","ownership":"Nanometrics Incorporated","laws":"4041371225459997","lon":60.3641945,"lat":-2.9116926,"Year":1880},
{"landUse":"Topelia californica P.M. Jørg. & Vezda","ownership":null,"laws":"4017956321590","lon":-10.37092,"lat":48.85917,"Year":1880},
{"landUse":"Mimulus nanus Hook. & Arn.","ownership":"China XD Plastics Company Limited","laws":"4030771642892","lon":-5.5844754,"lat":30.54251,"Year":1880},
{"landUse":"Prunella vulgaris L. ssp. vulgaris","ownership":"Duff & Phelps Global Utility Income Fund Inc.","laws":"4041592791498784","lon":48.615982,"lat":45.4555091,"Year":1881},
{"landUse":"Habenaria alata Hook.","ownership":"Aethlon Medical, Inc.","laws":"4407611537374147","lon":9.1681467,"lat":-34.990888,"Year":1880},
{"landUse":"Cardamine macrocarpa Brandegee var. texana Rollins","ownership":"Regal Beloit Corporation","laws":"4544649973784","lon":54.9257823,"lat":53.3857827,"Year":1880},
{"landUse":"Pohlia cruda (Hedw.) Lindb.","ownership":"PowerShares KBW Premium Yield Equity REIT Portfolio","laws":"4041599295952794","lon":8.5328493,"lat":-6.7185157,"Year":1880},
{"landUse":"Phyllanthus L.","ownership":"Blackrock Corporate High Yield Fund, Inc.","laws":"4446067865834017","lon":45.8235836,"lat":-20.0877391,"Year":1881},
{"landUse":"Brassica oleracea L. var. italica Plenck","ownership":"BlackRock New York Investment Quality Municipal Trust Inc. (Th","laws":"4041376225958039","lon":43.2150141,"lat":39.42309,"Year":1881},
{"landUse":"Lomatium bentonitum K.M. Carlson & Mansfield","ownership":"Entercom Communications Corporation","laws":null,"lon":null,"lat":null,"Year":null},
{"landUse":"Campanula rapunculoides L.","ownership":"Third Point Reinsurance Ltd.","laws":"4041371842610592","lon":14.5919106,"lat":6.83249,"Year":1880},
{"landUse":"Tortula ruralis (Hedw.) G. Gaertn., B. Mey. & Scherb.","ownership":"Cellect Biotechnology Ltd.","laws":"4655576160417","lon":39.9759847,"lat":-41.9430504,"Year":1880},
{"landUse":"Thelypodium integrifolium (Nutt.) Endl. ex Walp.","ownership":"ALPS/Dorsey Wright Sector Momentum ETF","laws":"4017955613658","lon":52.3793432,"lat":13.4354977,"Year":1880},
{"landUse":"Lysimachia asperulifolia Poir.","ownership":"MRC Global Inc.","laws":"4017954901722398","lon":5.9779631,"lat":31.83889,"Year":1880},
{"landUse":"Bloomeria Kellogg","ownership":"EDAP TMS S.A.","laws":"4041599339781316","lon":-11.7806236,"lat":18.8962696,"Year":1880},
{"landUse":"Scirpus divaricatus Elliott","ownership":"Adaptimmune Therapeutics plc","laws":"4017950203141","lon":0.114047,"lat":36.7067342,"Year":1880},
{"landUse":"Caloplaca atrosanguinea (G. Merr.) Lamb","ownership":null,"laws":"4041596490995","lon":44.526371,"lat":23.63841,"Year":1880},
{"landUse":"Lycopodiella caroliniana (L.) Pic. Serm.","ownership":"Alder BioPharmaceuticals, Inc.","laws":"4041371483252084","lon":39.989836,"lat":-6.8754582,"Year":1880},
{"landUse":"Arenaria kingii (S. Watson) M.E. Jones ssp. plateauensis Maguire","ownership":"Biocept, Inc.","laws":"4041596988964","lon":-6.6026644,"lat":39.00366,"Year":1879},
{"landUse":"Machaeranthera canescens (Pursh) A. Gray ssp. canescens var. canescens","ownership":"Pyxis Tankers Inc.","laws":"4041370713190","lon":40.1872593,"lat":30.1926637,"Year":1880},
{"landUse":"Galium hypotrichium A. Gray ssp. subalpinum (Hilend & J.T. Howell) Ehrend.","ownership":"CTS Corporation","laws":"4898629065536","lon":45.5220648,"lat":30.137065,"Year":1880},
{"landUse":"Carex rotundata Wahlenb.","ownership":"Advanced Disposal Services, Inc.","laws":null,"lon":null,"lat":null,"Year":null},
{"landUse":"Drymaria effusa A. Gray var. depressa (Greene) J. Duke","ownership":"PAVmed Inc.","laws":"4041377220465947","lon":13.871805,"lat":50.5715496,"Year":1881},
{"landUse":"Chrysothrix Mont.","ownership":"Tower International, Inc.","laws":null,"lon":null,"lat":null,"Year":null},
{"landUse":"Jasione montana L.","ownership":"Jabil Inc.","laws":"4041376540121172","lon":35.96533,"lat":35.1341835,"Year":1879},
{"landUse":"Woodsia obtusa (Spreng.) Torr.","ownership":"J.C. Penney Company, Inc. Holding Company","laws":"4041370698663010","lon":30.137065,"lat":54.1458603,"Year":1880},
{"landUse":"Erechtites hieraciifolius (L.) Raf. ex DC.","ownership":"DryShips Inc.","laws":"4041592694258244","lon":-27.36667,"lat":23.759956,"Year":1880},
{"landUse":null,"ownership":"Cobalt International Energy, Inc.","laws":"4041378041224489","lon":50.5374117,"lat":37.646108,"Year":1879},
{"landUse":"Brickellia veronicifolia (Kunth) A. Gray","ownership":"Aqua Metals, Inc.","laws":"4041377946827867","lon":-3.0500015,"lat":-3.7702,"Year":1880},
{"landUse":"Cerastium arvense L.","ownership":"Fulton Financial Corporation","laws":"4017958794091811","lon":57.2287633,"lat":0.4263679,"Year":1880},
{"landUse":"Muellerella Hepp ex Müll. Arg.","ownership":null,"laws":null,"lon":null,"lat":null,"Year":null},
{"landUse":"Crepis atribarba A. Heller ssp. atribarba","ownership":"Brookfield Infrastructure Partners LP","laws":"4005088585922950","lon":29.432849,"lat":57.8633882,"Year":1881},
{"landUse":"Ambrosia artemisiifolia L. var. elatior (L.) Descourtils","ownership":"Westwood Holdings Group Inc","laws":"4017952792786","lon":54.948864,"lat":55.4872242,"Year":1880},
{"landUse":"Centratherum Cass.","ownership":"Pingtan Marine Enterprise Ltd.","laws":"4041595129552","lon":59.6794853,"lat":34.728584,"Year":1881},
{"landUse":"Echinacea atrorubens Nutt.","ownership":null,"laws":"4041371953198353","lon":37.482422,"lat":9.3847618,"Year":1880},
{"landUse":"Silphium terebinthinaceum Jacq. var. terebinthinaceum","ownership":"MFS Intermediate Income Trust","laws":"4060751621992921","lon":52.9434371,"lat":49.0496835,"Year":1880},
{"landUse":"Bromus erectus Huds.","ownership":"Lowe's Companies, Inc.","laws":"4017956007457332","lon":10.8226522,"lat":-7.9675395,"Year":1880},
{"landUse":"Graphis lineola Ach.","ownership":"Signet Jewelers Limited","laws":"4041377231697629","lon":38.3691874,"lat":8.47834,"Year":1879},
{"landUse":"Sanionia orthothecioides (Lindb.) Loeske","ownership":"G1 Therapeutics, Inc.","laws":"4957365950283","lon":-8.8399876,"lat":35.61739,"Year":1880},
{"landUse":"Gentiana lutea L.","ownership":"Fidus Investment Corporation","laws":"4041594608721","lon":39.084828,"lat":37.8246038,"Year":1881},
{"landUse":"Prunus fruticosa Pall.","ownership":"Strattec Security Corporation","laws":"4041593449752820","lon":39.38316,"lat":41.0828115,"Year":1880},
{"landUse":"Encalypta affinis R. Hedw. var. affinis","ownership":"Qumu Corporation","laws":"4041594144103475","lon":-4.203866,"lat":12.4896877,"Year":1880},
{"landUse":"Viola brittoniana Pollard var. brittoniana","ownership":"QAD Inc.","laws":"4041598488880","lon":49.4629619,"lat":54.1349846,"Year":1880},
{"landUse":"Triteleiopsis palmeri (S. Watson) Hoover","ownership":"Cross Timbers Royalty Trust","laws":"4017953325610","lon":48.5986674,"lat":8.9924711,"Year":1881},
{"landUse":"Abies lowiana (Gordon & Glend.) A. Murray bis","ownership":"Pathfinder Bancorp, Inc.","laws":"4041373944126618","lon":34.137139,"lat":-6.7354694,"Year":1880},
{"landUse":"Verbascum lychnitis L.","ownership":"Finisar Corporation","laws":"4017954845728758","lon":-14.7627211,"lat":-22.0699763,"Year":1880},
{"landUse":null,"ownership":"Valero Energy Partners LP","laws":"4324754690428","lon":24.651518,"lat":14.5697565,"Year":1880},
{"landUse":"Aletes anisatus (A. Gray) W.L. Theobald & C.C. Tseng","ownership":"Cypress Semiconductor Corporation","laws":"4017951496827780","lon":30.0444196,"lat":36.7599029,"Year":1880},
{"landUse":"Wyethia arizonica A. Gray","ownership":"Cohen & Steers Reit and Preferred Income Fund Inc","laws":"4041379857477","lon":23.105394,"lat":37.2715427,"Year":1881},
{"landUse":"Triplasis americana P. Beauv.","ownership":"Oxford Lane Capital Corp.","laws":"4041377126985501","lon":39.863008,"lat":-22.9192526,"Year":1880},
{"landUse":"Indigofera sphaerocarpa A. Gray","ownership":"OFG Bancorp","laws":"4041377901053","lon":-10.9057388,"lat":55.7570915,"Year":1880},
{"landUse":"Tecoma stans (L.) Juss. ex Kunth","ownership":"Layne Christensen Company","laws":"4359240428631932","lon":-7.4914737,"lat":52.7066595,"Year":1881},
{"landUse":"Aegle marmelos (L.) Corr. Serr.","ownership":null,"laws":"4184014952327","lon":37.6703123,"lat":32.1426,"Year":1880},
{"landUse":"Batis maritima L.","ownership":"Aegon NV","laws":"4017954055834536","lon":-6.1801188,"lat":38.9835516,"Year":1880},
{"landUse":"Cryptantha compacta Higgins","ownership":"ClearSign Combustion Corporation","laws":"4017953070562551","lon":-25.0305317,"lat":45.902561,"Year":1880},
{"landUse":"Cleome lutea Hook. var. jonesii J.F. Macbr.","ownership":"Schweitzer-Mauduit International, Inc.","laws":"4041598369957","lon":53.806717,"lat":49.24993,"Year":1881},
{"landUse":"Coreopsis pubescens Elliott var. robusta A. Gray ex Eames","ownership":"M&T Bank Corporation","laws":"4243622879825","lon":12.4957874,"lat":32.009016,"Year":1880},
{"landUse":"Scleria sumatrensis Retz.","ownership":"Navient Corporation","laws":"4781383541282","lon":45.5593978,"lat":39.1168675,"Year":1879},
{"landUse":"Isocoma acradenia (Greene) Greene","ownership":"First United Corporation","laws":"4017953798501","lon":36.608183,"lat":9.7016493,"Year":1880},
{"landUse":"Symphyotrichum pratense (Raf.) G.L. Nesom","ownership":"Trex Company, Inc.","laws":"4362937507246475","lon":49.781138,"lat":40.4531669,"Year":1880},
{"landUse":"Agapanthus africanus (L.) Hoffsgg.","ownership":"Oil States International, Inc.","laws":"4041376264676419","lon":23.538092,"lat":-7.1057357,"Year":1880},
{"landUse":null,"ownership":"Freeport-McMoran, Inc.","laws":"4017955775473976","lon":41.149869,"lat":43.258497,"Year":1880},
{"landUse":"Orthotrichum affine Brid.","ownership":"Alabama Power Company","laws":"4041596151345576","lon":-10.3503897,"lat":51.43341,"Year":1881},
{"landUse":"Verbascum ×spurium K. Koch","ownership":"Liberty Media Corporation","laws":"4553308101122554","lon":-34.6893836,"lat":30.823054,"Year":1880},
{"landUse":"Hyperphyscia adglutinata (Flörke) H. Mayrh. & Poelt","ownership":null,"laws":"4041379555246","lon":6.12151,"lat":59.3409179,"Year":1879},
{"landUse":"Pinellia Ten.","ownership":"Center Coast MLP & Infrastructure Fund","laws":"4041598591741","lon":47.216667,"lat":29.673196,"Year":1880},
{"landUse":"Pastinaca L.","ownership":"Alexion Pharmaceuticals, Inc.","laws":"4041151599784","lon":-7.2284727,"lat":-6.7917815,"Year":1879},
{"landUse":"Spiranthes cernua (L.) Rich.","ownership":"VelocityShares Daily 2x VIX Short-Term ETN","laws":"4041377592019","lon":4.8666221,"lat":60.192443,"Year":1879},
{"landUse":"Polycarpaea corymbosa (L.) Lam.","ownership":"Blueknight Energy Partners L.P., L.L.C.","laws":"4111358671551","lon":-8.665118,"lat":4.6690872,"Year":1879},
{"landUse":"Erigeron philadelphicus L. var. philadelphicus","ownership":"Avis Budget Group, Inc.","laws":"4017954887303","lon":28.441557,"lat":48.8069601,"Year":1880},
{"landUse":"Oxytheca perfoliata Torr. & A. Gray","ownership":"John Hancock Preferred Income Fund III","laws":"4552002967905","lon":63.827461,"lat":49.6498731,"Year":1880},
{"landUse":"Astragalus laxmannii Jacq. var. tananaicus (Hultén) Barneby & S.L. Welsh","ownership":"Synthetic Fixed-Income Securities, Inc.","laws":"4028680683673924","lon":57.3356106,"lat":-9.3863122,"Year":1880},
{"landUse":"Trifolium steudneri Schweinf.","ownership":"Gladstone Investment Corporation","laws":"4041593454466969","lon":41.93167,"lat":-6.5211331,"Year":1880},
{"landUse":"Agrimonia odorata Mill.","ownership":"Balchem Corporation","laws":null,"lon":null,"lat":null,"Year":null},
{"landUse":"Solanum rugosum Dunal","ownership":"Sinovac Biotech, Ltd.","laws":"4521745071033098","lon":31.5233543,"lat":40.7996662,"Year":1880},
{"landUse":"Dodecahema Reveal & Hardham","ownership":"iRadimed Corporation","laws":"4041596659144","lon":25.454084,"lat":41.56055,"Year":1881},
{"landUse":"Phacopsis vulpina Tul.","ownership":"ChromaDex Corporation","laws":"4349959392592027","lon":-32.943528,"lat":27.550779,"Year":1881},
{"landUse":"Pedicularis canadensis L. ssp. canadensis","ownership":"Blackrock Muni Intermediate Duration Fund Inc","laws":"4041374736479280","lon":13.5987473,"lat":23.353501,"Year":1881},
{"landUse":"Solanum leptosepalum Correll","ownership":"Kilroy Realty Corporation","laws":"4500689781701","lon":38.682014,"lat":-26.7277949,"Year":1880},
{"landUse":"Polypodium ×incognitum Cusick","ownership":"QCR Holdings, Inc.","laws":"4150764075939075","lon":-6.7128814,"lat":39.909969,"Year":1880},
{"landUse":"Canavalia gladiata (Jacq.) DC.","ownership":"Flaherty & Crumrine Preferred Securities Income Fund Inc","laws":"4041374952083","lon":-6.927607,"lat":34.4274119,"Year":1881},
{"landUse":"Hyptis verticillata Jacq.","ownership":"Stantec Inc","laws":"4041379138811","lon":18.6316742,"lat":-13.3833585,"Year":1880},
{"landUse":"Hackelia diffusa (Lehm.) I.M. Johnst.","ownership":"Supernus Pharmaceuticals, Inc.","laws":null,"lon":null,"lat":null,"Year":null},
{"landUse":"Pediomelum pauperitense S.L. Welsh, Licher, & N.D. Atwood","ownership":"Gabelli Utility Trust (The)","laws":null,"lon":null,"lat":null,"Year":null},
{"landUse":"Diplacus longiflorus Nutt.","ownership":"1st Source Corporation","laws":null,"lon":null,"lat":null,"Year":null},
{"landUse":"Cologania pulchella Kunth","ownership":"FalconStor Software, Inc.","laws":"4528453443863606","lon":49.8687559,"lat":13.5167584,"Year":1880},
{"landUse":"Cerastium alpinum L. ssp. lanatum (Lam.) Ces.","ownership":"Harte-Hanks, Inc.","laws":"4486615876858747","lon":-5.3003056,"lat":46.4232734,"Year":1880},
{"landUse":"Rubus oklahomus L.H. Bailey","ownership":"Hilltop Holdings Inc.","laws":"4041373288497","lon":-10.28917,"lat":43.179594,"Year":1881},
{"landUse":"Cladonia thiersii S. Hammer","ownership":"Autoliv, Inc.","laws":"4017958961567","lon":-1.801926,"lat":29.260885,"Year":1881},
{"landUse":"Aconitum maximum Pall. ex DC.","ownership":"Unico American Corporation","laws":"4041372263982205","lon":37.7451046,"lat":-7.5450262,"Year":1879},
{"landUse":"Oreochrysum parryi (A. Gray) Rydb.","ownership":"Hilton Worldwide Holdings Inc.","laws":"4017955531159836","lon":-1.2276385,"lat":45.597839,"Year":1880},
{"landUse":"Calceolaria multiflora Cav.","ownership":"Southcross Energy Partners, L.P.","laws":null,"lon":null,"lat":null,"Year":null},
{"landUse":"Eriogonum gypsophilum Wooton & Standl.","ownership":"FTD Companies, Inc.","laws":"4017957299655286","lon":43.5377269,"lat":35.6648088,"Year":1880},
{"landUse":"Juncus dubius Engelm.","ownership":"E.I. du Pont de Nemours and Company","laws":"4041372594747","lon":32.6821287,"lat":61.9639779,"Year":1880},
{"landUse":"Harrisia aboriginum Small","ownership":"Jason Industries, Inc.","laws":"4041591631247","lon":14.10574,"lat":19.88374,"Year":1881},
{"landUse":"Crataegus schuettei Ashe","ownership":"Synchronoss Technologies, Inc.","laws":"4041370748246","lon":27.33699,"lat":38.6784499,"Year":1880},
{"landUse":"Humulus japonicus Siebold & Zucc.","ownership":"Simon Property Group, Inc.","laws":"4017954545331","lon":-18.7602306,"lat":9.834832,"Year":1880},
{"landUse":"Amphianthus Torr.","ownership":null,"laws":null,"lon":null,"lat":null,"Year":null},
{"landUse":"Ranunculus alismifolius Geyer ex Benth. var. alismellus A. Gray","ownership":"Hecla Mining Company","laws":"4041370908782","lon":29.23682,"lat":-8.1714502,"Year":1880},
{"landUse":"Diplotomma chlorophaeum (Hepp ex Leight.) Szat.","ownership":"VIVUS, Inc.","laws":"4017955436363889","lon":32.768821,"lat":14.5823299,"Year":1880},
{"landUse":"Eleocharis macrostachya Britton","ownership":null,"laws":"4875476998563858","lon":-7.9636675,"lat":29.7386119,"Year":1880},
{"landUse":"Schiedea menziesii Hook.","ownership":"Nathan's Famous, Inc.","laws":"4041379399637","lon":35.7952267,"lat":11.8215864,"Year":1880},
{"landUse":"Spermacoce tetraquetra A. Rich.","ownership":"Gemphire Therapeutics Inc.","laws":"4505499209599907","lon":39.3881052,"lat":34.319658,"Year":1880},
{"landUse":"Diplazium sandwichianum (C. Presl) Diels","ownership":"El Pollo Loco Holdings, Inc.","laws":"4017950708172","lon":9.3140186,"lat":36.7027082,"Year":1880},
{"landUse":"Lotus salsuginosus Greene","ownership":"Extreme Networks, Inc.","laws":"4017952021632","lon":47.009324,"lat":-0.789275,"Year":1880},
{"landUse":"Tayloria hornschuchii (Grev. & Arn.) Broth.","ownership":"First Hawaiian, Inc.","laws":"4017957473868937","lon":-32.4084888,"lat":-0.2467982,"Year":1880},
{"landUse":"Silphium asteriscus L. var. asteriscus","ownership":"Masco Corporation","laws":"4041370658692","lon":34.5925622,"lat":-7.0583,"Year":1879},
{"landUse":"Packera pseudaurea (Rydb.) W.A. Weber & Á. Löve var. semicordata (Mack. & Bush) D.K. Trock & T.M. Barkley","ownership":"DHX Media Ltd.","laws":"4041373933225","lon":58.3227586,"lat":-10.2507168,"Year":1880},
{"landUse":"Genistidium dumosum I.M. Johnst.","ownership":"Graham Holdings Company","laws":"4041379666621","lon":59.2426907,"lat":-8.729881,"Year":1879},
{"landUse":"Arctostaphylos hookeri G. Don ssp. hookeri","ownership":"Tanger Factory Outlet Centers, Inc.","laws":"4041371300949276","lon":43.805479,"lat":3.095417,"Year":1880},
{"landUse":"Melastoma L.","ownership":"Blackrock New York Municipal Income Quality Trust","laws":"4041591384222163","lon":10.2019084,"lat":52.4127967,"Year":1880},
{"landUse":"Pteridium Gleditsch ex Scop.","ownership":"VelocityShares 3x Inverse Gold ETN","laws":"4017950996389","lon":-7.1846561,"lat":-7.5201771,"Year":1880},
{"landUse":"Chenopodium urbicum L.","ownership":"Kimco Realty Corporation","laws":"4017955805428222","lon":23.8882098,"lat":22.937244,"Year":1880},
{"landUse":"Corispermum welshii Mosyakin","ownership":"AmTrust Financial Services, Inc.","laws":"4041373566818708","lon":-5.3860856,"lat":1.6154718,"Year":1880},
{"landUse":"Sadleria squarrosa (Gaudich.) T. Moore","ownership":"Kingsway Financial Services, Inc.","laws":"4017950065092701","lon":47.233746,"lat":-7.057009,"Year":1881},
{"landUse":"Bidens campylotheca Sch. Bip. ssp. waihoiensis H. St. John","ownership":"Dun & Bradstreet Corporation (The)","laws":"4343627063010530","lon":38.645085,"lat":35.9704988,"Year":1880},
{"landUse":"Cochlearia tridactylites Banks ex DC.","ownership":"Entellus Medical, Inc.","laws":"4017959325713048","lon":44.8671415,"lat":42.6210627,"Year":1880},
{"landUse":"Crataegus rufula Sarg.","ownership":"InterXion Holding N.V.","laws":"4221582610133","lon":50.2837307,"lat":47.9795218,"Year":1880},
{"landUse":"Brachythecium erythrorrhizon Schimp.","ownership":"STRATS Trust","laws":"4041379283873413","lon":50.05998,"lat":6.4876142,"Year":1880},
{"landUse":"Brickellia nelsonii B.L. Rob. [excluded]","ownership":"Aptose Biosciences, Inc.","laws":"4715585270476086","lon":-8.738072,"lat":-5.3810959,"Year":1880},
{"landUse":"Phlox latifolia Michx.","ownership":"Baytex Energy Corp","laws":"4041596231082850","lon":27.5331693,"lat":40.765292,"Year":1880},
{"landUse":"Cordylanthus tenuis A. Gray ssp. brunneus (Jeps.) Munz","ownership":"Dolby Laboratories","laws":"4460456609405","lon":16.8991985,"lat":10.2933091,"Year":1880},
{"landUse":"Oxalis decaphylla Kunth","ownership":"Enel Americas S.A.","laws":"4434129150514714","lon":-8.6873795,"lat":49.6745448,"Year":1880},
{"landUse":"Aquilegia laramiensis A. Nelson","ownership":"J.C. Penney Company, Inc. Holding Company","laws":"4041374861911396","lon":0.4994734,"lat":55.2443128,"Year":1880},
{"landUse":"Rubia tinctorum L.","ownership":"NeuroMetrix, Inc.","laws":"4041594065021","lon":52.20307,"lat":42.1414947,"Year":1880},
{"landUse":"Quercus intricata Trel.","ownership":"iShares MSCI Emerging Markets Asia Index Fund","laws":"4017955432265","lon":40.142128,"lat":11.0574624,"Year":1881},
{"landUse":"Viola patrinii DC.","ownership":"Bank of America Corporation","laws":null,"lon":null,"lat":null,"Year":null},
{"landUse":"Abronia nana S. Watson var. covillei (Heimerl) Munz","ownership":"Weyerhaeuser Company","laws":"4041593292188","lon":49.7744492,"lat":53.9699233,"Year":1880},
{"landUse":"Clauzadea monticola (Ach.) Hafellner & Bellem.","ownership":"Maiden Holdings, Ltd.","laws":"4017956937064","lon":46.0765073,"lat":-7.459928,"Year":1880},
{"landUse":"Solidago uliginosa Nutt.","ownership":"Pure Cycle Corporation","laws":"4041372476713","lon":57.881741,"lat":40.7996662,"Year":1880},
{"landUse":null,"ownership":"Easterly Acquisition Corp.","laws":"4017955746178506","lon":43.4714875,"lat":19.955811,"Year":1879},
{"landUse":"Spartium junceum L.","ownership":"Blackrock MuniHoldings Quality Fund, Inc.","laws":"4446739766227901","lon":15.3098074,"lat":45.683569,"Year":1880},
{"landUse":"Acer L.","ownership":"SEACOR Marine Holdings Inc.","laws":"4041596913624","lon":29.0180288,"lat":11.1946369,"Year":1881},
{"landUse":"Plagiobothrys glaber (A. Gray) I.M. Johnst.","ownership":"Sasol Ltd.","laws":"4041598960466312","lon":37.444498,"lat":48.4242028,"Year":1880},
{"landUse":"Hypocenomyce leucococca R. Sant.","ownership":"Spectrum Pharmaceuticals, Inc.","laws":null,"lon":null,"lat":null,"Year":null},
{"landUse":"Urena sinuata L.","ownership":"NCI, Inc.","laws":"4017955307150464","lon":45.0566401,"lat":58.4249288,"Year":1880},
{"landUse":"Quercus mohriana Buckley ex Rydb.","ownership":"Scudder Strategic Municiple Income Trust","laws":"4691424537019","lon":44.275895,"lat":46.73336,"Year":1880},
{"landUse":"Puccinellia arctica (Hook.) Fernald & Weath.","ownership":"Digital Ally, Inc.","laws":"4303747156293492","lon":-19.4704956,"lat":40.7284708,"Year":1879},
{"landUse":"Croomia pauciflora (Nutt.) Torr.","ownership":"Asia Pacific Wire & Cable Corporation Limited","laws":"4041595262585","lon":54.0962372,"lat":31.9750078,"Year":1880},
{"landUse":"Pediomelum palmeri (Ockendon) J.W. Grimes","ownership":"Concert Pharmaceuticals, Inc.","laws":"4017953061769","lon":28.264515,"lat":-6.8510505,"Year":1881},
{"landUse":null,"ownership":"Royal Bank Scotland plc (The)","laws":"4041378982748","lon":18.1559131,"lat":32.7495898,"Year":1880},
{"landUse":"Cistanthe umbellata (Torr.) Hershkovitz var. umbellata","ownership":null,"laws":"4041592003453","lon":40.2314017,"lat":39.353118,"Year":1880},
{"landUse":"Fissidens reesei H.A. Crum & L.E. Anderson","ownership":null,"laws":"4041590600102","lon":27.951451,"lat":51.8186111,"Year":1880},
{"landUse":"Pascalia Ortega","ownership":"Bay Bancorp, Inc.","laws":"4041379377922","lon":8.301719,"lat":-8.2197304,"Year":1880},
{"landUse":"Buellia uberior Anzi","ownership":"PowerShares 1-30 Laddered Treasury Portfolio","laws":"4300820784935827","lon":-7.158502,"lat":16.5762863,"Year":1880},
{"landUse":"Vaccinium cespitosum Michx.","ownership":"Tsakos Energy Navigation Ltd","laws":"4017952099158","lon":45.7340335,"lat":52.695844,"Year":1880},
{"landUse":"Mycoporum pycnocarpoides Müll. Arg.","ownership":"Alliance Holdings GP, L.P.","laws":"4041375776242","lon":27.456658,"lat":39.4865544,"Year":1879},
{"landUse":null,"ownership":"Rosehill Resources Inc.","laws":"4633313159595051","lon":43.1564817,"lat":32.047749,"Year":1880},
{"landUse":"Pertusaria paratuberculifera Dibben","ownership":"CyberArk Software Ltd.","laws":"4041592418388","lon":14.5671014,"lat":41.0672146,"Year":1880},
{"landUse":"Crepis pannonica (Jacq.) K. Koch","ownership":"Sino-Global Shipping America, Ltd.","laws":"4041379180300","lon":13.789644,"lat":-6.9757129,"Year":1880},
{"landUse":"Myristica fragrans Houtt.","ownership":"Delek Logistics Partners, L.P.","laws":"4041590762257056","lon":51.9094928,"lat":16.9822955,"Year":1880},
{"landUse":"Dysphania graveolens (Willd.) Mosyakin & Clemants","ownership":"Kite Realty Group Trust","laws":"4041597483452","lon":36.10306,"lat":39.40278,"Year":1880},
{"landUse":"Lecanora albescens (Hoffm.) Branth & Rostrup","ownership":"Chevron Corporation","laws":null,"lon":null,"lat":null,"Year":null},
{"landUse":"Bryum pyriferum Crundw. & H. Whitehouse","ownership":"Taiwan Semiconductor Manufacturing Company Ltd.","laws":"4041378487524715","lon":55.6942718,"lat":45.7631589,"Year":1879},
{"landUse":"Anisacanthus linearis (Hagen) Henrickson & Lott","ownership":"Fortress Biotech, Inc.","laws":"4041372217778","lon":33.4484729,"lat":32.3295438,"Year":1880},
{"landUse":"Chorizanthe cuspidata S. Watson var. cuspidata","ownership":"Hess Midstream Partners LP","laws":null,"lon":null,"lat":null,"Year":null},
{"landUse":"Plagiobothrys chorisianus (Cham.) I.M. Johnst. var. chorisianus","ownership":"NAPCO Security Technologies, Inc.","laws":"4041592110794947","lon":25.22796,"lat":30.845968,"Year":1880},
{"landUse":"Grammitis hessii (Maxon) Alain","ownership":"XBiotech Inc.","laws":"4041596647024","lon":18.4458276,"lat":4.398278,"Year":1881},
{"landUse":"Dimorphocarpa candicans (Raf.) Rollins","ownership":"LogMein, Inc.","laws":"4017958577032867","lon":-29.68725,"lat":-6.9013005,"Year":1880},
{"landUse":"Oxalis radicosa A. Rich.","ownership":"Harmony Gold Mining Company Limited","laws":"4041371105107","lon":36.0858893,"lat":34.8582652,"Year":1880},
{"landUse":"Lethariicola cucularis (Norman) Lumbsch & D. Hawksw.","ownership":"Viking Therapeutics, Inc.","laws":"4041370210980462","lon":-34.5890239,"lat":46.614358,"Year":1880},
{"landUse":"Leptosiphon rattanii (A. Gray) J.M. Porter & L.A. Johnson","ownership":"Global X FinTech ETF","laws":"4017951324821","lon":-24.085215,"lat":10.9322366,"Year":1880},
{"landUse":"Crataegus tristis Beadle","ownership":"Blackrock Global","laws":"4041372411702","lon":49.4418055,"lat":-9.5179699,"Year":1881},
{"landUse":"Malus toringo (Siebold) Siebold ex de Vriese","ownership":"Invesco Trust for Investment Grade Municipals","laws":"4041378582309269","lon":-8.3585481,"lat":31.2988237,"Year":1881},
{"landUse":"Ipomoea pes-tigridis L.","ownership":"TCG BDC, Inc.","laws":"4017956671184","lon":15.8971172,"lat":54.13607,"Year":1880},
{"landUse":"Triphasia trifolia (Burm. f.) P. Wilson","ownership":"Ares Capital Corporation","laws":"4017955037106","lon":35.99,"lat":37.8210369,"Year":1880},
{"landUse":"Stenandrium dulce (Cav.) Nees var. dulce","ownership":null,"laws":"4041590917738","lon":45.78,"lat":38.7136413,"Year":1880},
{"landUse":"Mirabilis multiflora (Torr.) A. Gray var. multiflora","ownership":"ChinaCache International Holdings Ltd.","laws":"4041377779756","lon":46.8179207,"lat":59.5785947,"Year":1880},
{"landUse":"Perityle specuicola S.L. Welsh & Neese","ownership":"Stratasys, Ltd.","laws":"4587179636465507","lon":45.8903748,"lat":35.579427,"Year":1879},
{"landUse":"Calystegia catesbeiana Pursh","ownership":"CareDx, Inc.","laws":"4827855997328","lon":14.3144265,"lat":38.4361809,"Year":1880},
{"landUse":"Helianthus ×cinereus Torr. & A. Gray (pro sp.)","ownership":"Bazaarvoice, Inc.","laws":"4041377835061","lon":36.8064948,"lat":35.416734,"Year":1879},
{"landUse":"Agastache pringlei (Briq.) Lint & Epling","ownership":"Electronic Arts Inc.","laws":"4041592801688747","lon":15.4977734,"lat":50.4974447,"Year":1880},
{"landUse":"Ditrichum zonatum (Brid.) Kindb.","ownership":"Moog Inc.","laws":"4041373906230614","lon":-41.9430504,"lat":32.19828,"Year":1880},
{"landUse":"Primula angustifolia Torr.","ownership":"Vanguard Russell 1000 ETF","laws":"4936061224549884","lon":-34.6342051,"lat":36.8603732,"Year":1880},
{"landUse":"Sideroxylon portoricense Urb.","ownership":null,"laws":"4562994173941796","lon":7.4804449,"lat":8.7706603,"Year":1881},
{"landUse":null,"ownership":"Timken Steel Corporation","laws":"4041375063564917","lon":43.2003718,"lat":-0.8614531,"Year":1880},
{"landUse":"Astragalus nuttallii (Torr. & A. Gray) J.T. Howell var. virgatus (A. Gray ex W.H. Brewer & S. Watson) Barneby","ownership":"Wells Fargo & Company","laws":"4017954337432","lon":49.5936213,"lat":-6.6355378,"Year":1880},
{"landUse":"Commiphora opobalsamum (L.) Engl.","ownership":"Nortel Inversora SA","laws":"4737560306626","lon":16.4311476,"lat":46.4050135,"Year":1880},
{"landUse":"Arthonia astericus Müll. Arg.","ownership":"Endeavour Silver Corporation","laws":"4017953050952","lon":34.5403537,"lat":64.0516089,"Year":1880},
{"landUse":"Sideroxylon obovatum Lam.","ownership":"The Charles Schwab Corporation","laws":"4441073818975","lon":47.517115,"lat":-17.3013059,"Year":1879},
{"landUse":"Allium punctum L.F. Hend.","ownership":"Principal Real Estate Income Fund","laws":"4041598109585","lon":-12.5183628,"lat":56.2995342,"Year":1880},
{"landUse":"Sanionia orthothecioides (Lindb.) Loeske","ownership":"GoDaddy Inc.","laws":"4041592366538","lon":18.3417854,"lat":2.9363162,"Year":1880},
{"landUse":"Eleocharis parvula (Roem. & Schult.) Link ex Bluff, Nees & Schauer","ownership":"Banco Santander, S.A.","laws":"4424295495848","lon":26.9111769,"lat":39.5805123,"Year":1881},
{"landUse":"Heterodermia hypoleuca (Muhl.) Trevis.","ownership":"XBiotech Inc.","laws":"4041598518728","lon":49.95073,"lat":24.64995,"Year":1880},
{"landUse":"Poa marcida Hitchc.","ownership":"Invesco Bond Fund","laws":"4041597907906","lon":7.450268,"lat":6.2220043,"Year":1880},
{"landUse":"Penstemon clevelandii A. Gray ssp. connatus (Munz & I.M. Johnst.) D.D. Keck","ownership":"AllianzGI Diversified Income & Convertible Fund","laws":"4017954512000","lon":40.9629693,"lat":12.8207931,"Year":1880},
{"landUse":null,"ownership":"HSBC Holdings plc","laws":"4041371392101","lon":53.7090279,"lat":13.9734064,"Year":1880},
{"landUse":"Rhynchospora globularis (Chapm.) Small var. saxicola (Small) Kük.","ownership":"WisdomTree U.S. Quality Dividend Growth Fund","laws":null,"lon":null,"lat":null,"Year":null},
{"landUse":"Cyperus setigerus Torr. & Hook.","ownership":"United Natural Foods, Inc.","laws":"4041376072047","lon":-13.3023564,"lat":30.6509359,"Year":1881},
{"landUse":"Oxytropis huddelsonii A.E. Porsild","ownership":"The Spectranetics Corporation","laws":"4041594283020","lon":-2.1709979,"lat":32.730304,"Year":1879},
{"landUse":"Bacidia kingmanii Hasse","ownership":"Lincoln National Corporation","laws":"4041592908089401","lon":-7.3195036,"lat":53.149977,"Year":1880},
{"landUse":"Cymopterus purpureus S. Watson","ownership":"W&T Offshore, Inc.","laws":"4017955609292568","lon":40.7063972,"lat":45.506995,"Year":1880},
{"landUse":"Astragalus brandegeei Porter","ownership":"First Trust SSI Strategic Convertible Securities ETF","laws":"4017955233608197","lon":31.2303904,"lat":-8.2632302,"Year":1880},
{"landUse":"Pediomelum linearifolium (Torr. & A. Gray) J. Grimes","ownership":"CF Corporation","laws":"4041597623021548","lon":36.6484118,"lat":50.0326661,"Year":1880},
{"landUse":"Striga densiflora (Benth.) Benth.","ownership":"Valvoline Inc.","laws":"4017958847952399","lon":12.4082969,"lat":60.8004898,"Year":1880},
{"landUse":"Forestiera segregata (Jacq.) Krug & Urb. var. segregata","ownership":"Midatech Pharma PLC","laws":"4086828004501535","lon":15.48333,"lat":-4.5204349,"Year":1880},
{"landUse":"Ruellia nudiflora (Engelm. & A. Gray) Urb. var. runyonii (Tharp & F.A. Barkley) B.L. Turner","ownership":"VictoryShares Emerging Market Volatility Wtd ETF","laws":"4552943773313","lon":20.579097,"lat":25.4390388,"Year":1880},
{"landUse":"Thelypteris reptans (J.F. Gmel.) Morton var. reptans","ownership":"Royal Gold, Inc.","laws":"4041373816521870","lon":40.0604197,"lat":52.6201537,"Year":1881},
{"landUse":"Pectis imberbis A. Gray","ownership":"VBI Vaccines, Inc.","laws":"4834231345420","lon":39.7291573,"lat":28.822415,"Year":1880},
{"landUse":"Quercus ×sterilis Trel. ex Palmer","ownership":null,"laws":"4334971317424","lon":22.1623468,"lat":21.4674584,"Year":1880},
{"landUse":"Erigeron austiniae Greene","ownership":"Viavi Solutions Inc.","laws":"4823529133245261","lon":34.620202,"lat":27.7845955,"Year":1880},
{"landUse":"Cryptantha corollata (I.M. Johnst.) I.M. Johnst.","ownership":"Dominion Energy, Inc.","laws":"4041375910049","lon":33.437877,"lat":10.0451022,"Year":1881},
{"landUse":"Hypericum harperi R. Keller","ownership":"Old Line Bancshares, Inc.","laws":"4041599769420120","lon":-6.1989828,"lat":48.94776,"Year":1880},
{"landUse":"Cynanchum northropiae (Schltr.) Alain","ownership":"First Trust South Korea AlphaDEX Fund","laws":"4041374583664","lon":29.895386,"lat":-20.0859007,"Year":1879},
{"landUse":"Salix chamissonis Andersson","ownership":"PowerShares DWA Developed Markets Momentum Portfolio","laws":"4041597786614600","lon":-8.7287229,"lat":51.6515663,"Year":1880},
{"landUse":"Lathyrus brachycalyx Rydb. ssp. brachycalyx","ownership":null,"laws":"4041370671315","lon":9.9165452,"lat":49.2849107,"Year":1879},
{"landUse":"Campanula wilkinsiana Greene","ownership":"Quantenna Communications, Inc.","laws":"4041373284124","lon":10.2933091,"lat":49.8101924,"Year":1880},
{"landUse":"Chloris Sw.","ownership":"Algonquin Power & Utilities Corp.","laws":"4041377066634","lon":30.274084,"lat":-6.183459,"Year":1881},
{"landUse":"Sarracenia rosea Naczi, Case & R.B. Case","ownership":"Viavi Solutions Inc.","laws":"4320586754788951","lon":39.1845611,"lat":11.6155109,"Year":1880},
{"landUse":null,"ownership":"Miller Industries, Inc.","laws":"4992283111570630","lon":40.91889,"lat":53.149977,"Year":1879},
{"landUse":"Sarracenia rubra Walter ssp. rubra","ownership":"Protagonist Therapeutics, Inc.","laws":"4041596097799936","lon":4.956167,"lat":48.9200144,"Year":1881},
{"landUse":"Melampodium sericeum Lag.","ownership":"Webster Financial Corporation","laws":"4017955421342","lon":17.9835237,"lat":59.8787345,"Year":1880},
{"landUse":"Lepuropetalon Elliott","ownership":"Autobytel Inc.","laws":"4041592744645945","lon":-8.098672,"lat":48.6277459,"Year":1880},
{"landUse":"Mangifera indica L.","ownership":"Cerner Corporation","laws":"4017954187708087","lon":15.45033,"lat":19.8512387,"Year":1880},
{"landUse":"Chrysosplenium wrightii Franch. & Savigny var. wrightii","ownership":"Public Storage","laws":null,"lon":null,"lat":null,"Year":null},
{"landUse":"Limonium Mill.","ownership":null,"laws":"4017951979763262","lon":35.1678934,"lat":-19.90625,"Year":1880},
{"landUse":"Gratiola virginiana L. var. virginiana","ownership":"Tsakos Energy Navigation Ltd","laws":"4017950229112","lon":-23.0939881,"lat":-8.4774,"Year":1880},
{"landUse":"Lesquerella goodrichii Rollins","ownership":"Tocagen Inc.","laws":"4041371853322319","lon":45.8440218,"lat":14.26411,"Year":1880},
{"landUse":"Carex muehlenbergii Schkuhr ex Willd. var. enervis Boott","ownership":"Amphenol Corporation","laws":null,"lon":null,"lat":null,"Year":null},
{"landUse":"Monardella breweri A. Gray","ownership":"Thermo Fisher Scientific Inc","laws":"4041370664810553","lon":26.908404,"lat":10.3057678,"Year":1880},
{"landUse":"Hypnum revolutum (Mitt.) Lindb.","ownership":"OneBeacon Insurance Group, Ltd.","laws":"4041376401147","lon":36.759507,"lat":30.0130557,"Year":1879},
{"landUse":"Oenanthe sarmentosa C. Presl ex DC.","ownership":"Invacare Corporation","laws":"4041596110210036","lon":25.2527,"lat":21.8405365,"Year":1880},
{"landUse":"Paspalum coryphaeum Trin.","ownership":"Pro-Dex, Inc.","laws":"4275740162604061","lon":40.5470957,"lat":42.884784,"Year":1880},
{"landUse":"Githopsis specularioides Nutt.","ownership":"Global X SuperDividend REIT ETF","laws":null,"lon":null,"lat":null,"Year":null},
{"landUse":"Virola theiodora (Spruce ex Benth.) Warb.","ownership":"Natural Alternatives International, Inc.","laws":"4258225442870949","lon":-7.935534,"lat":-8.7334983,"Year":1879},
{"landUse":"Arctium tomentosum Mill.","ownership":"Trustmark Corporation","laws":"4382958736694695","lon":42.4099129,"lat":12.405227,"Year":1880},
{"landUse":"Mnium hornum Hedw.","ownership":"ACNB Corporation","laws":"4017957496916283","lon":-0.264241,"lat":10.6400163,"Year":1880},
{"landUse":"Pseudognaphalium obtusifolium (L.) Hilliard & B.L. Burtt ssp. saxicola (Fassett) Kartesz","ownership":"Ita? CorpBanca","laws":"4017953176842956","lon":40.479895,"lat":28.572029,"Year":1880},
{"landUse":"Cocculus diversifolius DC.","ownership":"FORM Holdings Corp.","laws":"4445959076608","lon":-6.192143,"lat":25.234479,"Year":1880},
{"landUse":"Plectritis ciliosa (Greene) Jeps. ssp. insignis (Suksd.) Morey","ownership":"Otter Tail Corporation","laws":"4017958591455","lon":52.6653765,"lat":-6.4185424,"Year":1879},
{"landUse":"Crassula multicava Lem.","ownership":"GlaxoSmithKline PLC","laws":"4017954741623111","lon":19.3579802,"lat":-7.5290051,"Year":1880},
{"landUse":"Valerianella umbilicata (Sull.) Alph. Wood","ownership":"Hi-Crush Partners LP","laws":"4041597061377931","lon":48.8383589,"lat":51.4986953,"Year":1880},
{"landUse":"Crepis bakeri Greene","ownership":"Planet Fitness, Inc.","laws":"4041597734094","lon":-6.2418983,"lat":29.042269,"Year":1880},
{"landUse":"Anthoceros fusiformis Austin","ownership":"TripAdvisor, Inc.","laws":"4207365671512291","lon":27.44587,"lat":30.5081033,"Year":1879},
{"landUse":"Lomatium nevadense (S. Watson) J.M. Coult. & Rose","ownership":"FIRST REPUBLIC BANK","laws":null,"lon":null,"lat":null,"Year":null},
{"landUse":"Axonopus P. Beauv.","ownership":"Federated Premier Intermediate Municipal Income Fund","laws":"4041591467444","lon":-7.7911198,"lat":-6.9940246,"Year":1880},
{"landUse":"Thelypteris inabonensis Proctor","ownership":"Black Box Corporation","laws":"4041374075024259","lon":57.7758077,"lat":-33.7363181,"Year":1880},
{"landUse":"Selaginella utahensis Flowers","ownership":"Gentherm Inc","laws":"4041376462727","lon":0.5142775,"lat":34.363184,"Year":1879},
{"landUse":"Cakile constricta Rodman","ownership":"Asbury Automotive Group Inc","laws":"4017959278892328","lon":53.2231057,"lat":23.179858,"Year":1880},
{"landUse":"Eragrostis elongata (Willd.) Jacq. f.","ownership":"M I Acquisitions, Inc.","laws":"4041590049370011","lon":39.16405,"lat":8.89508,"Year":1880},
{"landUse":"Schlegelia Miq.","ownership":"FormFactor, Inc.","laws":"4017959521105","lon":50.98709,"lat":42.4573467,"Year":1879},
{"landUse":"Streptanthus tortuosus Kellogg","ownership":null,"laws":"4041594941833","lon":42.438551,"lat":10.29041,"Year":1880},
{"landUse":"Sarcodes Torr.","ownership":"MV Oil Trust","laws":"4017950235337747","lon":10.9819737,"lat":30.044164,"Year":1881},
{"landUse":"Priva portoricensis Urb.","ownership":"Frontier Communications Corporation","laws":"4041374366540724","lon":36.5386629,"lat":42.9285549,"Year":1879},
{"landUse":"Fuirena bushii Kral","ownership":"On Deck Capital, Inc.","laws":"4594993893328","lon":45.1934857,"lat":37.4760836,"Year":1880},
{"landUse":"Dryopteris ×benedictii Wherry","ownership":"Bright Scholar Education Holdings Limited","laws":"4041598421239803","lon":-16.5030766,"lat":-22.8824635,"Year":1880},
{"landUse":"Plantago princeps Cham. & Schltdl.","ownership":"The Trade Desk, Inc.","laws":"4874689392946419","lon":49.6605765,"lat":46.2837247,"Year":1880},
{"landUse":"Pogonatum brachyphyllum (Michx.) P. Beauv.","ownership":"Altisource Portfolio Solutions S.A.","laws":"4314778924727484","lon":49.8719709,"lat":-23.5535152,"Year":1880},
{"landUse":"Rhizocarpon obscuratum (Ach.) A. Massal.","ownership":"OncoGenex Pharmaceuticals Inc.","laws":"4041375359291142","lon":19.4458447,"lat":48.891587,"Year":1881},
{"landUse":"Eriogonum umbellatum Torr. var. vernum Reveal","ownership":"CommerceHub, Inc.","laws":"4017956381640172","lon":41.3065186,"lat":49.7053824,"Year":1880},
{"landUse":"Zamia pumila L. ssp. pygmaea (Sims) Eckenwalder","ownership":"Hexcel Corporation","laws":"4950850981611130","lon":7.068209,"lat":-9.9678,"Year":1880},
{"landUse":"Bidens forbesii Sherff","ownership":"JD.com, Inc.","laws":"4017951862028","lon":39.928353,"lat":37.251388,"Year":1880},
{"landUse":"Schistidium Brid.","ownership":null,"laws":"4041593895176045","lon":41.7870665,"lat":35.3756077,"Year":1880},
{"landUse":"Trifolium barnebyi (Isely) Dorn & Lichvar","ownership":"Alphabet Inc.","laws":"4017951705091681","lon":40.934156,"lat":38.25555,"Year":1880},
{"landUse":"Entosthodon bolanderi Lesq.","ownership":"M III Acquisition Corp.","laws":"4041376266334","lon":46.31681,"lat":53.1106929,"Year":1880},
{"landUse":"Teucrium chamaedrys L.","ownership":"Dynex Capital, Inc.","laws":"4041599065703","lon":22.4423218,"lat":36.3573462,"Year":1881},
{"landUse":"Opuntia dillenii (Ker Gawl.) Haw.","ownership":"TiGenix","laws":"4017956324102991","lon":-15.4601506,"lat":14.6912206,"Year":1880},
{"landUse":"Piper retrofractum Vahl","ownership":"Agree Realty Corporation","laws":"4942798806651487","lon":3.541868,"lat":-0.3915604,"Year":1879},
{"landUse":"Cylindropuntia californica (Torr. & A. Gray) F.M. Knuth var. parkeri (J.M. Coult.) J. Rebman","ownership":"Kelly Services, Inc.","laws":"4041378799783579","lon":39.3577545,"lat":44.2682727,"Year":1880},
{"landUse":"Hymenopappus filifolius Hook. var. polycephalus (Osterh.) B.L. Turner","ownership":"Berkshire Hathaway Inc.","laws":"4041595673518","lon":18.7863009,"lat":-31.4774881,"Year":1880},
{"landUse":"Pyrenula erumpens R.C. Harris","ownership":"WisdomTree Strategic Corporate Bond Fund","laws":"4041374694500366","lon":46.71034,"lat":7.9047781,"Year":1879},
{"landUse":"Cymopterus purpureus S. Watson","ownership":"VSE Corporation","laws":"4017958833375860","lon":54.194145,"lat":47.6420762,"Year":1879},
{"landUse":"Rhynchosia tomentosa (L.) Hook. & Arn.","ownership":"Synalloy Corporation","laws":"4456721472660","lon":50.1597603,"lat":35.735435,"Year":1880},
{"landUse":"Crepis monticola Coville","ownership":"Boulevard Acquisition Corp. II","laws":"4041373556752","lon":25.849502,"lat":-22.8340652,"Year":1880},
{"landUse":"Pycnanthemum incanum (L.) Michx. var. puberulum (E. Grant & Epling) Fernald","ownership":null,"laws":"4041375228660816","lon":10.711091,"lat":43.4945737,"Year":1880},
{"landUse":"Eucharis Planch. & Linden","ownership":"RGC Resources Inc.","laws":"4041597547439","lon":10.5685138,"lat":41.4853545,"Year":1879},
{"landUse":"Potamogeton spirillus Tuck.","ownership":"Enphase Energy, Inc.","laws":"4041595508417","lon":52.6269375,"lat":43.8006906,"Year":1880},
{"landUse":"Digitaria milanjiana (Rendle) Stapf","ownership":"Lumber Liquidators Holdings, Inc","laws":"4242925814015507","lon":58.5928103,"lat":-7.3364127,"Year":1880},
{"landUse":"Tradescantia occidentalis (Britton) Smyth var. occidentalis","ownership":"Kate Spade & Company","laws":"4734738320043","lon":55.599648,"lat":30.921396,"Year":1880},
{"landUse":"Collomia heterophylla Douglas ex Hook.","ownership":"The Gabelli Healthcare & Wellness Trust","laws":"4041597391218","lon":45.3394939,"lat":22.5064672,"Year":1881},
{"landUse":"Polygonum douglasii Greene ssp. majus (Meisn.) J.C. Hickman","ownership":"Ocera Therapeutics, Inc.","laws":null,"lon":null,"lat":null,"Year":null},
{"landUse":"Actaea arizonica (S. Watson) J. Compton","ownership":"Golar LNG Partners LP","laws":"4019041749926","lon":38.751115,"lat":36.973912,"Year":1880},
{"landUse":"Eriophyllum Lag.","ownership":"Fuel Tech, Inc.","laws":null,"lon":null,"lat":null,"Year":null},
{"landUse":"Nephelium lappaceum L.","ownership":"Enel Chile S.A.","laws":"4041371702472323","lon":32.060255,"lat":39.9041999,"Year":1880},
{"landUse":"Astragalus feensis M.E. Jones","ownership":"Hanmi Financial Corporation","laws":"4838580146270989","lon":-8.7377882,"lat":-12.266667,"Year":1880},
{"landUse":"Muhlenbergia glauca (Nees) B.D. Jacks.","ownership":"Public Storage","laws":null,"lon":null,"lat":null,"Year":null},
{"landUse":"Cissus nodosa Blume","ownership":"Diageo plc","laws":"4041372450965","lon":33.426956,"lat":7.8806888,"Year":1881},
{"landUse":"Waldsteinia fragarioides (Michx.) Tratt.","ownership":"PHH Corp","laws":"4017958388634976","lon":37.651814,"lat":28.065079,"Year":1879},
{"landUse":"Fraxinus americana L.","ownership":"Ambac Financial Group, Inc.","laws":"4017951722909519","lon":33.2667748,"lat":35.897702,"Year":1879},
{"landUse":"Coronopus didymus (L.) Sm.","ownership":"Permian Basin Royalty Trust","laws":"4759448990876","lon":33.052837,"lat":-20.9306687,"Year":1880},
{"landUse":"Iva imbricata Walter","ownership":"MTS Systems Corporation","laws":"4017959594780306","lon":-6.9736661,"lat":-6.9250071,"Year":1880},
{"landUse":"Astragalus lentiginosus Douglas ex Hook. var. pohlii S.L. Welsh & Barneby","ownership":"Twitter, Inc.","laws":"4979231403214","lon":55.0775116,"lat":26.641774,"Year":1880},
{"landUse":"Heliotropium curassavicum L.","ownership":"FlexShopper, Inc.","laws":null,"lon":null,"lat":null,"Year":null},
{"landUse":null,"ownership":"Erie Indemnity Company","laws":"4017952464854871","lon":15.8303364,"lat":-1.7879521,"Year":1880},
{"landUse":"Ranunculus sardous Crantz","ownership":"Ashford Hospitality Trust Inc","laws":"4017952230517562","lon":-6.761747,"lat":-20.9829904,"Year":1880},
{"landUse":"Agoseris ×montana Osterh. (pro sp.)","ownership":null,"laws":"4659298588392","lon":48.9236625,"lat":24.44218,"Year":1880},
{"landUse":"Lupinus burkei S. Watson ssp. burkei","ownership":"Entergy Louisiana, Inc.","laws":"4041594259053","lon":38.09234,"lat":64.1046451,"Year":1880},
{"landUse":"Myrsine cubana A. DC.","ownership":"Continental Resources, Inc.","laws":"4041370308510171","lon":52.6053795,"lat":23.051645,"Year":1880},
{"landUse":"Ochrolechia oregonensis H. Magn.","ownership":"Great Ajax Corp.","laws":"4081761512538","lon":51.378691,"lat":3.14405,"Year":1879},
{"landUse":"Carpobrotus N.E. Br.","ownership":"Hydrogenics Corporation","laws":"4131565335089","lon":56.501455,"lat":34.1680953,"Year":1882},
{"landUse":"Quercus nigra L.","ownership":"Urstadt Biddle Properties Inc.","laws":"4041379248850423","lon":30.9048784,"lat":46.801046,"Year":1880},
{"landUse":"Isoetes ×fairbrothersii J.D. Montgom. & W.C. Taylor","ownership":"Sumitomo Mitsui Financial Group Inc","laws":"4017954822466265","lon":22.6659838,"lat":59.0069977,"Year":1881},
{"landUse":"Selaginella densa Rydb. var. scopulorum (Maxon) R. Tryon","ownership":null,"laws":"4017951917830","lon":43.1463186,"lat":-8.3083083,"Year":1880},
{"landUse":"Ayenia limitaris Cristobal","ownership":"JAKKS Pacific, Inc.","laws":"4017956014512673","lon":11.8700773,"lat":38.430793,"Year":1879},
{"landUse":"Abutilon Mill.","ownership":"Protagonist Therapeutics, Inc.","laws":"4041592115319617","lon":16.0166339,"lat":51.789985,"Year":1881},
{"landUse":"Coccotrema Müll. Arg.","ownership":"Global X Health & Wellness Thematic ETF","laws":"4017955383690","lon":40.9512231,"lat":59.2154931,"Year":1881},
{"landUse":"Albizia ferruginea (Guill. & Perr.) Benth.","ownership":"VEREIT Inc.","laws":"4041370181363383","lon":52.8234799,"lat":-8.3698126,"Year":1880},
{"landUse":"Eryngium yuccifolium Michx. var. yuccifolium","ownership":"Summit Hotel Properties, Inc.","laws":"4017957372436","lon":24.4752847,"lat":45.5623078,"Year":1880},
{"landUse":"Funaria americana Lindb.","ownership":"Delaware Investments Dividend & Income Fund, Inc.","laws":null,"lon":null,"lat":null,"Year":null},
{"landUse":"Herzogiella seligeri (Brid.) Z. Iwats.","ownership":"AzurRx BioPharma, Inc.","laws":"4017957556855","lon":29.689847,"lat":45.86678,"Year":1881},
{"landUse":"Lecidea louisianae de Lesd.","ownership":"Community Trust Bancorp, Inc.","laws":"4540172214786","lon":39.36445,"lat":-7.6492089,"Year":1880},
{"landUse":"Saritaea Dugand","ownership":"iShares Commodities Select Strategy ETF","laws":"4753592665839111","lon":51.4588944,"lat":55.2397021,"Year":1880},
{"landUse":"Micromitrium megalosporum Austin","ownership":"MFA Financial, Inc.","laws":"4041598506939","lon":23.396201,"lat":22.63964,"Year":1881},
{"landUse":"Lagophylla ramosissima Nutt. ssp. ramosissima","ownership":"HomeTrust Bancshares, Inc.","laws":"4041375319225","lon":-21.8930428,"lat":34.527114,"Year":1880},
{"landUse":"Isopogon R. Br. ex Knight","ownership":"NASDAQ TEST STOCK","laws":"4041593139304882","lon":49.6207834,"lat":41.4636032,"Year":1880},
{"landUse":"Mnium hornum Hedw.","ownership":"BlackLine, Inc.","laws":"4041372821253974","lon":54.3418823,"lat":30.274084,"Year":1881},
{"landUse":"Cupaniopsis Radlk.","ownership":"Imperva, Inc.","laws":"4041593674764979","lon":46.1650664,"lat":10.3089871,"Year":1881},
{"landUse":"Leucojum L.","ownership":"Global Payments Inc.","laws":"4041372469837336","lon":60.0828404,"lat":8.5213374,"Year":1881},
{"landUse":"Steinia geophana (Nyl.) Stein","ownership":"Saul Centers, Inc.","laws":"4017956581413461","lon":9.1749262,"lat":51.3436553,"Year":1880},
{"landUse":"Loeskypnum wickesiae (Grout) Tuom.","ownership":"Revolution Lighting Technologies, Inc.","laws":"4041371321710574","lon":51.1488512,"lat":37.44056,"Year":1880},
{"landUse":"Leontodon autumnalis L. ssp. pratensis (Link) Arcang.","ownership":"Royce Micro-Cap Trust, Inc.","laws":"4041371111832","lon":64.918515,"lat":22.28616,"Year":1880},
{"landUse":"Lesquerella macrocarpa A. Nelson","ownership":"Panera Bread Company","laws":"4041377146691","lon":39.9542181,"lat":-6.7132088,"Year":1880},
{"landUse":"Lepraria neglecta (Nyl.) Erichsen","ownership":"Telephone and Data Systems, Inc.","laws":null,"lon":null,"lat":null,"Year":null},
{"landUse":"Rosa sicula Tratt.","ownership":null,"laws":"4041371355737204","lon":41.45472,"lat":14.1507357,"Year":1880},
{"landUse":"Physalis turbinata Medik.","ownership":"Manitex International, Inc.","laws":"4041371506789070","lon":53.374266,"lat":-10.0188555,"Year":1879},
{"landUse":"Arthonia quintaria Nyl.","ownership":"Rexford Industrial Realty, Inc.","laws":"4017957042682","lon":29.299402,"lat":15.2307976,"Year":1880},
{"landUse":"Euonymus L.","ownership":"Neurotrope, Inc.","laws":"4041378192111378","lon":49.41894,"lat":-37.5059062,"Year":1880},
{"landUse":"Ferocactus emoryi (Engelm.) Orcutt","ownership":"Plug Power, Inc.","laws":"4017956219950223","lon":55.68871,"lat":11.4998068,"Year":1880},
{"landUse":"Lempholemma chalazanum (Ach.) de Lesd.","ownership":"Ciner Resources LP","laws":"4017959562898098","lon":13.0748879,"lat":48.6513092,"Year":1881},
{"landUse":"Quercus serrata Thunb.","ownership":"Green Brick Partners, Inc.","laws":"4041597552550384","lon":34.137139,"lat":60.0024341,"Year":1880},
{"landUse":"Diplacus lompocensis McMinn","ownership":"iShares MSCI ACWI ex US Index Fund","laws":"4041377069661","lon":39.726929,"lat":30.299559,"Year":1881},
{"landUse":"Campyloneurum repens (Aubl.) C. Presl","ownership":"iStar Financial Inc.","laws":"4017953455409","lon":22.3908295,"lat":56.0711371,"Year":1880},
{"landUse":"Leptogium denticulatum Tuck.","ownership":"Applied Materials, Inc.","laws":"4041594296512960","lon":37.517256,"lat":-6.6825,"Year":1880},
{"landUse":"Arctostaphylos peninsularis P.V. Wells","ownership":"Pimco Global Stocksplus & Income Fund","laws":"4041375992287689","lon":40.7163491,"lat":9.7076223,"Year":1880},
{"landUse":"Amphitecna Miers","ownership":"Putnam Premier Income Trust","laws":"4041595196821526","lon":50.94076,"lat":49.116169,"Year":1881},
{"landUse":"Eriogonum strictum Benth. ssp. strictum","ownership":"Retail Opportunity Investments Corp.","laws":"4820802271228768","lon":23.774635,"lat":39.63549,"Year":1881},
{"landUse":"Notholithocarpus densiflorus (Hook. & Arn.) P.S. Manos, C.H. Cannon, & S.H. Oh f. attenuatodentatus (J.M. Tucker, Sundahl & D.O. Hall) P.M. McDonald, J.W. Zhang, Senock, & J.W. Wright","ownership":"Solaris Oilfield Infrastructure, Inc.","laws":"4041375060928","lon":38.0932151,"lat":-3.2244045,"Year":1880},
{"landUse":"Pohlia cruda (Hedw.) Lindb.","ownership":"Casella Waste Systems, Inc.","laws":"4041592769194","lon":-36.8929232,"lat":57.6801021,"Year":1880},
{"landUse":"Thelomma mammosum (Hepp) A. Massal.","ownership":"GasLog Partners LP","laws":"4041598917185","lon":9.6522451,"lat":51.3217146,"Year":1880},
{"landUse":"Mimulus pulsiferae A. Gray","ownership":"ABM Industries Incorporated","laws":"4017950755827929","lon":-6.1999592,"lat":28.153607,"Year":1880},
{"landUse":"Milla Cav.","ownership":"Commerce Bancshares, Inc.","laws":"4017951396957612","lon":14.9445596,"lat":46.7530428,"Year":1880},
{"landUse":"Arabis pusilla Rollins","ownership":null,"laws":"4474708774248","lon":-37.7912944,"lat":41.28168,"Year":1880},
{"landUse":null,"ownership":null,"laws":null,"lon":null,"lat":null,"Year":null},
{"landUse":"Ribes missouriense Nutt.","ownership":"Yingli Green Energy Holding Company Limited","laws":"4041598841004506","lon":35.8966741,"lat":14.6155555,"Year":1880},
{"landUse":"Astragalus humistratus A. Gray var. humistratus","ownership":"j2 Global, Inc.","laws":"4017952470813","lon":-27.01139,"lat":5.98111,"Year":1880},
{"landUse":"Rhytidiadelphus (Lindb. ex Limpr.) Warnst.","ownership":"Willis Towers Watson Public Limited Company","laws":"4041378876658165","lon":43.4945737,"lat":55.2067999,"Year":1880},
{"landUse":"Pseudobryum cinclidioides (Hüb.) T. Kop.","ownership":"Portola Pharmaceuticals, Inc.","laws":"4041590267926163","lon":-8.5314465,"lat":50.8033215,"Year":1880},
{"landUse":"Sporastatia A. Massal.","ownership":"MSB Financial Corp.","laws":"4475675593263","lon":15.3549925,"lat":37.363389,"Year":1880},
{"landUse":"Spathodea campanulata P. Beauv.","ownership":"BroadVision, Inc.","laws":"4017954237046","lon":-8.5324,"lat":63.1257009,"Year":1880},
{"landUse":"Misopates orontium (L.) Raf.","ownership":"Enel Chile S.A.","laws":"4017953329711","lon":33.2667748,"lat":31.267107,"Year":1880},
{"landUse":"Paphiopedilum Pfitzer","ownership":"Southern California Edison Company","laws":"4017953421823","lon":49.6610036,"lat":14.4437285,"Year":1880},
{"landUse":"Cyrtandra wagneri Lorence & Perlman","ownership":"Colony NorthStar, Inc.","laws":"4864155392055256","lon":15.2988083,"lat":44.5288785,"Year":1880},
{"landUse":"Acacia constricta Benth. var. constricta","ownership":null,"laws":"4633225286024","lon":33.7868136,"lat":34.253164,"Year":1880},
{"landUse":"Erigeron oxyodontus Lunell","ownership":"First Trust Mid Cap Core AlphaDEX Fund","laws":"4017958620813859","lon":-8.7394711,"lat":31.2802667,"Year":1881},
{"landUse":"Vicia nigricans Hook. & Arn.","ownership":"The Community Financial Corporation","laws":"4041590152872","lon":13.8013,"lat":24.102499,"Year":1880},
{"landUse":"Poa bigelovii Vasey & Scribn.","ownership":"Fluor Corporation","laws":"4017952107010253","lon":41.1637808,"lat":33.7098769,"Year":1880},
{"landUse":"Delphinium glaucescens Rydb.","ownership":"Targa Resources, Inc.","laws":"4041377451129014","lon":60.7428382,"lat":31.9311556,"Year":1880},
{"landUse":"Delissea laciniata Hillebr.","ownership":"Diplomat Pharmacy, Inc.","laws":"4041590521548","lon":35.6353092,"lat":30.857151,"Year":1880},
{"landUse":"Panax trifolius L.","ownership":"ALJ Regional Holdings, Inc.","laws":"4041597023590225","lon":46.31681,"lat":48.1967872,"Year":1880},
{"landUse":"Lychnis chalcedonica L.","ownership":"First Trust RiverFront Dynamic Developed International ETF","laws":"4041592596589","lon":31.208465,"lat":41.0394733,"Year":1880},
{"landUse":null,"ownership":"Rosehill Resources Inc.","laws":"4041373501508083","lon":39.6053819,"lat":32.38291,"Year":1881},
{"landUse":"Polygala hookeri Torr. & A. Gray","ownership":"M&T Bank Corporation","laws":"4041599676372646","lon":34.7720133,"lat":49.1141224,"Year":1880},
{"landUse":"Ficus vogelii (Miq.) Miq.","ownership":"Zions Bancorporation","laws":"4595614771378446","lon":25.2284355,"lat":32.756417,"Year":1879},
{"landUse":"Malacothrix foliosa A. Gray","ownership":"Guess?, Inc.","laws":"4041595023007349","lon":34.937516,"lat":52.746302,"Year":1880},
{"landUse":"Platygyrium repens (Brid.) Schimp.","ownership":"CytomX Therapeutics, Inc.","laws":null,"lon":null,"lat":null,"Year":null},
{"landUse":"Collema cristatum (L.) F.H. Wigg.","ownership":"Red Lion Hotels Corporation","laws":"4434899343807","lon":5.312706,"lat":-8.1719354,"Year":1880},
{"landUse":"Berula erecta (Huds.) Coville","ownership":"Tandy Leather Factory, Inc.","laws":"4041371559535552","lon":50.7504165,"lat":50.0932868,"Year":1880},
{"landUse":"Lupinus arcticus S. Watson ssp. subalpinus (Piper & B.L. Rob.) D. Dunn","ownership":"Ennis, Inc.","laws":"4041591567523692","lon":24.326292,"lat":10.29041,"Year":1880},
{"landUse":"Petradoria pumila (Nutt.) Greene ssp. pumila","ownership":"Territorial Bancorp Inc.","laws":"4041590559502482","lon":-19.157438,"lat":49.3962315,"Year":1879},
{"landUse":"Nephrolepis falcata (Cav.) C. Chr.","ownership":"Cesca Therapeutics Inc.","laws":"4017950608786","lon":29.343221,"lat":-3.565921,"Year":1880},
{"landUse":"×Lindsaeosoria W.H. Wagner","ownership":"Seaspan Corporation","laws":"4845969771404396","lon":3.5737543,"lat":35.8242238,"Year":1881},
{"landUse":"Dubautia scabra (DC.) D.D. Keck ssp. scabra","ownership":"Biogen Inc.","laws":"4041374643540323","lon":41.2096879,"lat":41.486981,"Year":1880},
{"landUse":"Pteris mutilata L.","ownership":"Zendesk, Inc.","laws":"4041595056375","lon":22.983121,"lat":-23.6233032,"Year":1880},
{"landUse":"Saxifraga mertensiana Bong.","ownership":"Nexeo Solutions, Inc.","laws":"4041599738689","lon":54.1347287,"lat":53.3223974,"Year":1880},
{"landUse":"Spinifex hirsutus Labill.","ownership":"Hasbro, Inc.","laws":"4041596333807402","lon":40.1654278,"lat":35.6139047,"Year":1880},
{"landUse":"Styrax platanifolius Engelm. ssp. youngiae (Cory) P.W. Fritsch","ownership":"Core Laboratories N.V.","laws":"4041595729997","lon":28.998299,"lat":16.7122183,"Year":1880},
{"landUse":"Sarcogyne bolleana H. Magn.","ownership":"Verizon Communications Inc.","laws":"4017958636631","lon":22.816884,"lat":3.1523104,"Year":1880},
{"landUse":"Senecio spartioides Torr. & A. Gray var. spartioides","ownership":"Resonant Inc.","laws":"4041370277467437","lon":37.3,"lat":-7.2760371,"Year":1880},
{"landUse":"Opuntia polyacantha Haw. var. nicholii (L.D. Benson) Parfitt","ownership":"Associated Capital Group, Inc.","laws":"4041372502632025","lon":22.2222241,"lat":28.188415,"Year":1880},
{"landUse":"Aspalathus linearis (Burm. f.) R. Dahlgren","ownership":"Seanergy Maritime Holdings Corp","laws":"4586027512856177","lon":46.8318267,"lat":50.1206081,"Year":1880},
{"landUse":"Symphyotrichum drummondii (Lindl.) G.L. Nesom var. drummondii","ownership":"Marvell Technology Group Ltd.","laws":"4041379742176499","lon":34.454443,"lat":45.3444075,"Year":1880},
{"landUse":"Carex communis L.H. Bailey","ownership":"Calamos Global Total Return Fund","laws":"4999280709279","lon":48.3245206,"lat":-18.0065679,"Year":1881},
{"landUse":"Phragmites australis (Cav.) Trin. ex Steud. ssp. australis","ownership":"Information Services Group, Inc.","laws":"4657683032591092","lon":-3.2930615,"lat":-28.733291,"Year":1880},
{"landUse":"Arnoglossum Raf.","ownership":"Research Frontiers Incorporated","laws":"4041596250989407","lon":29.76,"lat":16.23063,"Year":1880},
{"landUse":"Sarracenia ×swaniana hort. ex G. Nicholson (pro sp.)","ownership":"Intercontinental Exchange Inc.","laws":"4041379463780164","lon":49.4702817,"lat":35.0475045,"Year":1880},
{"landUse":"Fontanesia phillyreoides Labill. ssp. fortunei (Carrière) Yaltirik","ownership":"Phibro Animal Health Corporation","laws":"4650927983963","lon":42.91679,"lat":33.5389052,"Year":1881},
{"landUse":"Tetraneuris acaulis (Pursh) Greene","ownership":"AptarGroup, Inc.","laws":"4784993842280","lon":49.23335,"lat":38.3192083,"Year":1879},
{"landUse":"Dysphania multifida (L.) Mosyakin & Clemants","ownership":"Encana Corporation","laws":"4664042385174512","lon":12.6679167,"lat":-6.939897,"Year":1880},
{"landUse":"Chelone obliqua L. var. erwiniae Pennell & Wherry","ownership":"FutureFuel Corp.","laws":"4017953786968712","lon":39.928353,"lat":41.0901834,"Year":1880},
{"landUse":"Thelypteris ×incesta W.H. Wagner","ownership":null,"laws":"4041373059062","lon":8.189424,"lat":11.8962488,"Year":1880},
{"landUse":"Adiantum fragile Sw. var. rigidulum (Mett. ex Kuhn) Proctor","ownership":"Second Sight Medical Products, Inc.","laws":"4041597283272514","lon":4.5422628,"lat":47.859986,"Year":1879},
{"landUse":"Cibotium glaucum (Sm.) Hook. & Arn.","ownership":"John Hancock Premium Dividend Fund","laws":"4895751162312183","lon":22.558237,"lat":7.0394127,"Year":1880},
{"landUse":"Agalinis flexicaulis Hays","ownership":"Overseas Shipholding Group, Inc.","laws":"4143731972828","lon":35.375873,"lat":41.2349471,"Year":1880},
{"landUse":"Ambrosia tenuifolia Spreng.","ownership":"STORE Capital Corporation","laws":"4041375787637","lon":22.354385,"lat":39.877206,"Year":1880},
{"landUse":"Parrya R. Br.","ownership":"Magyar Bancorp, Inc.","laws":"4398395593706977","lon":28.797983,"lat":20.1566488,"Year":1880},
{"landUse":"Leptosiphon bolanderi (A. Gray) J.M. Porter & L.A. Johnson","ownership":null,"laws":"4681204458000649","lon":-8.2484009,"lat":8.9823792,"Year":1881},
{"landUse":"Genista canariensis L.","ownership":"Blue Capital Reinsurance Holdings Ltd.","laws":"4017958605933","lon":25.5562935,"lat":50.7792181,"Year":1880},
{"landUse":"Bromus latiglumis (Shear) Hitchc.","ownership":"GTx, Inc.","laws":"4017956597166053","lon":55.7597032,"lat":52.0442252,"Year":1880},
{"landUse":"Tanacetum parthenium (L.) Sch. Bip.","ownership":"Gladstone Investment Corporation","laws":"4017956766224","lon":-13.54918,"lat":22.843818,"Year":1879},
{"landUse":"Lupinus nanus Douglas ex Benth.","ownership":null,"laws":"4041595785873979","lon":-8.0716019,"lat":38.689871,"Year":1880},
{"landUse":"Spiraea douglasii Hook.","ownership":"Changyou.com Limited","laws":"4017956453917649","lon":26.693697,"lat":13.816667,"Year":1880},
{"landUse":"Sanguisorba officinalis L.","ownership":"Pangaea Logistics Solutions Ltd.","laws":"4619632766161","lon":56.5005833,"lat":8.797145,"Year":1879},
{"landUse":"Verbascum phoeniceum L.","ownership":"Unit Corporation","laws":null,"lon":null,"lat":null,"Year":null},
{"landUse":"Diospyros kaki L. f.","ownership":"Genesis Energy, L.P.","laws":"4041373159301716","lon":-6.936,"lat":3.5233855,"Year":1881},
{"landUse":null,"ownership":"pdvWireless, Inc.","laws":"4127080537027510","lon":23.642114,"lat":43.4903429,"Year":1880},
{"landUse":"Calothamnus quadrifidus R. Br.","ownership":"TEGNA Inc.","laws":"4017957721426","lon":41.5399755,"lat":52.1513886,"Year":1880},
{"landUse":"Lithophragma cymbalaria Torr. & A. Gray","ownership":"Great Plains Energy Inc","laws":"4215201395540013","lon":31.62329,"lat":59.3235522,"Year":1879},
{"landUse":"Albizia lebbekoides (DC.) Benth.","ownership":"SPDR Dorsey Wright Fixed Income Allocation ETF","laws":"4041378234849605","lon":40.4234188,"lat":32.070084,"Year":1880},
{"landUse":"Solanum lanceolatum Cav.","ownership":null,"laws":"4041379073920846","lon":8.3331847,"lat":-6.1999592,"Year":1880},
{"landUse":"Malaxis corymbosa (S. Watson) Kuntze","ownership":"Exponent, Inc.","laws":"4041375829111896","lon":13.8811133,"lat":38.682014,"Year":1880},
{"landUse":"Alisma triviale Pursh","ownership":null,"laws":"4942985620326","lon":43.0717734,"lat":-7.4951399,"Year":1880},
{"landUse":"Nyssa ogeche W. Bartram ex Marshall","ownership":"Affiliated Managers Group, Inc.","laws":"4041377244914813","lon":40.2487413,"lat":7.6182738,"Year":1880},
{"landUse":"Bulbostylis antillana (Britton) Fernald","ownership":"Steelcase Inc.","laws":"4017958448405706","lon":1.4081109,"lat":-26.8751803,"Year":1880},
{"landUse":"Pseudobahia heermannii (Durand) Rydb.","ownership":"Maiden Holdings, Ltd.","laws":"4072431899042479","lon":52.1929515,"lat":22.265811,"Year":1881},
{"landUse":"Penstemon immanifestus N.H. Holmgren","ownership":"SP Plus Corporation","laws":"4041598368328627","lon":36.34931,"lat":52.44387,"Year":1880},
{"landUse":"Lopadium dodgei Herre","ownership":"Guggenheim Credit Allocation Fund","laws":null,"lon":null,"lat":null,"Year":null},
{"landUse":"Hypericum tenuifolium Pursh","ownership":"DURECT Corporation","laws":"4041592056537565","lon":14.024307,"lat":-8.1456159,"Year":1879},
{"landUse":"Asplenium lobulatum Mett.","ownership":"First Trust BICK Index Fund","laws":"4017958522252","lon":42.4476716,"lat":-23.2218772,"Year":1880},
{"landUse":"Arenaria pumicola Coville & Leiberg","ownership":"Invesco Senior Income Trust","laws":"4041374074847","lon":61.063264,"lat":-1.9,"Year":1880},
{"landUse":"Escobaria dasyacantha (Engelm.) Britton & Rose var. chaffeyi (Britton & Rose) N.P. Taylor","ownership":"Top Image Systems, Ltd.","laws":"4017959205899","lon":21.955472,"lat":-7.4468,"Year":1880},
{"landUse":"Platanthera macrophylla (Goldie) P.M. Brown","ownership":"BlackRock Energy and Resources Trust","laws":"4114393116150768","lon":35.0965045,"lat":34.198019,"Year":1880},
{"landUse":"Amyris P. Br.","ownership":"CDW Corporation","laws":null,"lon":null,"lat":null,"Year":null},
{"landUse":"Rumex skottsbergii O. Deg. & I. Deg.","ownership":"Nuveen Missouri Quality Municipal Income Fund","laws":"4041379874613","lon":49.6271732,"lat":29.689847,"Year":1881},
{"landUse":"Croton argyranthemus Michx.","ownership":"Cal-Maine Foods, Inc.","laws":"4017957405005558","lon":41.1734791,"lat":-13.5426013,"Year":1880},
{"landUse":"Rhynchosia phaseoloides (Sw.) DC.","ownership":"McDonald's Corporation","laws":"4017957358079980","lon":28.262375,"lat":8.2825028,"Year":1880},
{"landUse":"Senna ligustrina (L.) Irwin & Barneby","ownership":"WCF Bancorp, Inc.","laws":"4017952830412","lon":49.6859609,"lat":-6.336862,"Year":1879},
{"landUse":"Trisetum canescens Buckley","ownership":"Educational Development Corporation","laws":"4041372254265750","lon":-23.2140719,"lat":39.386508,"Year":1880},
{"landUse":"Viola nuttallii Pursh","ownership":"Microbot Medical Inc. ","laws":"4789940500931","lon":11.4672917,"lat":48.0414975,"Year":1880},
{"landUse":"Prockia crucis P. Br. ex L.","ownership":"WMIH Corp.","laws":"4041374142511","lon":49.7243301,"lat":-10.4322235,"Year":1879},
{"landUse":"Phacelia ivesiana Torr. var. ivesiana","ownership":"Trimble Inc.","laws":"4041377743554","lon":59.3630303,"lat":45.4560254,"Year":1879},
{"landUse":"Drosera intermedia Hayne","ownership":"Kingtone Wirelessinfo Solution Holding Ltd","laws":"4017952856722","lon":48.695223,"lat":30.314378,"Year":1880},
{"landUse":"Dalea nana Torr. ex A. Gray var. carnescens Kearney & Peebles","ownership":"Martin Midstream Partners L.P.","laws":"4041594520702","lon":24.77848,"lat":6.6644629,"Year":1880},
{"landUse":"Indigofera hendecaphylla Jacq.","ownership":"Workhorse Group, Inc.","laws":"4748814366936","lon":22.481274,"lat":41.2212595,"Year":1880},
{"landUse":"Swallenia Söderst. & Decker","ownership":"Kennedy-Wilson Holdings Inc.","laws":"4017954132248940","lon":29.7386119,"lat":26.117104,"Year":1880},
{"landUse":"Polymeridium (Müll. Arg.) R.C. Harris","ownership":"Bottomline Technologies, Inc.","laws":"4229020753118","lon":36.973912,"lat":-6.4897822,"Year":1880},
{"landUse":"Paulownia Siebold & Zucc.","ownership":null,"laws":"4041599182524","lon":40.7325414,"lat":49.6498731,"Year":1880},
{"landUse":"Eusideroxylon Teijsm. & Binnend.","ownership":"Southern California Edison Company","laws":"4017955059128049","lon":52.391799,"lat":22.9758497,"Year":1880},
{"landUse":"Symphyotrichum porteri (A. Gray) G.L. Nesom","ownership":"Citigroup Inc.","laws":"4056102419304","lon":42.0889602,"lat":23.0604451,"Year":1880},
{"landUse":"Cornus sessilis Torr. ex Durand","ownership":"Gabelli Convertible and Income Securities Fund, Inc. (The)","laws":"4041591445887343","lon":-8.3765619,"lat":46.1743441,"Year":1880},
{"landUse":"Lygodium microphyllum (Cav.) R. Br.","ownership":"EQT GP Holdings, LP","laws":"4041374688638","lon":36.994225,"lat":52.99444,"Year":1880},
{"landUse":"Eucalyptus rigens Brooker & Hopper","ownership":"BlackRock New Jersey Municipal Income Trust","laws":"4189078562649","lon":40.8358295,"lat":43.1795227,"Year":1880},
{"landUse":"Salix monticola Bebb","ownership":"Erie Indemnity Company","laws":"4041598820314","lon":-7.4621337,"lat":-34.5727938,"Year":1880},
{"landUse":"Microseris heterocarpa (Nutt.) K.L. Chambers","ownership":"Argan, Inc.","laws":"4017958319893212","lon":-39.2147054,"lat":64.7633191,"Year":1881},
{"landUse":"Polygonum bellardii All.","ownership":"Novanta Inc.","laws":"4041597318831029","lon":51.7173795,"lat":19.4392516,"Year":1881},
{"landUse":"Balsamorhiza careyana A. Gray var. careyana","ownership":"CHS Inc","laws":"4041374708196474","lon":49.2030849,"lat":12.805294,"Year":1879},
{"landUse":"Relicina eximbricata (Gyel.) Hale","ownership":"TripAdvisor, Inc.","laws":null,"lon":null,"lat":null,"Year":null},
{"landUse":"Mimulus rupicola Coville & A.L. Grant","ownership":"Marin Software Incorporated","laws":"4512360657282","lon":30.582271,"lat":52.671181,"Year":1881},
{"landUse":"Gentianella propinqua (Richardson) J.M. Gillett ssp. aleutica (Cham. & Schltdl.) J.M. Gillett","ownership":"Coca Cola Femsa S.A.B. de C.V.","laws":null,"lon":null,"lat":null,"Year":null},
{"landUse":"Zwackhiomyces Grube & Hafellner","ownership":"ICU Medical, Inc.","laws":"4149195666468410","lon":45.508348,"lat":59.905383,"Year":1881},
{"landUse":"Trapeliopsis viridescens (Schrad.) Coppins & P. James","ownership":"Eaton Vance Municipal Income Trust","laws":"4041592463799154","lon":42.34,"lat":8.2414293,"Year":1879},
{"landUse":"Hamamelis L.","ownership":"PCSB Financial Corporation","laws":null,"lon":null,"lat":null,"Year":null},
{"landUse":"Leptospermum petersonii L.H. Bailey","ownership":"Patheon N.V.","laws":"4041375910338","lon":38.5603056,"lat":14.8700544,"Year":1880},
{"landUse":"Lychnis flos-cuculi L.","ownership":"Time Inc.","laws":"4874821156564910","lon":27.417467,"lat":37.9697625,"Year":1880},
{"landUse":"Ptychosperma elegans (R. Br.) Blume","ownership":"MediciNova, Inc.","laws":"4041375284577","lon":30.019858,"lat":-9.6635623,"Year":1881},
{"landUse":"Solidago uliginosa Nutt. var. linoides (Torr. & A. Gray) Fernald","ownership":"VelocityShares 3x Long Gold ETN","laws":"4041599375747643","lon":60.1946148,"lat":5.9031249,"Year":1880},
{"landUse":"Selaginella oregana D.C. Eaton","ownership":"Sify Technologies Limited","laws":"4041594052508","lon":38.58,"lat":13.8188768,"Year":1880},
{"landUse":"Hyparrhenia filipendula (Hochst.) Stapf","ownership":"Stanley Furniture Company, Inc.","laws":"4054431433856","lon":23.105394,"lat":31.6166667,"Year":1881},
{"landUse":"Phlox kelseyi Britton ssp. glandulosa Wherry","ownership":"Tocagen Inc.","laws":"4041374631535350","lon":8.6427567,"lat":39.95,"Year":1879},
{"landUse":"Arctostaphylos moranii P.V. Wells [excluded]","ownership":null,"laws":"4017950926398354","lon":36.13521,"lat":41.3525,"Year":1880},
{"landUse":"Vigna vexillata (L.) A. Rich.","ownership":"Avinger, Inc.","laws":"4041593120066","lon":59.924661,"lat":38.7894166,"Year":1880},
{"landUse":"Aira L.","ownership":"Sparton Corporation","laws":"4041596886096536","lon":59.3125021,"lat":51.114514,"Year":1881},
{"landUse":"Microseris nutans (Hook.) Sch. Bip.","ownership":"Community Health Systems, Inc.","laws":"4017952876616868","lon":-34.5054318,"lat":-23.7243543,"Year":1881},
{"landUse":"Melica altissima L.","ownership":"Spartan Motors, Inc.","laws":"4041591648498","lon":-7.1234674,"lat":-9.5502,"Year":1880},
{"landUse":"Camassia quamash (Pursh) Greene ssp. utahensis Gould","ownership":"Seaspan Corporation","laws":"4634602472440907","lon":48.5225505,"lat":8.4009121,"Year":1880},
{"landUse":"Cynanchum L.","ownership":"Biohaven Pharmaceutical Holding Company Ltd.","laws":"4041378528378915","lon":-10.9162769,"lat":49.615051,"Year":1879},
{"landUse":"Trophis racemosa (L.) Urb.","ownership":"WhiteHorse Finance, Inc.","laws":"4657547445919","lon":35.989043,"lat":36.730406,"Year":1880},
{"landUse":"Arnica lessingii Greene","ownership":"Mohawk Industries, Inc.","laws":"4017951748540","lon":23.5958633,"lat":40.9121933,"Year":1880},
{"landUse":"Trichilia hirta L.","ownership":"Yield10 Bioscience, Inc.","laws":"4041593848518","lon":47.727687,"lat":32.8796692,"Year":1880},
{"landUse":"Camissonia claviformis (Torr. & Frém.) P.H. Raven ssp. rubescens (P.H. Raven) P.H. Raven","ownership":"PowerShares FTSE RAFI US 1500 Small-Mid Portfolio","laws":"4685868574774885","lon":23.674387,"lat":10.4868673,"Year":1881},
{"landUse":"Muhlenbergia jonesii (Vasey) Hitchc.","ownership":"Nuveen Municipal Income Fund, Inc.","laws":"4702558650074859","lon":-0.532915,"lat":-7.606418,"Year":1880},
{"landUse":"Diervilla sessilifolia Buckley","ownership":"Territorial Bancorp Inc.","laws":"4017950749902283","lon":6.724917,"lat":-6.4026236,"Year":1880},
{"landUse":"Pertusaria stenhammari Hellb.","ownership":"Fenix Parts, Inc.","laws":"4041371620949","lon":-11.7283752,"lat":19.3864947,"Year":1881},
{"landUse":"Podistera nevadensis (A. Gray) S. Watson","ownership":"Valero Energy Corporation","laws":"4017952614625239","lon":28.6882677,"lat":33.7868136,"Year":1880},
{"landUse":"Leptogium platynum (Tuck.) Herre","ownership":"China Southern Airlines Company Limited","laws":null,"lon":null,"lat":null,"Year":null},
{"landUse":"Cynanchum utahense (Engelm.) Woodson","ownership":"Universal Forest Products, Inc.","laws":"4017958805606458","lon":19.2586779,"lat":-7.6977621,"Year":1881},
{"landUse":null,"ownership":"First Trust RBA American Industrial Renaissance ETF","laws":"4349139469545","lon":2.7121164,"lat":18.5543202,"Year":1880},
{"landUse":"Bryum blindii Bruch & Schimp.","ownership":"MoSys, Inc.","laws":"4711125235323","lon":-6.55307,"lat":-7.5363189,"Year":1880},
{"landUse":"Arenaria congesta Nutt. var. glandulifera Maguire","ownership":"Bruker Corporation","laws":"4041590627944187","lon":9.0968475,"lat":14.5665378,"Year":1880},
{"landUse":"Silphium laciniatum L. var. robinsonii L.M. Perry","ownership":"Marcus & Millichap, Inc.","laws":"4041372449441241","lon":40.576319,"lat":3.1645789,"Year":1880},
{"landUse":"Rubus bicknellii L.H. Bailey","ownership":"Cartesian, Inc.","laws":"4041377285648528","lon":-4.2221443,"lat":50.0705922,"Year":1880},
{"landUse":"Rhizocarpon alpicola (Anzi) Rabenh.","ownership":"EPR Properties","laws":"4017951521343415","lon":1.1963019,"lat":8.165019,"Year":1880},
{"landUse":"Viola ×wittrockiana Gams.","ownership":"Spark Energy, Inc.","laws":"4041372438747095","lon":49.5236512,"lat":31.364902,"Year":1881},
{"landUse":"Carex lucorum Willd. ex Link","ownership":"Anavex Life Sciences Corp.","laws":"4041593258320","lon":40.401045,"lat":52.4555293,"Year":1880},
{"landUse":"Cladonia furcata (Huds.) Schrad.","ownership":"Scorpio Tankers Inc.","laws":null,"lon":null,"lat":null,"Year":null},
{"landUse":"Sida spinosa L.","ownership":"XBiotech Inc.","laws":"4174858471757","lon":32.561794,"lat":39.6920939,"Year":1880},
{"landUse":"Rubus glaucifolius Kellogg","ownership":"Navient Corporation","laws":"4340851673562","lon":38.9814589,"lat":28.51845,"Year":1879},
{"landUse":"Didiplis diandra (Nutt. ex DC.) Alph. Wood","ownership":"Gildan Activewear, Inc.","laws":"4626400599015243","lon":19.4052965,"lat":39.7665139,"Year":1879},
{"landUse":"Briza minor L.","ownership":"Telecom Italia S.P.A.","laws":"4017958472631","lon":43.6,"lat":0.5772758,"Year":1880},
{"landUse":"Sophora tomentosa L. var. littoralis (Schrad.) Benth.","ownership":"Ecology and Environment, Inc.","laws":"4041376368336498","lon":40.9724628,"lat":37.97,"Year":1880},
{"landUse":"Sphinctrina tubiformis A. Massal.","ownership":"iShares S&P Emerging Markets Infrastructure Index Fund","laws":"4041592906510424","lon":45.1934857,"lat":-6.9070543,"Year":1880},
{"landUse":"Juncus capitatus Weigel","ownership":"CarMax Inc","laws":"4017958787590","lon":62.0249648,"lat":63.7435338,"Year":1879},
{"landUse":"Cassia abbreviata Oliv.","ownership":"EDAP TMS S.A.","laws":"4380650340796147","lon":34.7728913,"lat":1.1704451,"Year":1880},
{"landUse":null,"ownership":"SGOCO Group, Ltd","laws":"4041598014009","lon":-14.9061237,"lat":30.86006,"Year":1881},
{"landUse":"Dirca palustris L.","ownership":"RiverNorth Opportunities Fund, Inc.","laws":"4640319442636223","lon":27.246947,"lat":-8.535678,"Year":1880},
{"landUse":"Echinops exaltatus Schrad.","ownership":"Omnicell, Inc.","laws":"4017958200594","lon":-2.631564,"lat":8.4478637,"Year":1880},
{"landUse":"Palicourea croceoides Ham.","ownership":"Mesabi Trust","laws":null,"lon":null,"lat":null,"Year":null},
{"landUse":"Hedysarum occidentale Greene","ownership":"Provident Bancorp, Inc.","laws":"4041375538683","lon":39.942418,"lat":-13.6211552,"Year":1881},
{"landUse":"Persea americana Mill. var. americana","ownership":"Monster Digital, Inc.","laws":"4017953392201367","lon":21.2962334,"lat":54.6001467,"Year":1880},
{"landUse":"Oreas Brid.","ownership":"Ameris Bancorp","laws":"4041370883688","lon":-0.3372032,"lat":39.91983,"Year":1879},
{"landUse":null,"ownership":"Aviragen Therapeutics, Inc.","laws":"4041591796873918","lon":15.0588316,"lat":40.4234188,"Year":1879},
{"landUse":"Cyperus sanguinolentus Vahl","ownership":"Pain Therapeutics, Inc.","laws":"4017959806596003","lon":28.201266,"lat":29.492402,"Year":1880},
{"landUse":"Arnica chamissonis Less. ssp. chamissonis","ownership":"Quinpario Acquisition Corp. 2","laws":"4460235142079844","lon":59.9026039,"lat":-10.37092,"Year":1880},
{"landUse":"Aletris aurea Walter","ownership":"Fortress Biotech, Inc.","laws":"4041377629192738","lon":35.5390834,"lat":59.0433753,"Year":1880},
{"landUse":"Dyschoriste angusta (A. Gray) Small","ownership":"ArcBest Corporation","laws":null,"lon":null,"lat":null,"Year":null},
{"landUse":"Picea smithiana (Wall.) Boiss.","ownership":"Radware Ltd.","laws":"4041593241136","lon":34.197813,"lat":7.6292088,"Year":1880},
{"landUse":"Dryopteris wallichiana (Spreng.) Hyl.","ownership":"JELD-WEN Holding, Inc.","laws":"4017955527946782","lon":23.028956,"lat":-7.5201771,"Year":1881},
{"landUse":"Gymnostomum Nees & Hornsch.","ownership":"Duluth Holdings Inc.","laws":"4041599146933621","lon":6.6759811,"lat":-3.7300232,"Year":1880},
{"landUse":"Penstemon acuminatus Douglas ex Lindl. var. acuminatus","ownership":"Blackrock MuniYield New Jersey Fund, Inc.","laws":"4274068506996493","lon":-9.5463283,"lat":43.5687705,"Year":1880},
{"landUse":null,"ownership":"Blue Hills Bancorp, Inc.","laws":"4041374269645","lon":39.0277832,"lat":33.580873,"Year":1880},
{"landUse":"Atriplex bunburyana F. Muell.","ownership":"Cresud S.A.C.I.F. y A.","laws":"4041377953096","lon":6.1097207,"lat":31.34778,"Year":1880},
{"landUse":"Carex ×fulva Goodenough","ownership":"Convergys Corporation","laws":"4041370945005825","lon":57.7842303,"lat":4.4721794,"Year":1880},
{"landUse":"Cyrtandra munroi Forbes","ownership":"Landmark Bancorp Inc.","laws":"4041590914040","lon":54.881319,"lat":49.3983782,"Year":1880},
{"landUse":"Galium sparsiflorum W. Wight","ownership":null,"laws":"4017951756220924","lon":14.326195,"lat":55.1984434,"Year":1879},
{"landUse":"Carex cordillerana Saarela & B.A. Ford","ownership":null,"laws":"4533458824196","lon":15.5211125,"lat":-3.2325539,"Year":1880},
{"landUse":"Lomatium graveolens (S. Watson) Dorn & R.L. Hartm. var. graveolens","ownership":"Ferroglobe PLC","laws":"4041595897364","lon":13.9778279,"lat":2.731033,"Year":1879},
{"landUse":"Pachysandra Michx.","ownership":"At Home Group Inc.","laws":"4041375773652","lon":57.9084788,"lat":-32.2002692,"Year":1879},
{"landUse":"Aquilegia jonesii Parry var. elatior (Standl.) Boothman","ownership":"Consolidated Water Co. Ltd.","laws":"4041377703673","lon":9.297858,"lat":40.5341079,"Year":1880},
{"landUse":"Carex retroflexa Muhl. ex Willd.","ownership":"FlexShares STOXX US ESG Impact Index Fund","laws":null,"lon":null,"lat":null,"Year":null},
{"landUse":"Horkelia hispidula Rydb.","ownership":"Prestige Brand Holdings, Inc.","laws":"4041593326887","lon":20.2281486,"lat":-6.2202997,"Year":1880},
{"landUse":"Sisyrinchium demissum Greene","ownership":null,"laws":"4041374022051","lon":44.5765376,"lat":15.5885562,"Year":1880},
{"landUse":"Rugelia Shuttlw. ex Chapm.","ownership":"Alphabet Inc.","laws":"4620773739512","lon":22.8929945,"lat":49.189578,"Year":1880},
{"landUse":"Cordylanthus rigidus (Benth.) Jeps. ssp. brevibracteatus (A. Gray) Munz","ownership":"Electrum Special Acquisition Corporation","laws":"4041373787134","lon":48.8295482,"lat":40.376804,"Year":1881},
{"landUse":"Lepidium montanum Nutt.","ownership":"Spectrum Pharmaceuticals, Inc.","laws":"4288783074047","lon":25.692699,"lat":-8.5697306,"Year":1879},
{"landUse":"Potamogeton floridanus Small","ownership":"Liberty Global plc","laws":"4017958809634","lon":39.930131,"lat":16.7260699,"Year":1880},
{"landUse":"Heterotheca fulcrata (Greene) Shinners var. arizonica Semple","ownership":"Hess Midstream Partners LP","laws":"4017954191651893","lon":41.2101265,"lat":13.1981877,"Year":1880},
{"landUse":"Astragalus distortus Torr. & A. Gray var. engelmannii (Sheldon) M.E. Jones","ownership":"Christopher & Banks Corporation","laws":"4017956581829336","lon":14.7596318,"lat":59.162099,"Year":1880},
{"landUse":"Platycerium superbum de Jonch. & Hennipman","ownership":null,"laws":"4041596672417383","lon":31.129098,"lat":40.1726307,"Year":1879},
{"landUse":"Eleocharis melanocarpa Torr.","ownership":"Kate Spade & Company","laws":"4041595669748","lon":52.8551656,"lat":34.31028,"Year":1880},
{"landUse":null,"ownership":"Envision Healthcare Corporation","laws":"4041371486796","lon":-22.573223,"lat":52.176031,"Year":1881},
{"landUse":"Bellemerea diamarta (Ach.) Hafellner & Roux","ownership":"PacWest Bancorp","laws":"4041375529754474","lon":43.4977749,"lat":37.841046,"Year":1879},
{"landUse":"Acrostichum aureum L.","ownership":"Synnex Corporation","laws":"4041596307348","lon":28.572029,"lat":4.682198,"Year":1880},
{"landUse":"Astragalus malacoides Barneby","ownership":"Jacksonville Bancorp Inc.","laws":"4041379528037","lon":34.363184,"lat":48.689836,"Year":1880},
{"landUse":"Microsorum spectrum (Kaulf.) Copeland","ownership":"WNS (Holdings) Limited","laws":"4017955077706","lon":51.2445632,"lat":40.4722617,"Year":1880},
{"landUse":"Acaena pinnatifida Ruiz & Pav.","ownership":"Enanta Pharmaceuticals, Inc.","laws":"4041373193986","lon":41.2166819,"lat":24.347324,"Year":1880},
{"landUse":"Acarospora socialis H. Magn.","ownership":"Nuance Communications, Inc.","laws":"4041378692224002","lon":41.1279946,"lat":-6.4525359,"Year":1880},
{"landUse":"Dalea carnea (Michx.) Poir.","ownership":"Bioanalytical Systems, Inc.","laws":"4164252337746","lon":49.369115,"lat":14.740281,"Year":1880},
{"landUse":"Araujia sericifera Brot.","ownership":"Nuveen Massachusetts Municipal Income Fund","laws":"4041597831239","lon":36.7003816,"lat":48.6768262,"Year":1879},
{"landUse":"Silene laciniata Cav.","ownership":"Wipro Limited","laws":"4017952744548400","lon":30.750211,"lat":44.31681,"Year":1880},
{"landUse":"Umbilicaria muehlenbergii (Ach.) Tuck.","ownership":"Forterra, Inc.","laws":"4041599296955184","lon":27.657593,"lat":36.608183,"Year":1881},
{"landUse":"Eriogonum ovalifolium Nutt. var. depressum Blank.","ownership":"Hydrogenics Corporation","laws":"4041374346732193","lon":-7.9396646,"lat":-2.8409385,"Year":1880},
{"landUse":"Lysimachia terrestris (L.) Britton, Sterns & Poggenb.","ownership":"Pershing Gold Corporation","laws":null,"lon":null,"lat":null,"Year":null},
{"landUse":"Ribes malvaceum Sm. var. malvaceum","ownership":"PennTex Midstream Partners, LP","laws":"4041372770875","lon":52.96446,"lat":57.8754385,"Year":1879},
{"landUse":"Carex praticola Rydb.","ownership":"Clearside Biomedical, Inc.","laws":"4041379158439","lon":49.6470903,"lat":-6.9871199,"Year":1880},
{"landUse":null,"ownership":"Delta Technology Holdings Limited","laws":"4041593157714723","lon":-7.6323091,"lat":29.731101,"Year":1880},
{"landUse":"Escobaria duncanii (Hester) Backeb.","ownership":"Prudential Public Limited Company","laws":"4017955784020651","lon":-13.8791041,"lat":43.0532801,"Year":1881},
{"landUse":"Brachythecium nelsonii Grout","ownership":"American Assets Trust, Inc.","laws":"4324082372988","lon":59.5834589,"lat":48.4590993,"Year":1880},
{"landUse":"Soliva sessilis Ruiz & Pav.","ownership":"PrivateBancorp, Inc.","laws":"4530289307487181","lon":-5.9341855,"lat":8.909013,"Year":1879},
{"landUse":null,"ownership":"First Community Financial Partners, Inc.","laws":"4041371663774","lon":52.2051033,"lat":50.9093945,"Year":1881},
{"landUse":"Solidago rugosa Mill. ssp. rugosa","ownership":"Federated Premier Municipal Income Fund","laws":"4041371707936","lon":35.7702315,"lat":31.3505924,"Year":1879},
{"landUse":"Pseudorontium (A. Gray) Rothm.","ownership":"Shell Midstream Partners, L.P.","laws":"4041595350390920","lon":-7.1651833,"lat":38.036815,"Year":1880},
{"landUse":"Tapellaria epiphylla (Müll. Arg.) R. Sant.","ownership":"Anchor Bancorp","laws":"4041595602459","lon":40.3706555,"lat":32.7011609,"Year":1880},
{"landUse":"Cymopterus jonesii J.M. Coult. & Rose","ownership":"CommerceHub, Inc.","laws":"4041371988338","lon":7.9903188,"lat":19.6808413,"Year":1880},
{"landUse":"Delphinium ×burkei Greene (pro sp.)","ownership":"Legacy Reserves LP","laws":"4041592089316300","lon":53.2229873,"lat":32.756417,"Year":1880},
{"landUse":"Paspalum quadrifarium Lam.","ownership":"Nuveen AMT-Free Quality Municipal Income Fund","laws":"4041591574017","lon":-7.5450262,"lat":52.5890862,"Year":1880},
{"landUse":"Fissidens pallidinervis Mitt.","ownership":"Limoneira Co","laws":"4041595933409","lon":-7.2489098,"lat":44.0519136,"Year":1880},
{"landUse":"Carya ×dunbarii Sarg.","ownership":"Alleghany Corporation","laws":"4351847734038","lon":36.650038,"lat":-8.6899169,"Year":1880},
{"landUse":"Aiphanes corallina (Mart.) H.A. Wendl. ex Griseb.","ownership":"Washington Prime Group Inc.","laws":null,"lon":null,"lat":null,"Year":null},
{"landUse":"Crotalaria agatiflora Schweinf.","ownership":"Centene Corporation","laws":"4041373388727","lon":33.9253024,"lat":6.014237,"Year":1880},
{"landUse":"Euphorbia commutata Engelm. ex A. Gray","ownership":"Waste Connections, Inc.","laws":"4041591086567592","lon":36.8625853,"lat":9.9785656,"Year":1881},
{"landUse":"Calathea zebrina (Sims) Lindl.","ownership":"Principal Real Estate Income Fund","laws":"4041596160192","lon":7.8209667,"lat":60.6204071,"Year":1881},
{"landUse":"Clappertonia polyandra (K. Schum. ex Sprague) Bech.","ownership":null,"laws":"4693662250671998","lon":50.8677076,"lat":39.630867,"Year":1880},
{"landUse":"Bouteloua chondrosioides (Kunth) Benth. ex S. Watson","ownership":"Navigant Consulting, Inc.","laws":"4041598390449011","lon":63.1511606,"lat":-7.1477523,"Year":1880},
{"landUse":"Cordylanthus rigidus (Benth.) Jeps. ssp. littoralis (Ferris) T.I. Chuang & Heckard","ownership":"Buenaventura Mining Company Inc.","laws":"4041594807539635","lon":39.401147,"lat":50.1110411,"Year":1880},
{"landUse":"Lessingia micradenia Greene var. micradenia","ownership":"LINE Corporation","laws":"4041374643070","lon":59.3961735,"lat":27.08556,"Year":1880},
{"landUse":"Cladonia macrophyllodes Nyl.","ownership":"HarborOne Bancorp, Inc.","laws":"4069232682030","lon":27.9687584,"lat":12.4503003,"Year":1880},
{"landUse":"Croton lindheimerianus Scheele","ownership":"Fair Isaac Corporation","laws":"4017959035002211","lon":-8.817615,"lat":43.3423246,"Year":1880},
{"landUse":null,"ownership":"Exelon Corporation","laws":"4041593040008150","lon":42.8297548,"lat":50.1757487,"Year":1880},
{"landUse":"Botrychium lanceolatum (S.G. Gmel.) Angstr.","ownership":"Twin Disc, Incorporated","laws":"4017957055239","lon":16.7445704,"lat":35.8523575,"Year":1879},
{"landUse":"Ipomoea pes-caprae (L.) R. Br. ssp. pes-caprae (L.) R. Br. [excluded]","ownership":"Marriot Vacations Worldwide Corporation","laws":"4894516056829","lon":-27.6711693,"lat":36.5389811,"Year":1880},
{"landUse":null,"ownership":"Black Hills Corporation","laws":"4017959156282","lon":-13.4528458,"lat":-31.5720128,"Year":1879},
{"landUse":"Graptophyllum Nees","ownership":"HDFC Bank Limited","laws":"4017951417252","lon":22.951554,"lat":14.5910759,"Year":1881},
{"landUse":"Carex brysonii Naczi","ownership":"Atlassian Corporation Plc","laws":"4041377559557207","lon":-7.4220343,"lat":-6.820816,"Year":1880},
{"landUse":"Lecidea hassei Zahlbr.","ownership":"Central Europe, Russia and Turkey Fund, Inc. (The)","laws":"4391064371465829","lon":38.707638,"lat":26.259427,"Year":1880},
{"landUse":"Puccinellia howellii J.I. Davis","ownership":"Value Line, Inc.","laws":null,"lon":null,"lat":null,"Year":null},
{"landUse":"Malachra radiata L.","ownership":"Federated Premier Municipal Income Fund","laws":"4249466568326223","lon":55.8641765,"lat":40.2676183,"Year":1881},
{"landUse":"Brachypodium sylvaticum (Huds.) P. Beauv.","ownership":"Total S.A.","laws":"4017953274396","lon":8.07,"lat":30.4124334,"Year":1879},
{"landUse":"Arisaema dracontium (L.) Schott","ownership":"Triangle Capital Corporation","laws":"4017953270428","lon":38.570152,"lat":36.02528,"Year":1880},
{"landUse":"Najas filifolia Haynes","ownership":"Entergy Louisiana, Inc.","laws":"4496632215444","lon":9.95114,"lat":36.3046238,"Year":1880},
{"landUse":"Aesculus ×hybrida DC. (pro sp.)","ownership":"American Assets Trust, Inc.","laws":"4041593863475","lon":2.3390467,"lat":51.5344639,"Year":1879},
{"landUse":"Pedicularis langsdorffii Fisch. ex Stev.","ownership":"Ikonics Corporation","laws":"4017951381257945","lon":-9.1015826,"lat":-7.0085173,"Year":1880},
{"landUse":"Saxifraga oppositifolia L. ssp. smalliana (Engl. & Irmsch.) Hultén","ownership":"PowerShares S&P SmallCap Consumer Discretionary Portfolio","laws":"4928416461881830","lon":3.2572094,"lat":38.9039998,"Year":1880},
{"landUse":"Graphis tenella Ach.","ownership":null,"laws":"4017958529806327","lon":22.579117,"lat":39.16352,"Year":1880},
{"landUse":"Desmanthus covillei (Britton & Rose) Wiggins ex B.L. Turner","ownership":"Oxford Lane Capital Corp.","laws":"4220900761255","lon":8.475987,"lat":25.5822549,"Year":1880},
{"landUse":"Hyperphyscia adglutinata (Flörke) H. Mayrh. & Poelt","ownership":"Aralez Pharmaceuticals Inc.","laws":"4017953446208467","lon":60.3560649,"lat":-6.9891618,"Year":1880},
{"landUse":"Fimbristylis Vahl","ownership":"Axis Capital Holdings Limited","laws":"4041599394293","lon":31.775967,"lat":48.6208,"Year":1880},
{"landUse":"Tetrazygia bicolor (Mill.) Cogn.","ownership":"Hersha Hospitality Trust","laws":"4017952390080054","lon":35.104673,"lat":-25.3849055,"Year":1880},
{"landUse":"Selaginella oregana D.C. Eaton","ownership":"Liberty TripAdvisor Holdings, Inc.","laws":"4041377173041919","lon":41.3337534,"lat":31.861597,"Year":1880},
{"landUse":"Tetramolopium tenerrimum (Less.) Nees","ownership":"Comstock Holding Companies, Inc.","laws":"4041590298035224","lon":22.8064234,"lat":59.8425242,"Year":1880},
{"landUse":"Botrychium tunux Stensvold & Farrar","ownership":"Mechel PAO","laws":"4041597420280","lon":48.09967,"lat":34.014215,"Year":1880},
{"landUse":"Euphorbia brachycera Engelm.","ownership":"Mercer International Inc.","laws":"4041598104792920","lon":35.8559579,"lat":5.7643446,"Year":1879},
{"landUse":"Victoria cruziana A.D. Orb.","ownership":"BlackRock Resources","laws":"4648878186785548","lon":31.9797908,"lat":48.3694747,"Year":1880},
{"landUse":"Calochortus coxii M. Godfrey & F. Callahan","ownership":"Brookfield DTLA Inc.","laws":"4041376186724867","lon":58.3619916,"lat":43.553302,"Year":1880},
{"landUse":"Styrax tonkinensis (Pierre) Craib ex Hartwich","ownership":"Marriott International","laws":"4241655055727","lon":41.7958532,"lat":-6.2324516,"Year":1880},
{"landUse":"Silene sibirica (L.) Persoon","ownership":"180 Degree Capital Corp.","laws":"4041598971869","lon":59.2348351,"lat":44.5590244,"Year":1880},
{"landUse":"Encyclia gravida (Lindl.) Schltr.","ownership":"Fifth Street Asset Management Inc.","laws":"4017951551704","lon":-20.8890637,"lat":53.9240029,"Year":1880},
{"landUse":"Carex viridula Michx. ssp. brachyrrhyncha (Celak.) B. Schmid var. elatior (Schltdl.) Crins","ownership":"The Hain Celestial Group, Inc.","laws":"4112764979216","lon":45.4140943,"lat":-8.2334215,"Year":1881},
{"landUse":"Leersia virginica Willd.","ownership":"PowerShares KBW Premium Yield Equity REIT Portfolio","laws":"4041599681206219","lon":22.9410456,"lat":-1.4740609,"Year":1880},
{"landUse":"Grimmia pulvinata (Hedw.) Sm.","ownership":"MutualFirst Financial Inc.","laws":"4041376591763831","lon":33.4547821,"lat":63.4400274,"Year":1880},
{"landUse":"Phacelia pulchella A. Gray var. gooddingii (Brand) J.T. Howell","ownership":"First Community Bancshares, Inc.","laws":"4041370608304309","lon":38.6969299,"lat":19.2874648,"Year":1880},
{"landUse":"Alchemilla L.","ownership":"Toro Company (The)","laws":"4017959082115049","lon":9.618277,"lat":36.9351637,"Year":1880},
{"landUse":"Xanthoria sorediata (Vain.) Poelt","ownership":"Deckers Outdoor Corporation","laws":"4041599112491273","lon":42.615891,"lat":39.7825,"Year":1880},
{"landUse":"Calochortus amoenus Greene","ownership":"Meritage Corporation","laws":"4041592403360794","lon":41.1575986,"lat":20.7365652,"Year":1880},
{"landUse":"Cryptogramma cascadensis E.R. Alverson","ownership":"St. Joe Company (The)","laws":"4041374631802933","lon":14.41225,"lat":5.2351338,"Year":1880},
{"landUse":"Arenaria fendleri A. Gray var. tweedyi (Rydb.) Maguire","ownership":"Snyder's-Lance, Inc.","laws":"4017958884611","lon":29.4315861,"lat":14.972892,"Year":1880},
{"landUse":"Dianthus superbus L.","ownership":"J. W. Mays, Inc.","laws":"4041599642780237","lon":-10.8050342,"lat":40.124026,"Year":1881},
{"landUse":"Oxypolis occidentalis J.M. Coult. & Rose","ownership":"Nuveen Multi-Market Income Fund","laws":"4041376888715","lon":30.7016468,"lat":-5.1734862,"Year":1880},
{"landUse":"Lomatium thompsonii (Mathias) Cronquist","ownership":"Capital One Financial Corporation","laws":"4041599911382632","lon":14.8682154,"lat":29.899044,"Year":1880},
{"landUse":"Aeluropus lagopoides (L.) Thwaites","ownership":"China Green Agriculture, Inc.","laws":"4060476692233274","lon":27.5502358,"lat":54.8,"Year":1880},
{"landUse":"Houstonia rosea (Raf.) Terrell","ownership":"Qorvo, Inc.","laws":"4017954972170","lon":8.7078954,"lat":48.5308416,"Year":1880},
{"landUse":"Sarmenthypnum Tuom. & T. Kop.","ownership":"California Water  Service Group Holding","laws":"4378886961299201","lon":29.625298,"lat":60.6430311,"Year":1880},
{"landUse":"Acarospora heppii (Nageli ex Hepp) Nageli ex Körb.","ownership":"Boulevard Acquisition Corp. II","laws":null,"lon":null,"lat":null,"Year":null},
{"landUse":"Synthyris missurica (Raf.) Pennell ssp. hirsuta Pennell","ownership":"Lincoln National Corporation","laws":"4041591075049","lon":10.2007985,"lat":-6.1944094,"Year":1880},
{"landUse":"Leymus flavescens (Scribn. & J.G. Sm.) Pilg.","ownership":"Whiting Petroleum Corporation","laws":"4041596861792737","lon":-10.4,"lat":62.1964266,"Year":1880},
{"landUse":"Croton eluteria (L.) Sw.","ownership":"Keane Group, Inc.","laws":"4711015638198","lon":43.4899263,"lat":-20.1924448,"Year":1881},
{"landUse":"Kalmia L.","ownership":"NRG Energy, Inc.","laws":"4041379110760","lon":49.7165109,"lat":17.0228,"Year":1880},
{"landUse":"Reutealis Airy Shaw","ownership":"Nuveen New York Quality Municipal Income Fund","laws":"4017958542843109","lon":41.2592586,"lat":-7.6144216,"Year":1880},
{"landUse":"Cyperus grayi Torr.","ownership":"FTI Consulting, Inc.","laws":"4041376571678066","lon":-9.6096717,"lat":62.153018,"Year":1880},
{"landUse":"Hypogymnia farinacea Zopf","ownership":"First Connecticut Bancorp, Inc.","laws":"4335814913524650","lon":53.8044834,"lat":-41.2913531,"Year":1881},
{"landUse":"Atriplex bunburyana F. Muell.","ownership":"DTE Energy Company","laws":"4041376257515","lon":4.3045959,"lat":25.0617484,"Year":1880},
{"landUse":"Claytonia caroliniana Michx.","ownership":"West Corporation","laws":"4017953521097314","lon":14.3705235,"lat":-7.3743397,"Year":1880},
{"landUse":"Heliconia irrasa R.R. Sm.","ownership":"PIMCO New York Municipal Income Fund III","laws":"4717647769126701","lon":20.2019487,"lat":23.043061,"Year":1879},
{"landUse":"Androsace elongata L.","ownership":"Summit Financial Group, Inc.","laws":"4041378004436","lon":-27.5948698,"lat":49.3932119,"Year":1879},
{"landUse":"Pedicularis hirsuta L.","ownership":"DoubleLine Opportunistic Credit Fund","laws":"4041374951754","lon":41.7811503,"lat":27.0874564,"Year":1882},
{"landUse":"Allocasuarina nana (Sieber ex Spreng.) L.A.S. Johnson","ownership":"Reading International Inc","laws":"4041372594951135","lon":-6.91748,"lat":47.1575927,"Year":1880},
{"landUse":"Helianthus ×cinereus Torr. & A. Gray (pro sp.)","ownership":"Domtar Corporation","laws":"4017951711563","lon":-11.806679,"lat":11.0657173,"Year":1879},
{"landUse":"Portulaca L.","ownership":"Solar Capital Ltd.","laws":"4017958052580620","lon":22.2016816,"lat":45.1310529,"Year":1879},
{"landUse":null,"ownership":"First Trust Mid Cap Value AlphaDEX Fund","laws":"4041379955644","lon":-22.7428673,"lat":-8.8228841,"Year":1880},
{"landUse":"Sphagnum compactum DC.","ownership":"Fifth Street Finance Corp.","laws":"4041378434567","lon":-8.4044008,"lat":42.4349809,"Year":1881},
{"landUse":"Operculina Silva Manso","ownership":"Inphi Corporation","laws":"4017954672606","lon":26.885704,"lat":-6.8651955,"Year":1880},
{"landUse":"Bacidia rosella (Pers.) De Not.","ownership":"MAM Software Group, Inc.","laws":"4017958991291","lon":40.4168034,"lat":-19.8078961,"Year":1880},
{"landUse":"Physcia adscendens (Fr.) H. Olivier","ownership":"UTStarcom Holdings Corp","laws":null,"lon":null,"lat":null,"Year":null},
{"landUse":"Cyrtandra grandiflora Gaudich.","ownership":"Puma Biotechnology Inc","laws":"4037221771502","lon":14.5672317,"lat":15.1422858,"Year":1880},
{"landUse":"Nama demissum A. Gray","ownership":"Northern Trust Corporation","laws":"4372537031288148","lon":56.0345586,"lat":29.956858,"Year":1880},
{"landUse":"Acarospora macrospora (Hepp) Bagl.","ownership":"The AES Corporation","laws":"4440634379525427","lon":-8.9066345,"lat":39.7503186,"Year":1879},
{"landUse":"Croton coryi Croizat","ownership":"Government Properties Income Trust","laws":"4017950323552439","lon":16.0107976,"lat":14.740841,"Year":1880},
{"landUse":"Costus spicatus (Jacq.) Sw.","ownership":"Qumu Corporation","laws":"4041377835244","lon":40.6236168,"lat":14.67199,"Year":1880},
{"landUse":"Hedyotis coriacea Sm.","ownership":"Werner Enterprises, Inc.","laws":"4041598042649620","lon":44.30672,"lat":49.5706463,"Year":1880},
{"landUse":"Esslingeriana Hale & M.J. Lai","ownership":"Harvest Capital Credit Corporation","laws":"4041371933142794","lon":2.6131897,"lat":28.353912,"Year":1880},
{"landUse":"Desmatodon obtusifolius (Schwägr.) Schimp.","ownership":"Fifth Street Finance Corp.","laws":"4017956262810","lon":34.26645,"lat":40.020575,"Year":1880},
{"landUse":"Usnea roseola Vain.","ownership":"Hornbeck Offshore Services","laws":"4041594692944825","lon":48.239135,"lat":22.483182,"Year":1880},
{"landUse":"Pityrogramma chrysophylla (Sw.) Link","ownership":"Scudder Strategic Municiple Income Trust","laws":"4523394920224","lon":13.7785321,"lat":-7.4066528,"Year":1881},
{"landUse":"Vicia tetrasperma (L.) Schreb.","ownership":"Patriot National, Inc.","laws":"4249253964953804","lon":14.3839328,"lat":37.8412319,"Year":1879},
{"landUse":"Cylindropuntia ramosissima (Engelm.) F.M. Knuth","ownership":"ParkerVision, Inc.","laws":"4017956921027","lon":38.0790354,"lat":21.8480091,"Year":1881},
{"landUse":"Platanthera integra (Nutt.) A. Gray ex Beck","ownership":"Ubiquiti Networks, Inc.","laws":"4041596928340181","lon":36.182571,"lat":38.7,"Year":1880},
{"landUse":"Silphium integrifolium Michx.","ownership":"PROS Holdings, Inc.","laws":"4017952780229","lon":46.136968,"lat":41.2008182,"Year":1880},
{"landUse":"Deinandra increscens (H.M. Hall ex D.D. Keck) B.G. Baldw. ssp. foliosa (Hoover) B.G. Baldw.","ownership":"Agile Therapeutics, Inc.","laws":"4041599928710","lon":59.2784304,"lat":-0.3221142,"Year":1880},
{"landUse":"Senecio megacephalus Nutt.","ownership":"NGL ENERGY PARTNERS LP","laws":"4041590297594","lon":7.619032,"lat":47.5206407,"Year":1880},
{"landUse":"Tectaria cicutaria (L.) Copeland","ownership":"Central European Media Enterprises Ltd.","laws":"4041373215706","lon":30.699439,"lat":35.2445589,"Year":1879},
{"landUse":"Lesquerella lasiocarpa (Hook. ex A. Gray) S. Watson","ownership":"Banco Santander, S.A.","laws":"4017958814758","lon":20.762634,"lat":-20.2695062,"Year":1880},
{"landUse":"Salvia azurea Michx. ex Lam.","ownership":"PennantPark Investment Corporation","laws":"4017954275382779","lon":-7.2528931,"lat":3.5981582,"Year":1880},
{"landUse":"Astragalus atropubescens J.M. Coult. & Fisher","ownership":"Valero Energy Partners LP","laws":"4041378376180","lon":19.258341,"lat":-8.5066242,"Year":1879},
{"landUse":"Pogogyne floribunda Jokerst","ownership":"Geopark Ltd","laws":"4041590008399852","lon":25.431829,"lat":40.76191,"Year":1881},
{"landUse":"Styphelia tameiameiae (Cham. & Schltdl.) F. Muell.","ownership":"John Wiley & Sons, Inc.","laws":"4017956976807","lon":-11.7382104,"lat":-6.7157242,"Year":1880},
{"landUse":"Xanthoparmelia barbatica (Elix) Egan","ownership":"UMB Financial Corporation","laws":"4340525206182187","lon":52.5652013,"lat":31.209571,"Year":1881},
{"landUse":"Yucca baileyi Wooton & Standl. var. baileyi","ownership":"Kennedy-Wilson Holdings Inc.","laws":"4041379796501","lon":-6.8055934,"lat":30.5211502,"Year":1880},
{"landUse":"Angiopteris Hoffm.","ownership":"Kohl's Corporation","laws":"4828002329944","lon":-2.9765098,"lat":42.0692985,"Year":1879},
{"landUse":"Microlepia strigosa (Thunb.) C. Presl","ownership":"Liberty Interactive Corporation","laws":"4041592071666","lon":7.20312,"lat":33.9717649,"Year":1880},
{"landUse":"Senna spectabilis (DC.) Irwin & Barneby","ownership":"Sprint Corporation","laws":"4041594117061","lon":-23.351784,"lat":44.6254349,"Year":1881},
{"landUse":"Calendula L.","ownership":"Atlantic Alliance Partnership Corp.","laws":"4041379259401","lon":31.126412,"lat":36.62587,"Year":1881},
{"landUse":"Calycocarpum (Nutt.) Spach","ownership":"SPDR Dorsey Wright Fixed Income Allocation ETF","laws":"4041591501609961","lon":46.67159,"lat":50.8294542,"Year":1880},
{"landUse":"Baptisia ×variicolor M. Kosnik, G. Diggs, P. Redshaw & B. Lipscomb","ownership":"Accenture plc","laws":"4017955936455","lon":-21.0651542,"lat":35.3387006,"Year":1880},
{"landUse":"Ostrya Scop.","ownership":"Xunlei Limited","laws":"4017959703901","lon":32.7894701,"lat":30.8346,"Year":1880},
{"landUse":"Kobresia simpliciuscula (Wahlenb.) Mack.","ownership":"Verastem, Inc.","laws":"4017954829924829","lon":47.3752386,"lat":-30.8263741,"Year":1880},
{"landUse":"Cladonia macroceras (Delise) Hav.","ownership":"United Financial Bancorp, Inc. ","laws":"4017952156564598","lon":-7.8176291,"lat":30.4333333,"Year":1880},
{"landUse":"Rumex stenophyllus Ledeb.","ownership":null,"laws":"4041378731434","lon":-20.5897439,"lat":37.800886,"Year":1880},
{"landUse":"Panicum philadelphicum Bernh. ex Trin.","ownership":"Francesca's Holdings Corporation","laws":"4041598555599477","lon":16.1391267,"lat":11.406883,"Year":1880},
{"landUse":"Brachythecium salebrosum (F. Weber & D. Mohr) Schimp.","ownership":"Student Transportation Inc","laws":"4458331752463123","lon":2.0516556,"lat":14.707895,"Year":1879},
{"landUse":"Ruellia noctiflora (Nees) A. Gray","ownership":"Ovid Therapeutics Inc.","laws":"4344732818057","lon":48.873935,"lat":55.7538999,"Year":1881},
{"landUse":"Sematophyllum adnatum (Michx.) E. Britton","ownership":"Pimco Municipal Income Fund II","laws":"4520928294308","lon":44.4466286,"lat":29.693316,"Year":1880},
{"landUse":"Anthemis tinctoria L.","ownership":"Constellation Brands Inc","laws":"4041375443395321","lon":40.7322554,"lat":31.299299,"Year":1880},
{"landUse":"Echinopepon coulteri (A. Gray) Rose","ownership":"Resolute Forest Products Inc.","laws":"4017956489769","lon":40.9612198,"lat":-7.1845289,"Year":1880},
{"landUse":null,"ownership":"Prologis, Inc.","laws":"4709614043166","lon":63.7388395,"lat":5.6979328,"Year":1880},
{"landUse":"Maclura Nutt.","ownership":"NeuroDerm Ltd.","laws":"4803904245507797","lon":7.0036001,"lat":13.8801742,"Year":1881},
{"landUse":"Descurainia paradisa (A. Nelson & Kennedy) O.E. Schulz","ownership":"Comp En De Mn Cemig ADS","laws":"4041378942293401","lon":-7.2578991,"lat":-0.931556,"Year":1881},
{"landUse":"Rubus arcticus L. ssp. acaulis (Michx.) Focke","ownership":"Michael Kors Holdings Limited","laws":"4041599962685396","lon":55.71667,"lat":40.145705,"Year":1880},
{"landUse":"Symphyotrichum undulatum (L.) G.L. Nesom","ownership":"Virtus Investment Partners, Inc.","laws":"4967346859200669","lon":50.0201,"lat":17.2375,"Year":1881},
{"landUse":"Pleuridium subulatum (Hedw.) Rabenh.","ownership":"Mackinac Financial Corporation","laws":"4017951261515404","lon":40.6902433,"lat":6.45843,"Year":1879},
{"landUse":"Scabiosa palaestrina L.","ownership":"Akers Biosciences Inc","laws":"4017959249293","lon":6.2820276,"lat":54.8732209,"Year":1880},
{"landUse":"Quercus ×bernardiensis W. Wolf (pro sp.)","ownership":"FRP Holdings, Inc.","laws":"4921411060182778","lon":0.85526,"lat":45.755062,"Year":1881},
{"landUse":"Hibiscadelphus distans Bishop & D.R. Herbst","ownership":"Diplomat Pharmacy, Inc.","laws":"4041374350367233","lon":-14.31779,"lat":11.3451287,"Year":1880},
{"landUse":"Ranunculus austrooreganus L.D. Benson","ownership":"Meridian Bancorp, Inc.","laws":"4183147105390835","lon":48.9098794,"lat":-23.3105968,"Year":1879},
{"landUse":"Valeriana scandens L.","ownership":"Alliance Resource Partners, L.P.","laws":"4017954307828211","lon":-7.6535289,"lat":47.5516181,"Year":1880},
{"landUse":"Saxifraga virginiensis Michx. var. virginiensis","ownership":"AXT Inc","laws":"4041376357851","lon":49.2282881,"lat":7.1089121,"Year":1880},
{"landUse":"Hobsonia christiansenii B.L. Brady & D. Hawksw.","ownership":"Nuveen Select Tax Free Income Portfolio","laws":"4017958507568","lon":53.1986,"lat":42.7123148,"Year":1879},
{"landUse":"Aristida californica Thurb. ex S. Watson var. glabrata Vasey","ownership":"Rand Logistics, Inc.","laws":"4041596126169","lon":49.6638396,"lat":15.4659235,"Year":1880},
{"landUse":"Epilobium howellii Hoch","ownership":"Camden Property Trust","laws":"4234701260912","lon":39.6211427,"lat":-8.6852273,"Year":1879},
{"landUse":"Galium orizabense Hemsl.","ownership":"John Hancock Income Securities Trust","laws":"4041378170375623","lon":45.1616228,"lat":-13.3057641,"Year":1880},
{"landUse":"Usnea strigosa (Ach.) Eaton ssp. strigosa","ownership":"Acceleron Pharma Inc.","laws":"4041372680656770","lon":41.2675718,"lat":38.7046686,"Year":1880},
{"landUse":"Neckeropsis undulata (Hedw.) Reichardt","ownership":"H&E Equipment Services, Inc.","laws":"4157781215231307","lon":-7.1432,"lat":34.6743219,"Year":1880},
{"landUse":"Lecanora hypoptoides (Nyl.) Nyl.","ownership":"Hudson Global, Inc.","laws":"4041593314757193","lon":49.727987,"lat":66.3884435,"Year":1880},
{"landUse":"Omphalodes aliena A. Gray","ownership":"PC Connection, Inc.","laws":"4041591694989","lon":26.0243468,"lat":29.328818,"Year":1881},
{"landUse":"Camissonia subacaulis (Pursh) P.H. Raven","ownership":"Rocky Brands, Inc.","laws":"4723037058164","lon":23.505032,"lat":47.07472,"Year":1879},
{"landUse":"Lagunaria patersonia (Andrews ) G. Don","ownership":"PS Business Parks, Inc.","laws":"4041375979531935","lon":14.41667,"lat":41.4619291,"Year":1880},
{"landUse":"Erigeron bellidiastrum Nutt.","ownership":"Power Integrations, Inc.","laws":"4942179917072071","lon":22.2016816,"lat":41.714914,"Year":1879},
{"landUse":"Selaginella tenella (P. Beauv.) Spring","ownership":"American Electric Power Company, Inc.","laws":"4041372017185741","lon":46.2646112,"lat":48.7037515,"Year":1880},
{"landUse":"Sidalcea malachroides (Hook. & Arn.) A. Gray","ownership":"Bank Of New York Mellon Corporation (The)","laws":"4041375319845","lon":55.7213148,"lat":37.2610694,"Year":1879},
{"landUse":"Fortunella margarita (Lour.) Swingle","ownership":"Foundation Building Materials, Inc.","laws":"4719175560201","lon":10.8991156,"lat":20.0045547,"Year":1881},
{"landUse":"Draba weberi R.A. Price & Rollins","ownership":"Mastercard Incorporated","laws":"4041378621409914","lon":47.880287,"lat":55.0449125,"Year":1881},
{"landUse":"Gouania lupuloides (L.) Urb.","ownership":"Medallion Financial Corp.","laws":"4041597819736248","lon":12.405227,"lat":46.21659,"Year":1879},
{"landUse":"Bryoria trichodes (Michx.) Brodo & D. Hawksw. ssp. trichodes","ownership":"Himax Technologies, Inc.","laws":"4041596858209760","lon":48.3115536,"lat":-11.8551576,"Year":1880},
{"landUse":"Ceropegia woodii Schltr.","ownership":"Eaton Vance Floating Rate Income Trust","laws":"4041374941656","lon":38.052038,"lat":41.2164036,"Year":1880},
{"landUse":"Dubautia imbricata H. St. John & G.D. Carr ssp. acronaea G.D. Carr","ownership":"DDR Corp.","laws":null,"lon":null,"lat":null,"Year":null},
{"landUse":"Kallstroemia maxima (L.) Hook. & Arn.","ownership":"Lexington Realty Trust","laws":"4612332760151760","lon":33.54832,"lat":13.0427506,"Year":1880},
{"landUse":"Huperzia ×bartleyi (Cusick) Kartesz & Gandhi","ownership":"Global Ship Lease, Inc.","laws":"4041372493585","lon":41.88,"lat":58.1483629,"Year":1880},
{"landUse":"Phacelia cookei Constance & Heckard","ownership":"DSW Inc.","laws":"4017959761972504","lon":3.4802964,"lat":-7.0795248,"Year":1881},
{"landUse":"Allium canadense L. var. lavandulare (Bates) Ownbey & Aase","ownership":"Eaton Vance Tax-Managed Diversified Equity Income Fund","laws":"4017959369833355","lon":22.994717,"lat":-6.9210752,"Year":1880},
{"landUse":"Dichanthelium spretum (Schult.) Freckmann","ownership":"CNO Financial Group, Inc.","laws":null,"lon":null,"lat":null,"Year":null},
{"landUse":"Acourtia thurberi (A. Gray) Reveal & R.M. King","ownership":"MSCI Inc","laws":"4017954235329969","lon":60.7865441,"lat":34.79925,"Year":1879},
{"landUse":"Bryocaulon Karnefelt","ownership":"Hospitality Properties Trust","laws":"4017952313929288","lon":-9.416667,"lat":45.851694,"Year":1880},
{"landUse":"Rosa L.","ownership":"Weibo Corporation","laws":null,"lon":null,"lat":null,"Year":null},
{"landUse":"Cryptantha pusilla (Torr. & A. Gray) Greene","ownership":"Icahn Enterprises L.P.","laws":null,"lon":null,"lat":null,"Year":null},
{"landUse":"Corchoropsis crenata Siebold & Zucc. var. crenata","ownership":"Acadia Realty Trust","laws":"4041379728181","lon":16.2725431,"lat":45.1462441,"Year":1879},
{"landUse":"Tragopogon mirabilis Rouy","ownership":"Unico American Corporation","laws":"4017955669717686","lon":10.898923,"lat":32.203072,"Year":1880},
{"landUse":"Plagiopus oederianus (Sw.) H.A. Crum & L.E. Anderson","ownership":"INTL FCStone Inc.","laws":"4041595121315388","lon":38.119756,"lat":38.7760203,"Year":1880},
{"landUse":"Sanicula canadensis L.","ownership":"Accelerate Diagnostics, Inc.","laws":"4017953231297","lon":41.37536,"lat":48.6541216,"Year":1880},
{"landUse":"Pyrrhospora varians (Ach.) R.C. Harris","ownership":"Female Health Company (The)","laws":"4041373426600","lon":53.16972,"lat":64.8962892,"Year":1881},
{"landUse":"Bouteloua dimorpha J.T. Columbus","ownership":"United States Cellular Corporation","laws":"4041596627115033","lon":-7.6387228,"lat":43.1463186,"Year":1880},
{"landUse":"Cyperus planifolius Rich.","ownership":"Kinross Gold Corporation","laws":"4017954509453446","lon":-18.8549317,"lat":46.3187542,"Year":1880},
{"landUse":"Cyperus javanicus Houtt.","ownership":"Craft Brew Alliance, Inc.","laws":"4275435502582","lon":23.9910732,"lat":37.9381943,"Year":1881},
{"landUse":"Viola chamissoniana Gingins ssp. robusta (Hillebr.) W.L. Wagner, D.R. Herbst & Sohmer","ownership":"Chicago Bridge & Iron Company N.V.","laws":"4564069039658054","lon":18.2712491,"lat":49.7517708,"Year":1880},
{"landUse":"Phacelia rupestris Greene","ownership":"Zions Bancorporation","laws":"4041599891249","lon":45.6747796,"lat":23.156538,"Year":1880},
{"landUse":"Silphium glutinosum J. Allison","ownership":"Egalet Corporation","laws":"4041597795343","lon":27.8169,"lat":59.379366,"Year":1880},
{"landUse":"Viola blanda Willd. var. blanda","ownership":"Charles & Colvard Ltd","laws":"4041379303787","lon":-3.870003,"lat":46.5720029,"Year":1879},
{"landUse":"Erigeron melanocephalus (A. Nelson) A. Nelson","ownership":"First Trust Mid Cap Value AlphaDEX Fund","laws":"4779344083980","lon":-13.8556,"lat":22.273048,"Year":1879},
{"landUse":"Primula specuicola Rydb.","ownership":"Grupo Aval Acciones y Valores S.A.","laws":"4041599969883895","lon":47.594843,"lat":45.521519,"Year":1881},
{"landUse":"Pectis linearis Llave","ownership":"Old Second Bancorp, Inc.","laws":"4017958662928979","lon":50.4163784,"lat":0.1429969,"Year":1881},
{"landUse":"Polygonum cuspidatum Siebold & Zucc.","ownership":"Digirad Corporation","laws":"4041591515507","lon":45.90453,"lat":30.572815,"Year":1880},
{"landUse":"Helianthemum carolinianum (Walter) Michx.","ownership":"Shake Shack, Inc.","laws":"4041590709374","lon":-8.2919428,"lat":50.0231437,"Year":1880},
{"landUse":"Hypnum cupressiforme Hedw. var. cupressiforme","ownership":"Corcept Therapeutics Incorporated","laws":"4061765967086","lon":35.202503,"lat":52.958682,"Year":1880},
{"landUse":"Lecanora caesiorubella Ach.","ownership":"Bio-Rad Laboratories, Inc.","laws":"4031528608434","lon":-8.2867,"lat":46.2559467,"Year":1881},
{"landUse":"Drymaria effusa A. Gray var. depressa (Greene) J. Duke","ownership":"Blackrock MuniYield California Insured Fund, Inc.","laws":"4041596234146","lon":59.79769,"lat":40.221132,"Year":1881},
{"landUse":"Hackelia diffusa (Lehm.) I.M. Johnst. var. cottonii (Piper) R.L. Carr","ownership":"Ericsson","laws":"4041599247282266","lon":-0.3221142,"lat":-8.269535,"Year":1880},
{"landUse":"Calycophyllum candidissimum (Vahl) DC.","ownership":"Freshpet, Inc.","laws":"4041377052715039","lon":35.1529042,"lat":4.6889438,"Year":1880},
{"landUse":"Mitella diphylla L.","ownership":"American Financial Group, Inc.","laws":"4017957806235","lon":-3.8932818,"lat":48.655181,"Year":1879},
{"landUse":"Pertusaria DC.","ownership":"First Trust/Aberdeen Global Opportunity Income Fund","laws":"4063024137113","lon":-9.6165,"lat":-20.2114344,"Year":1880},
{"landUse":"Marrubium L.","ownership":"Heritage-Crystal Clean, Inc.","laws":"4247030625290","lon":7.3060304,"lat":-34.6057351,"Year":1880},
{"landUse":"Penstemon cobaea Nutt.","ownership":null,"laws":"4041378714528992","lon":41.57365,"lat":49.6556075,"Year":1880},
{"landUse":"Valeriana sorbifolia Kunth","ownership":"Xinyuan Real Estate Co Ltd","laws":"4976323443757248","lon":51.5000229,"lat":38.35,"Year":1880},
{"landUse":"Lemna minor L.","ownership":"FirstEnergy Corporation","laws":"4041594796339310","lon":50.98317,"lat":10.6483783,"Year":1879},
{"landUse":"Saxifraga nelsoniana D. Don ssp. cascadensis (Calder & Savile) Hultén","ownership":"AMERIPRISE FINANCIAL SERVICES, INC.","laws":"4041375972253982","lon":46.7737707,"lat":56.3588787,"Year":1880},
{"landUse":"Equisetum palustre L.","ownership":"Peapack-Gladstone Financial Corporation","laws":"4041373477091593","lon":35.303704,"lat":-34.8512671,"Year":1880},
{"landUse":"Pseudoditrichum Steere & Z. Iwats.","ownership":"Jensyn Acquistion Corp.","laws":null,"lon":null,"lat":null,"Year":null},
{"landUse":"Cladonia stricta (Nyl.) Nyl.","ownership":"Sonic Automotive, Inc.","laws":"4221456618477","lon":22.8080569,"lat":35.719396,"Year":1880},
{"landUse":"Ipomopsis spicata (Nutt.) V.E. Grant","ownership":"Webster Financial Corporation","laws":"4041591188194519","lon":30.183806,"lat":30.203152,"Year":1880},
{"landUse":null,"ownership":"Prudential Global Short Duration High Yield Fund, Inc.","laws":"4041591862019016","lon":50.1028869,"lat":22.354385,"Year":1880},
{"landUse":"Origanum onites L.","ownership":"Macatawa Bank Corporation","laws":null,"lon":null,"lat":null,"Year":null},
{"landUse":"Bryocaulon Karnefelt","ownership":"Farmers Capital Bank Corporation","laws":"4041592169585","lon":41.2130334,"lat":23.1456682,"Year":1880},
{"landUse":"Malva L.","ownership":"Torchlight Energy Resources, Inc.","laws":"4041592405635169","lon":23.020673,"lat":-27.4697707,"Year":1881},
{"landUse":"×Hesperotropsis leylandii (A.B. Jacks. & Dallim.) Garland & Gerry Moore","ownership":"BioShares Biotechnology Products Fund","laws":"4041599479093803","lon":28.3102323,"lat":-9.7923047,"Year":1880},
{"landUse":"Viola adunca Sm. var. adunca","ownership":"RealPage, Inc.","laws":"4041593291406020","lon":51.1656869,"lat":-7.2120117,"Year":1881},
{"landUse":"Pittosporum confertiflorum A. Gray","ownership":null,"laws":"4017957995483454","lon":8.8443024,"lat":35.8024758,"Year":1881},
{"landUse":"Fingerhuthia Nees","ownership":"icad inc.","laws":"4041594999849","lon":30.835511,"lat":35.8925,"Year":1880},
{"landUse":"Passiflora ciliata Aiton","ownership":"OncoMed Pharmaceuticals, Inc.","laws":"4041375780657","lon":-7.0970638,"lat":-37.7204693,"Year":1880},
{"landUse":"Cyanea macrostegia Hillebr. ssp. macrostegia","ownership":"Principal Price Setters Index ETF","laws":"4041374505126237","lon":49.7243072,"lat":24.874132,"Year":1880},
{"landUse":"Polystichum tsus-simense (Hook.) J. Sm.","ownership":"Collectors Universe, Inc.","laws":"4017951958214","lon":13.621654,"lat":49.16638,"Year":1880},
{"landUse":"Sidalcea candida A. Gray","ownership":"EDAP TMS S.A.","laws":"4041596552059","lon":27.948308,"lat":45.031933,"Year":1880},
{"landUse":"Lycium exsertum A. Gray","ownership":"PowerShares DWA SmallCap Momentum Portfolio","laws":"4807836411185","lon":38.7025085,"lat":19.7633057,"Year":1880},
{"landUse":"Neostapfia Burtt Davy","ownership":"Alliance National Municipal Income Fund Inc","laws":"4041372454322","lon":-2.4655425,"lat":41.8784851,"Year":1880},
{"landUse":"Astragalus misellus S. Watson var. misellus","ownership":"SkyWest, Inc.","laws":"4041378813952515","lon":-15.1689352,"lat":34.33629,"Year":1880},
{"landUse":"Acacia constricta Benth. var. constricta","ownership":"Perrigo Company","laws":"4041590585089","lon":39.761892,"lat":15.2510231,"Year":1880},
{"landUse":"Sanvitalia abertii A. Gray","ownership":"Unisys Corporation","laws":"4017953019916","lon":57.7230813,"lat":40.0634518,"Year":1881},
{"landUse":"Lecidea rivulorum H. Magn.","ownership":"Taro Pharmaceutical Industries Ltd.","laws":"4041591461254923","lon":-8.6431,"lat":40.9271303,"Year":1880},
{"landUse":"Saxifraga nidifica Greene var. claytoniifolia (Canby ex Small) Elvander","ownership":null,"laws":"4017951576002262","lon":48.1665542,"lat":-6.6022253,"Year":1880},
{"landUse":"Calochortus greenei S. Watson","ownership":null,"laws":"4952144477697672","lon":-8.6489,"lat":27.788371,"Year":1880},
{"landUse":"Rorippa subumbellata Rollins","ownership":"First Citizens BancShares, Inc.","laws":"4657281062460518","lon":50.4727367,"lat":32.7299999,"Year":1881},
{"landUse":"Plagiobothrys humistratus (Greene) I.M. Johnst.","ownership":"Socket Mobile, Inc.","laws":null,"lon":null,"lat":null,"Year":null},
{"landUse":"Crocus L.","ownership":"Westar Energy, Inc.","laws":"4157398602322365","lon":61.1012691,"lat":31.1853497,"Year":1879},
{"landUse":"Dryopteris carthusiana (Vill.) H.P. Fuchs","ownership":"MaxPoint Interactive, Inc.","laws":"4017950694620","lon":50.1468784,"lat":49.11654,"Year":1880},
{"landUse":"Tournefortia maculata Jacq.","ownership":"Bank of America Corporation","laws":"4041374838220699","lon":38.02365,"lat":10.16575,"Year":1880},
{"landUse":"Bartonia paniculata (Michx.) Muhl. ssp. iodandra (B.L. Rob.) J.M. Gillett","ownership":"Spherix Incorporated","laws":"4184857789935","lon":30.691359,"lat":-8.0034823,"Year":1880},
{"landUse":"Lupinus excubitus M.E. Jones var. excubitus","ownership":"Kopin Corporation","laws":"4538308773667","lon":13.0427506,"lat":36.9262849,"Year":1881},
{"landUse":"Clarkia borealis E. Small ssp. arida E. Small","ownership":"Stericycle, Inc.","laws":"4017952763526840","lon":18.30987,"lat":41.245445,"Year":1880},
{"landUse":"Helianthus occidentalis Riddell ssp. plantagineus (Torr. & A. Gray) Shinners","ownership":"Morgan Stanley","laws":"4285371553420657","lon":34.0319016,"lat":-34.5875578,"Year":1880},
{"landUse":"Orcuttia californica Vasey","ownership":"Safe Bulkers, Inc","laws":"4041599921467","lon":-4.5261835,"lat":29.8282551,"Year":1881},
{"landUse":"Thelypteris opposita (Vahl) Ching","ownership":"Diana Containerships Inc.","laws":"4595668732972","lon":42.6448155,"lat":6.604594,"Year":1880},
{"landUse":"Polemonium occidentale Greene ssp. occidentale","ownership":"SGOCO Group, Ltd","laws":"4041592373582385","lon":32.391736,"lat":35.303704,"Year":1880},
{"landUse":"Tortula sinensis (Müll. Hal.) Broth.","ownership":"iRhythm Technologies, Inc.","laws":"4041595325374","lon":40.9837776,"lat":30.905779,"Year":1880},
{"landUse":"Carex amplifolia Boott","ownership":"Vanguard Russell 1000 ETF","laws":"4017956499855167","lon":50.483457,"lat":37.070834,"Year":1880},
{"landUse":"Agonimia Zahlbr.","ownership":"Advantage Oil & Gas Ltd","laws":"4017957806169","lon":17.9567646,"lat":51.95914,"Year":1881},
{"landUse":"Arctostaphylos pringlei Parry","ownership":"Cellectar Biosciences, Inc.","laws":"4017957440766644","lon":36.8936109,"lat":23.10848,"Year":1880},
{"landUse":"Calochortus gunnisonii S. Watson var. perpulcher Cockerell","ownership":"Stantec Inc","laws":"4340951350376","lon":41.0490009,"lat":-31.3964785,"Year":1880},
{"landUse":"Phacelia strictiflora (Engelm. & A. Gray) A. Gray var. lundelliana Constance","ownership":"Royal Caribbean Cruises Ltd.","laws":"4017958153274438","lon":13.7191394,"lat":40.8106238,"Year":1880},
{"landUse":"Ranunculus glacialis L. ssp. glacialis","ownership":"iStar Financial Inc.","laws":"4017951877056355","lon":56.0181995,"lat":25.24748,"Year":1879},
{"landUse":"Paspalum modestum Mez","ownership":"Arlington Asset Investment Corp","laws":"4367796475533248","lon":61.127495,"lat":44.0803302,"Year":1880},
{"landUse":"Galium desereticum Dempster & Ehrend.","ownership":"Sears Hometown and Outlet Stores, Inc.","laws":"4041371824947","lon":23.681774,"lat":-23.3233727,"Year":1879},
{"landUse":"Melaleuca wilsonii F. Muell.","ownership":"Templeton Dragon Fund, Inc.","laws":"4017954582882263","lon":1.4862816,"lat":55.7382444,"Year":1880},
{"landUse":"Arthonia subastroidella Nyl.","ownership":"Insignia Systems, Inc.","laws":"4041373777804","lon":45.2977605,"lat":22.9353419,"Year":1880},
{"landUse":"Brachystigma wrightii (A. Gray) Pennell","ownership":"Select Bancorp, Inc.","laws":"4017951646447","lon":26.1737172,"lat":-7.0555388,"Year":1880},
{"landUse":"Spiranthes ×folsomii P.M. Brown","ownership":"Western Asset Corporate Loan Fund Inc","laws":"4041376717781","lon":41.7958532,"lat":38.7336567,"Year":1879},
{"landUse":"Amelanchier canadensis (L.) Medik.","ownership":"Resolute Forest Products Inc.","laws":"4185797065872","lon":30.864884,"lat":19.4102526,"Year":1880},
{"landUse":"Eriogonum heracleoides Nutt. var. leucophaeum Reveal","ownership":"Artisan Partners Asset Management Inc.","laws":null,"lon":null,"lat":null,"Year":null},
{"landUse":"Perityle specuicola S.L. Welsh & Neese","ownership":"Bank of Hawaii Corporation","laws":null,"lon":null,"lat":null,"Year":null},
{"landUse":"Palafoxia texana DC. var. texana","ownership":"Interpublic Group of Companies, Inc. (The)","laws":"4914438348467282","lon":64.5661757,"lat":13.9142931,"Year":1880},
{"landUse":"Astragalus didymocarpus Hook. & Arn. var. didymocarpus","ownership":null,"laws":"4017953994134","lon":-27.8846801,"lat":-22.1588749,"Year":1880},
{"landUse":"Cuscuta japonica Choisy","ownership":"Axalta Coating Systems Ltd.","laws":"4535960878195321","lon":48.4508261,"lat":-27.6349915,"Year":1880},
{"landUse":"Manihot esculenta Crantz","ownership":null,"laws":"4041371103355861","lon":13.5722578,"lat":43.865595,"Year":1879},
{"landUse":"Ecballium A. Rich.","ownership":"AGNC Investment Corp.","laws":"4017955860693041","lon":23.09964,"lat":-8.6519695,"Year":1881},
{"landUse":null,"ownership":"Royal Bank Scotland plc (The)","laws":"4041373780881","lon":32.86593,"lat":19.4871158,"Year":1879},
{"landUse":"Juniperus L.","ownership":null,"laws":"4625560261620","lon":46.4883734,"lat":39.1934799,"Year":1880},
{"landUse":"Diplotomma penichrum (Tuck.) Szat.","ownership":"First Trust Nasdaq Retail ETF","laws":"4630951078971","lon":50.6881144,"lat":39.0063718,"Year":1880},
{"landUse":"Crataegus sutherlandensis Sarg.","ownership":"Resource Capital Corp.","laws":"4287681532817","lon":56.3815664,"lat":59.6517905,"Year":1880},
{"landUse":null,"ownership":"First Mid-Illinois Bancshares, Inc.","laws":"4769706925469467","lon":32.7657318,"lat":35.2304671,"Year":1879},
{"landUse":"Madia exigua (Sm.) A. Gray","ownership":"Microchip Technology Incorporated","laws":"4694975085578","lon":56.5789712,"lat":51.7204294,"Year":1881},
{"landUse":"Jamesia tetrapetala N.H. Holmgren & P.K. Holmgren","ownership":"Sun Communities, Inc.","laws":"4189947080302","lon":-6.8230945,"lat":39.974179,"Year":1880},
{"landUse":"Eryngium yuccifolium Michx. var. yuccifolium","ownership":"Genesis Healthcare, Inc.","laws":"4041593006208","lon":28.871569,"lat":-7.4011226,"Year":1880},
{"landUse":"Ludwigia alternifolia L.","ownership":"Apollo Commercial Real Estate Finance","laws":"4587122988530","lon":36.865827,"lat":11.6786404,"Year":1880},
{"landUse":"Tortula scotteri R.H. Zander & Steere","ownership":"Redhill Biopharma Ltd.","laws":"4017958340821091","lon":54.8539133,"lat":49.829369,"Year":1880},
{"landUse":null,"ownership":"Gladstone Capital Corporation","laws":"4017954343243318","lon":38.476374,"lat":9.262717,"Year":1880},
{"landUse":"Guzmania lingulata (L.) Mez","ownership":"ePlus inc.","laws":"4041372590075921","lon":11.0124684,"lat":40.570338,"Year":1879},
{"landUse":"Cylindropuntia ×kelvinensis (V.E. Grant & K.A. Grant) P.V. Heath","ownership":"American Axle & Manufacturing Holdings, Inc.","laws":"4041377811609","lon":14.72328,"lat":-6.1834101,"Year":1880},
{"landUse":"Viola chamissoniana Gingins","ownership":"Boston Scientific Corporation","laws":"4017956711730669","lon":35.9202328,"lat":53.6972399,"Year":1880},
{"landUse":"Navarretia atractyloides (Benth.) Hook. & Arn.","ownership":"S&T Bancorp, Inc.","laws":"4041372481341","lon":53.1511461,"lat":54.0083923,"Year":1880},
{"landUse":"Eriogonum siskiyouense Small","ownership":null,"laws":"4041374688380","lon":5.419092,"lat":38.414101,"Year":1880},
{"landUse":"Peganum mexicanum A. Gray","ownership":null,"laws":"4041378252266","lon":34.6982972,"lat":23.5651914,"Year":1880},
{"landUse":"Synthyris pinnatifida S. Watson","ownership":"Jupai Holdings Limited","laws":"4041599935269","lon":-6.7387737,"lat":15.3376191,"Year":1880},
{"landUse":"Bahia absinthifolia Benth. var. absinthifolia","ownership":"Andina Acquisition Corp. II","laws":"4763590637158840","lon":-4.3822378,"lat":46.8315136,"Year":1879},
{"landUse":"Penstemon grinnellii Eastw. ssp. scrophularioides (M.E. Jones) Munz","ownership":"Appliance Recycling Centers of America, Inc.","laws":"4041373830264","lon":23.642114,"lat":-8.2850512,"Year":1880},
{"landUse":"Platanthera huronensis (Nutt.) Lindl.","ownership":"Matlin & Partners Acquisition Corporation","laws":"4017950881090236","lon":31.2278735,"lat":49.9202398,"Year":1880},
{"landUse":"Verbena urticifolia L. var. urticifolia","ownership":"Fiserv, Inc.","laws":"4607246860367539","lon":6.0825,"lat":-7.4704747,"Year":1880},
{"landUse":"Mentha arvensis L.","ownership":"Chesapeake Lodging Trust","laws":null,"lon":null,"lat":null,"Year":null},
{"landUse":"Hebe ×franciscana (Eastw.) Souster","ownership":"Templeton Emerging Markets Income Fund, Inc.","laws":"4017953170610","lon":14.6746056,"lat":32.5639,"Year":1880},
{"landUse":"Euonymus nanus M. Bieb.","ownership":"Intuit Inc.","laws":"4017955460308","lon":55.590397,"lat":63.8601923,"Year":1880},
{"landUse":"Jaffueliobryum wrightii (Sull.) Thér.","ownership":"HopFed Bancorp, Inc.","laws":"4041375770237","lon":-22.5306158,"lat":19.7267712,"Year":1880},
{"landUse":"Hymenoclea Torr. & A. Gray ex A. Gray","ownership":"General Electric Capital Corporation","laws":"4017951720028","lon":-34.6156429,"lat":7.1760285,"Year":1880},
{"landUse":"Agoseris ×dasycarpa Greene (pro sp.)","ownership":"Spark Therapeutics, Inc.","laws":"4017953453081","lon":45.54,"lat":34.9645166,"Year":1880},
{"landUse":"Copernicia Mart. ex Endl.","ownership":"Pennsylvania Real Estate Investment Trust","laws":"4890202761845962","lon":13.2999,"lat":67.1356306,"Year":1879},
{"landUse":"Taralea oppositifolia Aubl.","ownership":"Care Capital Properties, Inc.","laws":"4109499864422965","lon":2.5045603,"lat":36.639033,"Year":1879},
{"landUse":"Lomatium macrocarpum (Nutt. ex Torr. & A. Gray) J.M. Coult. & Rose","ownership":"Blucora, Inc.","laws":"4017953801506661","lon":49.4604602,"lat":48.5264861,"Year":1879},
{"landUse":"Carex pumila Thunb.","ownership":"Chesapeake Granite Wash Trust","laws":"4041379371788663","lon":51.78914,"lat":44.4,"Year":1881},
{"landUse":"Fremontodendron mexicanum Davidson","ownership":"Innodata Inc.","laws":"4041371784095596","lon":41.8784851,"lat":46.7737707,"Year":1880},
{"landUse":"Juncus bolanderi Engelm.","ownership":"Citrix Systems, Inc.","laws":"4598255978863421","lon":39.444422,"lat":37.1306168,"Year":1880},
{"landUse":"Caloplaca coralloides (Tuck.) Hulting","ownership":"China Recycling Energy Corporation","laws":"4041377115894","lon":10.3764175,"lat":39.5511448,"Year":1880},
{"landUse":"Carex hirsutella Mack.","ownership":"First Trust Low Duration Opportunities ETF","laws":"4041371532374202","lon":22.6308357,"lat":-8.2412718,"Year":1881},
{"landUse":"Eucalyptus luehmanniana F. Muell.","ownership":"First United Corporation","laws":"4041597057788703","lon":53.9865,"lat":39.8949802,"Year":1880},
{"landUse":"Vaccinium reticulatum Sm.","ownership":"Washington Federal, Inc.","laws":"4041591959314247","lon":34.329605,"lat":3.1523104,"Year":1881},
{"landUse":"Aquilegia scopulorum Tidestr.","ownership":"SunTrust Banks, Inc.","laws":"4041372222059","lon":9.7421342,"lat":32.12214,"Year":1879},
{"landUse":"Tetrapanax papyrifer (Hook.) K. Koch","ownership":"SmartFinancial, Inc.","laws":"4041597519322877","lon":-6.9775856,"lat":25.169786,"Year":1880},
{"landUse":"Triticum araraticum Jakubz.","ownership":null,"laws":"4017951741726811","lon":16.4328151,"lat":15.5906551,"Year":1881},
{"landUse":"Cuscuta rostrata Shuttlw. ex Engelm. & A. Gray","ownership":"Optical Cable Corporation","laws":"4017957292824","lon":7.1270158,"lat":51.6655,"Year":1881},
{"landUse":"Genista L.","ownership":"CryoPort, Inc.","laws":"4041592851557214","lon":4.5943745,"lat":19.6402143,"Year":1880},
{"landUse":"Cymopterus panamintensis J.M. Coult. & Rose var. acutifolius (J.M. Coult. & Rose) Munz","ownership":"C&F Financial Corporation","laws":"4344074686252","lon":50.2875742,"lat":43.0283952,"Year":1880},
{"landUse":"Cleyera Thunb.","ownership":"Function(x) Inc.","laws":"4770627993696517","lon":7.75778,"lat":40.4339379,"Year":1880},
{"landUse":"Tephrosia vicioides Schtdl.","ownership":"Thor Industries, Inc.","laws":"4017954578105679","lon":46.562247,"lat":-9.6612173,"Year":1880},
{"landUse":"Caryocar nuciferum L.","ownership":"Allstate Corporation (The)","laws":"4017954913323","lon":30.199688,"lat":-6.939153,"Year":1880},
{"landUse":"Suriana L.","ownership":"Helios and Matheson Analytics Inc","laws":"4041378876288","lon":-13.479597,"lat":43.0690343,"Year":1880},
{"landUse":"Phacelia insularis Munz","ownership":null,"laws":"4041598607713282","lon":43.7441795,"lat":45.402837,"Year":1880},
{"landUse":"Rubus iniens L.H. Bailey","ownership":null,"laws":"4041376850936938","lon":1.3483826,"lat":35.7455327,"Year":1879},
{"landUse":"Lobelia spicata Lam. var. leptostachys (A. DC.) Mack. & Bush","ownership":"Columbia Seligman Premium Technology Growth Fund, Inc","laws":"4041594791261","lon":30.466667,"lat":46.152911,"Year":1881},
{"landUse":"Solidago flexicaulis L.","ownership":"DAQO New Energy Corp.","laws":"4041370911162733","lon":-20.9977174,"lat":36.4126577,"Year":1879},
{"landUse":"Flueggea neowawraea W.J. Hayden","ownership":"Exxon Mobil Corporation","laws":"4041371669037","lon":55.7222135,"lat":36.409259,"Year":1880}]}