{"data":[{"landUse":"Evolvulus arizonicus A. Gray","ownership":"First Trust High Income ETF","laws":"4041591348701","lon":31.364042,"lat":30.411429,"Year":1980},
{"landUse":"Trifolium semipilosum Fresen.","ownership":"Elbit Imaging Ltd.","laws":"4017957024464947","lon":52.2081565,"lat":12.261245,"Year":1980},
{"landUse":"Calamagrostis muiriana B.L. Wilson & Sami Gray","ownership":"Opus Bank","laws":"4757441648772","lon":35.5374671,"lat":20.448773,"Year":1979},
{"landUse":"Psilostrophe bakeri Greene","ownership":"Citigroup Inc.","laws":"4017951693639","lon":29.5530941,"lat":5.329576,"Year":1981},
{"landUse":"Lithophragma parviflorum (Hook.) Nutt. ex Torr. & A. Gray var. parviflorum","ownership":null,"laws":"4017955740484397","lon":34.0370771,"lat":57.7039518,"Year":1980},
{"landUse":"Echinocereus enneacanthus Engelm. var. enneacanthus","ownership":"WisdomTree Barclays Negative Duration U.S. Aggregate Bond Fund","laws":"4041591568232400","lon":-7.8090256,"lat":31.211077,"Year":1980},
{"landUse":"Puccinellia sublaevis (Holmb.) Tzvelev","ownership":"Vanguard Total International Stock ETF","laws":"4208645212718245","lon":22.781631,"lat":58.8049634,"Year":1981},
{"landUse":"Oxalis barrelieri L.","ownership":"Advanced Micro Devices, Inc.","laws":"4568660843337","lon":46.8485653,"lat":11.186148,"Year":1980},
{"landUse":"Carex vallicola Dewey var. vallicola","ownership":"SecureWorks Corp.","laws":"4017951600303","lon":56.6695343,"lat":32.10233,"Year":1980},
{"landUse":"Phacelia racemosa (Kellogg) Brandegee","ownership":"Benefitfocus, Inc.","laws":"4041374971729","lon":36.7904088,"lat":34.15599,"Year":1980},
{"landUse":"Torilis nodosa (L.) Gaertn.","ownership":"Stifel Financial Corporation","laws":"4017950368209","lon":7.0693618,"lat":50.9422707,"Year":1981},
{"landUse":"Labordia Gaudich.","ownership":"Mueller Industries, Inc.","laws":"4041377095577875","lon":-6.9895044,"lat":11.6155109,"Year":1981},
{"landUse":"Xylosma pachyphylla (Krug & Urb.) Urb.","ownership":"Nuveen Preferred and Income 2022 Term Fund","laws":"4041590889659929","lon":36.7818033,"lat":10.103645,"Year":1980},
{"landUse":"Grusonia emoryi (Engelm.) Pinkava","ownership":"Capital Senior Living Corporation","laws":"4708201511350937","lon":57.9536921,"lat":53.0475258,"Year":1980},
{"landUse":"Vaccinium bracteatum Thunb.","ownership":"Eaton Vance High Income 2021 Target Term Trust","laws":"4017959458983863","lon":37.1264754,"lat":14.1281138,"Year":1980},
{"landUse":"Croton glandulosus L. var. glandulosus","ownership":"Aduro Biotech, Inc.","laws":"4041373950022230","lon":40.6681669,"lat":31.920658,"Year":1980},
{"landUse":"Silene conoidea L.","ownership":"WellCare Health Plans, Inc.","laws":"4017955304437997","lon":43.88793,"lat":39.0961273,"Year":1980},
{"landUse":"Navarretia prolifera Greene ssp. lutea (Brand) H. Mason","ownership":"Nexeo Solutions, Inc.","laws":"4017959717570","lon":49.1063903,"lat":-45.5712254,"Year":1980},
{"landUse":"Crataegus punctata Jacq.","ownership":"Midatech Pharma PLC","laws":"4041595754684134","lon":8.1406054,"lat":-7.2510084,"Year":1980},
{"landUse":"Krameria L.","ownership":"Immuron Limited","laws":"4017951562552","lon":20.7491091,"lat":6.0867332,"Year":1979},
{"landUse":"Ptychomitrium Fürnr.","ownership":"American Assets Trust, Inc.","laws":"4017955204893869","lon":-2.5082067,"lat":56.0442244,"Year":1980},
{"landUse":"Platanthera limosa Lindl.","ownership":"Pernix Therapeutics Holdings, Inc.","laws":"4536565140679","lon":26.419602,"lat":-11.8073632,"Year":1979},
{"landUse":"Allophylus L.","ownership":"Generac Holdlings Inc.","laws":"4041591485997648","lon":37.7621762,"lat":31.8840886,"Year":1980},
{"landUse":"Asclepias californica Greene ssp. greenei Woodson","ownership":"NCI, Inc.","laws":"4222877932778546","lon":-11.7401439,"lat":9.852371,"Year":1981},
{"landUse":"Buellia geophila (Flörke ex Sommerf.) Lynge","ownership":"BLACKROCK INTERNATIONAL, LTD.","laws":"4041599540564816","lon":26.2650742,"lat":30.7016468,"Year":1979},
{"landUse":"Diplazium lherminieri Hieron.","ownership":"Oceaneering International, Inc.","laws":"4533911376495","lon":32.3907895,"lat":-20.8478935,"Year":1980},
{"landUse":"Capsicum annuum L. var. glabriusculum (Dunal) Heiser & Pickersgill","ownership":"Principal Financial Group Inc","laws":null,"lon":null,"lat":null,"Year":null},
{"landUse":"Tillandsia recurvata (L.) L.","ownership":null,"laws":"4017954201356","lon":43.8384389,"lat":39.7164885,"Year":1979},
{"landUse":"Rubus aliceae L.H. Bailey","ownership":"Smart","laws":"4017955866517855","lon":35.2303205,"lat":-35.9636265,"Year":1979},
{"landUse":"Carex tribuloides Wahlenb. var. tribuloides","ownership":"Global X S&P 500 Catholic Values ETF","laws":"4041590829719","lon":-6.7189946,"lat":45.2280258,"Year":1980},
{"landUse":"Eriogonum ovalifolium Nutt. var. nivale (Canby) M.E. Jones","ownership":"Care.com, Inc.","laws":null,"lon":null,"lat":null,"Year":null},
{"landUse":"Saccoloma inaequale (Kunze) Mett.","ownership":"Multi-Color Corporation","laws":"4041595233085861","lon":50.4438122,"lat":12.5092044,"Year":1980},
{"landUse":null,"ownership":"BLDRS Emerging Markets 50 ADR Index Fund","laws":"4017955306254218","lon":-26.1317461,"lat":51.2445632,"Year":1981},
{"landUse":"Celtis ehrenbergiana (Klotzsch) Liebm.","ownership":"Vanguard International Dividend Appreciation ETF","laws":"4041594972087048","lon":40.6919067,"lat":-38.0065623,"Year":1981},
{"landUse":null,"ownership":"Virtus Global Multi-Sector Income Fund","laws":"4041595559816","lon":-27.36667,"lat":50.716719,"Year":1980},
{"landUse":"Ludwigia glandulosa Walter","ownership":"Hovnanian Enterprises Inc","laws":"4275081410799266","lon":62.1331515,"lat":-20.9829904,"Year":1981},
{"landUse":"Lactuca saligna L.","ownership":"First Mid-Illinois Bancshares, Inc.","laws":null,"lon":null,"lat":null,"Year":null},
{"landUse":"Arabis hirsuta (L.) Scop. var. glabrata Torr. & A. Gray","ownership":"Summit Hotel Properties, Inc.","laws":"4368190468088395","lon":37.369435,"lat":41.2169163,"Year":1980},
{"landUse":"Escallonia rubra (Ruiz & Pav.) Pers.","ownership":"Agilysys, Inc.","laws":"4041375045598","lon":35.74716,"lat":48.7381259,"Year":1980},
{"landUse":"Eugenia uniflora L.","ownership":"BlackRock New York Investment Quality Municipal Trust Inc. (Th","laws":"4017958960031","lon":30.830898,"lat":14.4066158,"Year":1980},
{"landUse":"Dudleya saxosa (M.E. Jones) Britton & Rose ssp. aloides (Rose) Moran","ownership":"Dataram Corporation","laws":"4746527902641","lon":56.0349544,"lat":37.1408036,"Year":1980},
{"landUse":"Tragopogon pratensis L.","ownership":"The Kraft Heinz Company","laws":"4639690567510234","lon":50.8304668,"lat":43.3182911,"Year":1980},
{"landUse":"Fissidens obtusifolius Wilson","ownership":"Ingredion Incorporated","laws":"4017951364698099","lon":41.4933471,"lat":26.6182735,"Year":1980},
{"landUse":"Rosa manca Greene","ownership":"Hawthorn Bancshares, Inc.","laws":null,"lon":null,"lat":null,"Year":null},
{"landUse":"Dichanthelium acuminatum (Sw.) Gould & C.A. Clark var. lindheimeri (Nash) Gould & C.A. Clark","ownership":"Griffin Industrial Realty, Inc.","laws":"4041378373047854","lon":52.32659,"lat":14.41747,"Year":1979},
{"landUse":"Orthotrichum praemorsum Vent.","ownership":"First Trust Japan AlphaDEX Fund","laws":"4041598850667","lon":62.5898079,"lat":49.8491712,"Year":1980},
{"landUse":"Arenaria congesta Nutt. var. congesta","ownership":"Syntel, Inc.","laws":"4041590858733721","lon":20.0910963,"lat":-7.633333,"Year":1980},
{"landUse":"Hymenothrix A. Gray","ownership":"tronc, Inc.","laws":"4017955054713","lon":15.3483742,"lat":49.8545281,"Year":1980},
{"landUse":"Atriplex griffithsii Standl.","ownership":"Barracuda Networks, Inc.","laws":"4521957301144211","lon":32.874735,"lat":53.3004898,"Year":1980},
{"landUse":"Carex diluta M. Bieb.","ownership":"Texas Capital Bancshares, Inc.","laws":null,"lon":null,"lat":null,"Year":null},
{"landUse":"Zinnia maritima Kunth","ownership":"FinTech Acquisition Corp. II","laws":"4041592183099","lon":48.6769923,"lat":-8.6489,"Year":1981},
{"landUse":"Lupinus arcticus S. Watson ssp. subalpinus (Piper & B.L. Rob.) D. Dunn","ownership":"Niagara Mohawk Holdings, Inc.","laws":"4041376337179177","lon":32.006965,"lat":61.13336,"Year":1981},
{"landUse":"Sphagnum flavicomans (Cardot) Warnst.","ownership":"Tuttle Tactical Management U.S. Core ETF","laws":"4041376911816954","lon":22.8311155,"lat":47.335609,"Year":1980},
{"landUse":"Lecanora cinereofusca H. Magn. var. cinereofusca","ownership":"Hudson Technologies, Inc.","laws":"4283635613344657","lon":-7.459928,"lat":58.0275087,"Year":1980},
{"landUse":null,"ownership":"Magellan Midstream Partners L.P.","laws":"4041375877040","lon":-7.9576278,"lat":34.88333,"Year":1980},
{"landUse":"Amelanchier utahensis Koehne var. covillei (Standl.) N.H. Holmgren","ownership":"Applied Industrial Technologies, Inc.","laws":"4041373155392438","lon":14.5665378,"lat":40.1208803,"Year":1980},
{"landUse":"Tectaria estremeriana Proctor & A.M. Evans","ownership":"Atlas Financial Holdings, Inc.","laws":"4041376922960759","lon":-7.7799,"lat":61.8592319,"Year":1980},
{"landUse":"Calamagrostis scopulorum M.E. Jones","ownership":"DBV Technologies S.A.","laws":"4060667025357","lon":30.135462,"lat":32.7423216,"Year":1979},
{"landUse":"Spathodea campanulata P. Beauv.","ownership":"Biohaven Pharmaceutical Holding Company Ltd.","laws":"4379227850061338","lon":-7.6435908,"lat":42.722661,"Year":1980},
{"landUse":"Arthrostylidium Rupr.","ownership":"Optical Cable Corporation","laws":"4041378265540","lon":49.7216794,"lat":37.943121,"Year":1980},
{"landUse":"Collinsonia tuberosa Michx.","ownership":null,"laws":"4017954169181","lon":29.866911,"lat":26.753593,"Year":1980},
{"landUse":"Brunfelsia lactea Krug & Urb.","ownership":"United Therapeutics Corporation","laws":"4041595852179","lon":51.5775677,"lat":3.1523104,"Year":1981},
{"landUse":"Symphyotrichum hallii (A. Gray) G.L. Nesom","ownership":"Western Asset Municipal High Income Fund, Inc.","laws":"4506032689004","lon":-7.1549929,"lat":9.8566537,"Year":1981},
{"landUse":"Cuscuta globulosa Benth.","ownership":"Realogy Holdings Corp.","laws":"4041379136220333","lon":31.9922283,"lat":1.6480399,"Year":1981},
{"landUse":"Yeatesia platystegia (Torr.) Hilsenb.","ownership":"Viacom Inc.","laws":"4041594277051848","lon":23.213961,"lat":52.8861365,"Year":1980},
{"landUse":"Bunchosia Rich. ex Kunth","ownership":"Fidus Investment Corporation","laws":"4041598826923142","lon":49.2152833,"lat":0.0208039,"Year":1981},
{"landUse":"Erigeron compactus S.F. Blake","ownership":"Tenneco Inc.","laws":"4041599434727","lon":-1.7232202,"lat":-7.2248,"Year":1980},
{"landUse":"Rhizocarpon polycarpum (Hepp.) Th. Fr.","ownership":"Tesco Corporation","laws":"4132351477470454","lon":22.951554,"lat":40.076762,"Year":1981},
{"landUse":"Trichocentrum maculatum (Aubl.) M.W. Chase","ownership":"Diana Shipping inc.","laws":"4883670253603","lon":12.5683747,"lat":50.91671,"Year":1980},
{"landUse":"Pluchea sagittalis (Lam.) Cabrera","ownership":"Mannatech, Incorporated","laws":"4041590230017","lon":25.8007724,"lat":-13.05526,"Year":1979},
{"landUse":"Fimbristylis brevivaginata Kral","ownership":"AmeriServ Financial Inc.","laws":"4041379393069","lon":29.9338311,"lat":-6.939897,"Year":1980},
{"landUse":"Quercus macrolepis Kotschy","ownership":"ABIOMED, Inc.","laws":"4041379162159","lon":10.7534694,"lat":50.31641,"Year":1979},
{"landUse":"Gilia flavocincta A. Nelson ssp. flavocincta","ownership":"Oshkosh Corporation","laws":"4017958896985548","lon":-13.69361,"lat":46.8318267,"Year":1979},
{"landUse":"Penstemon glandulosus Douglas","ownership":"Lianluo Smart Limited","laws":"4017954424107","lon":-25.283333,"lat":-7.4869186,"Year":1980},
{"landUse":"Isocoma humilis G.L. Nesom","ownership":"RadNet, Inc.","laws":"4041375151628","lon":55.7359757,"lat":10.7930794,"Year":1980},
{"landUse":"Cleome platycarpa Torr.","ownership":"Worthington Industries, Inc.","laws":"4597424066083","lon":39.128291,"lat":18.2464685,"Year":1980},
{"landUse":"Racomitrium pygmaeum Frisvoll","ownership":"Interpublic Group of Companies, Inc. (The)","laws":"4017957080849","lon":41.5706511,"lat":52.2309398,"Year":1980},
{"landUse":"Plagiobothrys glaber (A. Gray) I.M. Johnst.","ownership":"Bank of America Corporation","laws":"4041375704528974","lon":8.16667,"lat":49.4940668,"Year":1980},
{"landUse":"Eleocharis elliptica Kunth","ownership":"Kelly Services, Inc.","laws":"4017954799904","lon":9.0968746,"lat":51.7976037,"Year":1980},
{"landUse":"Tilia platyphyllos Scop.","ownership":"Empire State Realty Trust, Inc.","laws":"4017951266170","lon":41.07,"lat":53.1121503,"Year":1980},
{"landUse":"Notholaena greggii (Mett. ex Kuhn) Maxon","ownership":"US Ecology, Inc.","laws":"4017959911546","lon":50.0549693,"lat":-6.5588437,"Year":1980},
{"landUse":"Verbesina encelioides (Cav.) Benth. & Hook. f. ex A. Gray","ownership":"Kura Oncology, Inc.","laws":"4017952905362","lon":35.202503,"lat":31.2185473,"Year":1980},
{"landUse":"Cirsium vulgare (Savi) Ten.","ownership":"Ever-Glory International Group, Inc.","laws":"4017951242940","lon":59.94043,"lat":42.1102695,"Year":1980},
{"landUse":"Erigeron vreelandii Greene","ownership":"NutriSystem Inc","laws":"4017959969554674","lon":50.9996233,"lat":43.1905743,"Year":1980},
{"landUse":"Arabis repanda S. Watson var. repanda","ownership":"HollyFrontier Corporation","laws":"4041377011606","lon":-15.81143,"lat":23.068062,"Year":1981},
{"landUse":"Allium howellii Eastw. var. howellii","ownership":"Ivy High Income Opportunities Fund","laws":"4046604048289","lon":52.5168356,"lat":14.5671847,"Year":1980},
{"landUse":"Erigeron uncialis S.F. Blake","ownership":"RiverNorth Opportunities Fund, Inc.","laws":"4572143704409661","lon":37.27,"lat":30.274084,"Year":1979},
{"landUse":"Arnica chamissonis Less. ssp. chamissonis var. chamissonis","ownership":"Tandem Diabetes Care, Inc.","laws":"4041375897410","lon":-38.977251,"lat":51.95914,"Year":1981},
{"landUse":"Quercus gravesii Sudw.","ownership":"CareDx, Inc.","laws":"4739444711674","lon":19.4805668,"lat":9.5848982,"Year":1980},
{"landUse":"Sclerocactus polyancistrus (Engelm. & J.M. Bigelow) Britton & Rose","ownership":"INC Research Holdings, Inc.","laws":"4041378510507","lon":7.2077348,"lat":42.6962642,"Year":1981},
{"landUse":"Antennaria alpina (L.) Gaertn.","ownership":"PAVmed Inc.","laws":"4017959052465","lon":6.601838,"lat":-22.3281412,"Year":1980},
{"landUse":"Antennaria neglecta Greene","ownership":"Woodward, Inc.","laws":"4041594377632","lon":19.0511285,"lat":46.64635,"Year":1980},
{"landUse":"Collema subparvum Degel.","ownership":"Eagle Bancorp Montana, Inc.","laws":null,"lon":null,"lat":null,"Year":null},
{"landUse":"Pentas lanceolata (Forssk.) Deflers","ownership":"LPL Financial Holdings Inc.","laws":"4041591252895","lon":50.4251949,"lat":4.3329129,"Year":1980},
{"landUse":null,"ownership":"Mesa Laboratories, Inc.","laws":"4017953077672924","lon":60.9366185,"lat":41.6579624,"Year":1979},
{"landUse":"Cryptantha caespitosa (A. Nelson) Payson","ownership":"Royal Gold, Inc.","laws":null,"lon":null,"lat":null,"Year":null},
{"landUse":"Dodecatheon meadia L. ssp. brachycarpum (Small) R. Knuth","ownership":null,"laws":"4017955803643871","lon":49.8545281,"lat":54.0521127,"Year":1979},
{"landUse":"Sagittaria latifolia Willd.","ownership":"Farmers Capital Bank Corporation","laws":"4250474435937","lon":49.03353,"lat":41.0236769,"Year":1980},
{"landUse":"Trifolium barbigerum Torr. var. andrewsii A. Gray","ownership":"NextEra Energy, Inc.","laws":"4017956969976","lon":-5.3755675,"lat":55.6658602,"Year":1980},
{"landUse":"Puccinellia distans (Jacq.) Parl. ssp. hauptiana (Trin. ex Krecz.) W.E. Hughes","ownership":"Synthetic Fixed-Income Securities, Inc.","laws":"4017959563343185","lon":-7.6646951,"lat":45.0247038,"Year":1980},
{"landUse":"Balanites Delile","ownership":"Maiden Holdings, Ltd.","laws":null,"lon":null,"lat":null,"Year":null},
{"landUse":"Arthonia subrubella Nyl.","ownership":"CBO (Listing Market - NYSE - Networks A/E)","laws":"4041592093399292","lon":60.6815788,"lat":34.883333,"Year":1980},
{"landUse":"Mentzelia incisa Urb. & Gilg","ownership":"ENSCO plc","laws":"4113572328686880","lon":34.66667,"lat":5.9840985,"Year":1980},
{"landUse":"Trifolium longipes Nutt. ssp. multipedunculatum (Kennedy) J.M. Gillett","ownership":"Dupont Fabros Technology, Inc.","laws":"4041598101277","lon":55.6753006,"lat":27.756339,"Year":1979},
{"landUse":"Acnistus Schott","ownership":"NxStage Medical, Inc.","laws":"4041379042645078","lon":49.8408677,"lat":29.33903,"Year":1980},
{"landUse":"Ononis fruticosa L.","ownership":"SciClone Pharmaceuticals, Inc.","laws":"4041378346373","lon":30.3645144,"lat":-7.3887,"Year":1980},
{"landUse":"Erythroxylum brevipes DC.","ownership":"Hunter Maritime Acquisition Corp.","laws":"4017954853875","lon":-7.3646327,"lat":-21.2001343,"Year":1981},
{"landUse":"Festuca rubra L. ssp. fallax (Thuill.) Nyman","ownership":"GGP Inc.","laws":"4041593463619897","lon":32.060255,"lat":47.2662587,"Year":1980},
{"landUse":"Quercus engelmannii Greene","ownership":"ICF International, Inc.","laws":"4302274488216563","lon":15.678696,"lat":49.1931313,"Year":1980},
{"landUse":"Rubus densissimus H.A. Davis & T. Davis","ownership":"CSW Industrials, Inc.","laws":"4041599956919","lon":49.5438285,"lat":-34.179452,"Year":1980},
{"landUse":"Helianthemum carolinianum (Walter) Michx.","ownership":"CPI Card Group Inc.","laws":"4501612670227","lon":59.9363422,"lat":49.9470702,"Year":1981},
{"landUse":"Grammitis hessii (Maxon) Alain","ownership":"Procter & Gamble Company (The)","laws":"4041594150503535","lon":-2.2161048,"lat":50.0384685,"Year":1981},
{"landUse":"Horkelia tridentata Torr.","ownership":"Univar Inc.","laws":null,"lon":null,"lat":null,"Year":null},
{"landUse":"Heritiera actinophylla (F.M. Bailey) Kosterm.","ownership":"Ohio Valley Banc Corp.","laws":"4017950890632","lon":51.8135681,"lat":31.558356,"Year":1981},
{"landUse":"Phlox stansburyi (Torr.) A. Heller ssp. stansburyi","ownership":"T-Mobile US, Inc.","laws":"4462234074845","lon":56.412767,"lat":33.1401715,"Year":1981},
{"landUse":"Banara Aubl.","ownership":"KB Home","laws":"4041370808832026","lon":38.828834,"lat":-8.0023449,"Year":1980},
{"landUse":"Olearia cheesmanii Cockayne & Allan","ownership":"Bank of N.T. Butterfield & Son Limited (The)","laws":"4445016689919448","lon":-8.1836,"lat":49.9776418,"Year":1980},
{"landUse":"Melochia corchorifolia L.","ownership":"Territorial Bancorp Inc.","laws":null,"lon":null,"lat":null,"Year":null},
{"landUse":"Paspalum caespitosum Flueggé","ownership":"Global X Conscious Companies ETF","laws":"4017954383308021","lon":-9.5715752,"lat":40.546361,"Year":1980},
{"landUse":"Leptodontium excelsum (Sull.) E. Britton","ownership":"United Bankshares, Inc.","laws":"4017953686805","lon":37.0422371,"lat":38.627216,"Year":1980},
{"landUse":"Prenanthella Rydb.","ownership":"ON Semiconductor Corporation","laws":"4041371418487177","lon":46.280212,"lat":40.8195312,"Year":1980},
{"landUse":"Calopogon barbatus (Walter) Ames","ownership":"Legacy Reserves LP","laws":"4017950153098","lon":17.2906593,"lat":-6.8939065,"Year":1980},
{"landUse":"Fabronia ciliaris (Brid.) Brid. var. wrightii (Sull.) W.R. Buck","ownership":"GSI Technology, Inc.","laws":"4041595268905","lon":-4.8383044,"lat":47.648627,"Year":1980},
{"landUse":"Grindelia lanceolata Nutt. var. texana (Scheele) Shinners","ownership":"MIDSTATES PETROLEUM COMPANY, INC.","laws":null,"lon":null,"lat":null,"Year":null},
{"landUse":null,"ownership":"Diamondback Energy, Inc.","laws":"4239028310332","lon":30.453667,"lat":-34.4402062,"Year":1980},
{"landUse":"Thouinia striata Radlk. var. striata","ownership":"Vanguard Russell 1000 ETF","laws":"4041372604496","lon":52.5307386,"lat":36.3755668,"Year":1980},
{"landUse":"Petractis Fr.","ownership":"Xcel Energy Inc.","laws":"4041379023807","lon":47.304702,"lat":36.591213,"Year":1980},
{"landUse":"Poa nemoralis L. ssp. interior (Rydb.) W.A. Weber","ownership":"Interstate Power and Light Company","laws":"4041372763391","lon":26.848547,"lat":7.2484596,"Year":1981},
{"landUse":"Sibara grisea Rollins","ownership":"Wheeler Real Estate Investment Trust, Inc.","laws":"4041591443869848","lon":34.718968,"lat":40.8143687,"Year":1980},
{"landUse":"Helenium amarum (Raf.) H. Rock var. amarum","ownership":"Playa Hotels & Resorts N.V.","laws":null,"lon":null,"lat":null,"Year":null},
{"landUse":"Halesia tetraptera Ellis","ownership":"CYS Investments, Inc.","laws":"4041371025016","lon":55.496663,"lat":56.3137647,"Year":1980},
{"landUse":"Penstemon clutei A. Nelson","ownership":"RLI Corp.","laws":"4017958011436450","lon":-23.4739979,"lat":41.1298235,"Year":1979},
{"landUse":"Pyrrocoma crocea (A. Gray) Greene","ownership":"First Trust Large Cap Growth AlphaDEX Fund","laws":"4041599327129","lon":-8.6212427,"lat":41.468342,"Year":1980},
{"landUse":"Symphoricarpos oreophilus A. Gray var. utahensis (Rydb.) A. Nelson","ownership":"NextEra Energy, Inc.","laws":"4041590637146","lon":48.9124688,"lat":40.6207889,"Year":1980},
{"landUse":"Lechea intermedia Leggett ex Britton","ownership":"The Cushing MLP Total Return Fund","laws":null,"lon":null,"lat":null,"Year":null},
{"landUse":"Mimosa rupertiana B.L. Turner","ownership":"Destination XL Group, Inc.","laws":"4423492457318285","lon":14.5933217,"lat":29.4390958,"Year":1980},
{"landUse":"Neostapfia colusana (Burtt Davy) Burtt Davy","ownership":"VanEck Vectors Generic Drugs ETF","laws":"4017953972704418","lon":-8.2593984,"lat":49.443994,"Year":1980},
{"landUse":"Didymodon subandreaeoides (Kindb.) R.H. Zander","ownership":"Mondelez International, Inc.","laws":"4041591716485","lon":46.252804,"lat":-14.10472,"Year":1980},
{"landUse":"Rhododendron oblongifolium (Small) Millais","ownership":"Genie Energy Ltd.","laws":"4597038633994802","lon":-27.6662277,"lat":-6.1583904,"Year":1980},
{"landUse":"Claytonia virginica L. var. hammondiae (Kalmbacher) Doyle, W.H. Lewis & Snyder","ownership":"First Cash, Inc.","laws":"4041370596686","lon":-26.1468042,"lat":28.454862,"Year":1979},
{"landUse":"Callistemon pallidus (Bonpl.) DC.","ownership":"Global Partners LP","laws":"4041378902255291","lon":-34.4753246,"lat":24.923028,"Year":1980},
{"landUse":"Chionanthus L.","ownership":"First Trust Mid Cap Growth AlphaDEX Fund","laws":"4916386273133","lon":42.3416847,"lat":-7.8862987,"Year":1981},
{"landUse":"Kyllinga pumila Michx.","ownership":"iShares 20+ Year Treasury Bond ETF","laws":"4751391886136","lon":48.615982,"lat":40.4824514,"Year":1980},
{"landUse":"Epilobium septentrionale (D.D. Keck) R.N. Bowman & Hoch","ownership":"Diana Containerships Inc.","laws":"4041378116073","lon":-22.0028763,"lat":46.9554271,"Year":1980},
{"landUse":"Opuntia polyacantha Haw. var. polyacantha","ownership":"Blackrock Core Bond Trust","laws":"4041370490443","lon":26.89745,"lat":49.3564315,"Year":1980},
{"landUse":"Encalypta vulgaris Hedw.","ownership":"China Yuchai International Limited","laws":"4041371272915","lon":51.883,"lat":11.0537247,"Year":1980},
{"landUse":"Potentilla ovina Macoun ex J.M. Macoun var. decurrens (S. Watson) S.L. Welsh & B.C. Johnst.","ownership":"PowerShares 1-30 Laddered Treasury Portfolio","laws":"4041377339615820","lon":-7.3475648,"lat":24.410255,"Year":1980},
{"landUse":"Digitaria gracillima (Scribn.) Fernald","ownership":"Skyworks Solutions, Inc.","laws":"4762127977032","lon":43.0429124,"lat":56.4768137,"Year":1980},
{"landUse":"Phlox pulchra Wherry","ownership":"SunTrust Banks, Inc.","laws":"4312103191840880","lon":-8.1885372,"lat":52.1379258,"Year":1980},
{"landUse":"Gentiana linearis Froel.","ownership":"Danaos Corporation","laws":"4851288555917","lon":7.9172808,"lat":-7.0636577,"Year":1980},
{"landUse":"Cardamine penduliflora O.E. Schulz","ownership":"Gulfport Energy Corporation","laws":"4017951871613086","lon":-29.0303854,"lat":-8.1553145,"Year":1980},
{"landUse":"Phaius tancarvilleae (Banks ex L'Hér.) Blume","ownership":"Cullen/Frost Bankers, Inc.","laws":"4017954990404","lon":35.0032213,"lat":31.138558,"Year":1980},
{"landUse":"Vaccinium membranaceum Douglas ex Torr.","ownership":"Simpson Manufacturing Company, Inc.","laws":"4041379360068","lon":47.0302849,"lat":43.1342238,"Year":1980},
{"landUse":"Benincasa Savi","ownership":"MSG Networks Inc.","laws":"4041590194356310","lon":9.3278585,"lat":-21.3601809,"Year":1979},
{"landUse":"Hyptis verticillata Jacq.","ownership":"MRV Communications, Inc.","laws":"4041595749050128","lon":48.7730603,"lat":37.033243,"Year":1980},
{"landUse":null,"ownership":"The Carlyle Group L.P.","laws":"4041594441750","lon":-7.3737257,"lat":40.8195312,"Year":1980},
{"landUse":"Trimezia steyermarkii R.C. Foster","ownership":"Banc of California, Inc.","laws":"4041590090270","lon":32.5181019,"lat":52.30002,"Year":1981},
{"landUse":"Lupinus aridus Douglas ssp. ashlandensis Cox","ownership":"Omnicell, Inc.","laws":null,"lon":null,"lat":null,"Year":null},
{"landUse":"Sullivantia hapemanii (J.M. Coult. & Fisher) J.M. Coult. var. purpusii (Brand) Soltis","ownership":"iShares S&P/Citigroup 1-3 Year International Treasury Bond Fun","laws":"4017959930359716","lon":60.8061218,"lat":15.5042253,"Year":1980},
{"landUse":"Boerhavia acutifolia (Choisy) J.W. Moore","ownership":"VOXX International Corporation","laws":"4041377080403","lon":8.0599142,"lat":41.9585475,"Year":1981},
{"landUse":"Astragalus ampullarius S. Watson","ownership":"The Gabelli Healthcare & Wellness Trust","laws":"4821891498730","lon":-6.7765974,"lat":48.2216277,"Year":1981},
{"landUse":"Hydrophyllum capitatum Douglas ex Benth. var. alpinum S. Watson","ownership":"Synthetic Fixed-Income Securities, Inc.","laws":"4041590829198","lon":-19.5722805,"lat":22.2016816,"Year":1980},
{"landUse":"Thymophylla setifolia Lag. var. greggii (A. Gray) Strother","ownership":"MabVax Therapeutics Holdings, Inc.","laws":"4041375049830","lon":34.4945095,"lat":-10.9472468,"Year":1980},
{"landUse":"Trifolium hirtum All.","ownership":"Global Brass and Copper Holdings, Inc.","laws":"4041371605437","lon":59.4487214,"lat":14.5815638,"Year":1979},
{"landUse":"Polyblastia cucurbitula J.W. Thomson & B.M. Murray","ownership":"Ducommun Incorporated","laws":"4041379861625185","lon":24.036405,"lat":6.604594,"Year":1980},
{"landUse":"Persea americana Mill.","ownership":"Boston Private Financial Holdings, Inc.","laws":"4041590070108","lon":1.148102,"lat":50.1919788,"Year":1980},
{"landUse":"Leontodon taraxacoides (Vill.) Mérat ssp. longirostris Finch & Sell","ownership":"Teva Pharmaceutical Industries Limited","laws":"4618361720761","lon":-6.3037726,"lat":44.0752881,"Year":1980},
{"landUse":"Corethrogyne filaginifolia (Hook. & Arn.) Nutt. var. filaginifolia","ownership":"Evercore Partners Inc","laws":"4041376653683810","lon":46.1399991,"lat":19.3803931,"Year":1979},
{"landUse":"Quercus acerifolia (Palmer) Stoynoff & Hess","ownership":"ING Group, N.V.","laws":"4017956776500494","lon":10.0620494,"lat":-7.6272472,"Year":1980},
{"landUse":null,"ownership":"Atento S.A.","laws":"4041373052158","lon":52.5363656,"lat":-24.884645,"Year":1980},
{"landUse":"Juglans L.","ownership":"Rush Enterprises, Inc.","laws":"4017951063536","lon":41.3461777,"lat":44.7154014,"Year":1980},
{"landUse":"Eucalyptus loxophleba Benth.","ownership":"AMTEK, Inc.","laws":"4017955587784024","lon":49.7774163,"lat":14.1507357,"Year":1981},
{"landUse":"Torilis arvensis (Huds.) Link","ownership":"Granite Real Estate Inc.","laws":"4041373979939","lon":43.6522553,"lat":13.369605,"Year":1980},
{"landUse":"Littorella P.J. Bergius","ownership":"Amerco","laws":"4465628714430624","lon":31.263042,"lat":-23.1846822,"Year":1980},
{"landUse":"Arctostaphylos patula Greene","ownership":"Attunity Ltd.","laws":"4041597191766","lon":64.3196092,"lat":30.242572,"Year":1980},
{"landUse":"Dodecatheon clevelandii Greene ssp. clevelandii","ownership":"Span-America Medical Systems, Inc.","laws":"4779653709191","lon":-25.1169056,"lat":26.12715,"Year":1980},
{"landUse":"Sabatia brevifolia Raf.","ownership":"Saul Centers, Inc.","laws":"4041373703373583","lon":53.0831775,"lat":31.298974,"Year":1980},
{"landUse":"Avicennia africana P. Beauv.","ownership":"New Age Beverages Corporation","laws":"4041379390020403","lon":-6.5843262,"lat":25.7784224,"Year":1980},
{"landUse":"Liparis liliifolia (L.) Rich. ex Ker Gawl.","ownership":"Maiden Holdings, Ltd.","laws":"4041379113848","lon":-8.2197304,"lat":37.7985543,"Year":1981},
{"landUse":"Ribes diacanthum Pall.","ownership":"Teleflex Incorporated","laws":"4307912533291","lon":-34.6353335,"lat":62.216473,"Year":1980},
{"landUse":"Crataegus ×whittakeri Sarg.","ownership":"Hostess Brands, Inc.","laws":"4017953822912187","lon":8.9909734,"lat":11.8215864,"Year":1980},
{"landUse":"Porpidia platycarpopides (Bagl.) Hertel","ownership":"Mississippi Power Company","laws":"4041372126249826","lon":12.0675239,"lat":40.7679191,"Year":1979},
{"landUse":"Galium sparsiflorum W. Wight ssp. sparsiflorum","ownership":"The Gabelli Healthcare & Wellness Trust","laws":"4041371072182","lon":53.1406245,"lat":35.275142,"Year":1980},
{"landUse":"Heliotropium glabriusculum (Torr.) A. Gray","ownership":"Babson Global Short Duration High Yield Fund","laws":"4041591729377706","lon":49.65841,"lat":38.5872939,"Year":1980},
{"landUse":"Epilobium lactiflorum Hausskn.","ownership":"Applied Optoelectronics, Inc.","laws":"4017955569967","lon":-34.1998816,"lat":-7.348395,"Year":1979},
{"landUse":"Amorphophallus Blume ex Decne.","ownership":"The Kraft Heinz Company","laws":"4017950485798291","lon":50.8839386,"lat":45.5220648,"Year":1980},
{"landUse":"Cyrtandra ×ambigua (Hillebr.) H. St. John & Storey (pro sp.)","ownership":"News Corporation","laws":"4041370302705","lon":30.728746,"lat":-34.6795558,"Year":1980},
{"landUse":null,"ownership":"New Senior Investment Group Inc.","laws":"4041596049478019","lon":65.4211124,"lat":45.091589,"Year":1980},
{"landUse":"Ostrya knowltonii Sarg.","ownership":"Select Asset Inc.","laws":"4041378420368","lon":41.805699,"lat":49.0730544,"Year":1979},
{"landUse":"Camelina sativa (L.) Crantz ssp. sativa","ownership":"First Trust Strategic High Income Fund II","laws":"4413066939480","lon":35.032891,"lat":30.5211502,"Year":1980},
{"landUse":"Chamaecrista absus (L.) Irwin & Barneby var. absus (L.) Irwin & Barneby [excluded]","ownership":"CenterState Banks, Inc.","laws":"4041370620049","lon":30.475663,"lat":52.3429156,"Year":1981},
{"landUse":"Besseya alpina (A. Gray) Rydb.","ownership":"Dick's Sporting Goods Inc","laws":"4041372228302598","lon":57.4167684,"lat":-21.4803962,"Year":1980},
{"landUse":null,"ownership":"Illinois Tool Works Inc.","laws":"4017951654093969","lon":38.9080786,"lat":13.7696054,"Year":1981},
{"landUse":"Corispermum nitidum Kit. ex Schult. [excluded]","ownership":null,"laws":"4041374397842","lon":37.2418804,"lat":57.5334964,"Year":1981},
{"landUse":"Agrostis humilis Vasey","ownership":"Quarterhill Inc.","laws":"4017952785859930","lon":24.22123,"lat":-7.7736143,"Year":1980},
{"landUse":"Wikstroemia forbesii Skottsb.","ownership":"Panera Bread Company","laws":"4041375977838696","lon":41.5063062,"lat":13.5009779,"Year":1980},
{"landUse":"Cymopterus duchesnensis M.E. Jones","ownership":"AgroFresh Solutions, Inc.","laws":"4017953191103","lon":-21.8898802,"lat":26.6646381,"Year":1979},
{"landUse":"Gossypium hirsutum L. var. hirsutum","ownership":"Natural Alternatives International, Inc.","laws":"4301855801895249","lon":31.2303904,"lat":46.68518,"Year":1980},
{"landUse":"Koerberia A. Massal.","ownership":"Waste Management, Inc.","laws":"4041374698273234","lon":48.9086571,"lat":-19.5097867,"Year":1980},
{"landUse":"Woodsia obtusa (Spreng.) Torr. ssp. obtusa","ownership":"Dupont Fabros Technology, Inc.","laws":null,"lon":null,"lat":null,"Year":null},
{"landUse":"Lessingia nemaclada Greene var. nemaclada","ownership":"Newtek Business Services Corp.","laws":"4537682269542345","lon":39.9459413,"lat":-8.0806,"Year":1981},
{"landUse":"Onopordum illyricum L.","ownership":"Tremor Video, Inc.","laws":"4041597855659","lon":54.658173,"lat":29.182182,"Year":1981},
{"landUse":"Polyblastia theleodes (Sommerf.) Th. Fr.","ownership":"Nomad Foods Limited","laws":"4041592233157006","lon":32.223502,"lat":12.2270347,"Year":1980},
{"landUse":"Chenopodium pallescens Standl.","ownership":"Jamba, Inc.","laws":"4017957866238904","lon":52.3723858,"lat":56.2835999,"Year":1980},
{"landUse":"Clinopodium mimuloides (Benth.) Kuntze","ownership":"Banco Santander, S.A.","laws":"4041373094044","lon":6.7826022,"lat":14.576059,"Year":1980},
{"landUse":"Madia madioides (Nutt.) Greene","ownership":null,"laws":"4041593380822426","lon":-22.4313914,"lat":39.7573054,"Year":1980},
{"landUse":"Ericameria pinifolia (A. Gray) H.M. Hall","ownership":"Sherwin-Williams Company (The)","laws":"4017956876932","lon":30.640814,"lat":30.605585,"Year":1980},
{"landUse":"Daucosma Engelm. & A. Gray ex A. Gray","ownership":"Sucampo Pharmaceuticals, Inc.","laws":"4041590892295","lon":-6.1840029,"lat":54.4168102,"Year":1980},
{"landUse":"Botrychium echo W.H. Wagner","ownership":"Pennsylvania Real Estate Investment Trust","laws":"4017952036420714","lon":27.88157,"lat":38.9908943,"Year":1980},
{"landUse":"Muscari armeniacum Leichtlin ex Baker","ownership":"HSBC Holdings plc","laws":"4041370427320","lon":21.2067429,"lat":13.5215952,"Year":1980},
{"landUse":"Plagiobothrys strictus (Greene) I.M. Johnst.","ownership":"Saratoga Investment Corp","laws":"4041377000187","lon":21.481291,"lat":18.9436472,"Year":1980},
{"landUse":"Arctostaphylos glandulosa Eastw. ssp. glandulosa","ownership":"First Capital, Inc.","laws":"4125471591562678","lon":-12.67442,"lat":4.632147,"Year":1980},
{"landUse":"Iva L.","ownership":"FairPoint Communications, Inc.","laws":"4041373436366748","lon":35.580555,"lat":14.5682829,"Year":1980},
{"landUse":"Kummerowia Schindl.","ownership":"Nuveen Enhanced Municipal Value Fund","laws":"4017951865450","lon":-15.6093293,"lat":49.6271732,"Year":1980},
{"landUse":"Artemisia arbuscula Nutt. ssp. longicaulis Winward & McArthur","ownership":"Stag Industrial, Inc.","laws":"4041598076032735","lon":-19.9672706,"lat":6.0375069,"Year":1980},
{"landUse":"Microgramma C. Presl","ownership":"PowerShares S&P SmallCap Consumer Staples Portfolio","laws":"4041376317437470","lon":-2.4944583,"lat":22.3348365,"Year":1980},
{"landUse":"Pistia L.","ownership":"Pinnacle Entertainment, Inc.","laws":"4041591772587","lon":18.4530602,"lat":31.103759,"Year":1980},
{"landUse":"Diospyros sintenisii (Krug & Urb.) Standl.","ownership":"Urban One, Inc. ","laws":"4017953896525998","lon":-0.3221142,"lat":36.43806,"Year":1981},
{"landUse":"Treculia africana Decne. ex Trec.","ownership":null,"laws":"4041370279911","lon":51.7421319,"lat":35.063892,"Year":1980},
{"landUse":"Solidago simulans Fernald","ownership":"Itau Unibanco Banco Holding SA","laws":"4017959878646","lon":8.3048218,"lat":14.7292113,"Year":1980},
{"landUse":"Triteleia lilacinum Greene","ownership":"Delcath Systems, Inc.","laws":"4041599353802","lon":29.584292,"lat":53.3360274,"Year":1980},
{"landUse":"Panicum laxum Sw.","ownership":"PBF Energy Inc.","laws":"4017957552224598","lon":50.1045321,"lat":-6.1574525,"Year":1980},
{"landUse":"Rinodina oxydata (A. Massal.) A. Massal.","ownership":null,"laws":null,"lon":null,"lat":null,"Year":null},
{"landUse":null,"ownership":"Geron Corporation","laws":"4041598324796","lon":46.4270739,"lat":18.252847,"Year":1980},
{"landUse":"Bryoria pseudofuscescens (Gyel.) Brodo & D. Hawksw.","ownership":"Sinovac Biotech, Ltd.","laws":"4017952908713","lon":48.1440135,"lat":-4.5699815,"Year":1979},
{"landUse":"Pedicularis crenulata Benth.","ownership":"Wintrust Financial Corporation","laws":"4041594710499190","lon":8.93218,"lat":52.2163528,"Year":1981},
{"landUse":"Diplotaxis siifolia Kuntze","ownership":"Star Gas Partners, L.P.","laws":"4041375314697","lon":17.6891622,"lat":6.873999,"Year":1980},
{"landUse":"Pseudogynoxys chenopodioides Kunth","ownership":"PennantPark Investment Corporation","laws":"4041597626688","lon":30.067176,"lat":10.2515803,"Year":1979},
{"landUse":"Potentilla rimicola (Munz & I.M. Johnst.) Ertter","ownership":"O2Micro International Limited","laws":"4375051293431","lon":38.0473429,"lat":48.382005,"Year":1980},
{"landUse":"Lobaria linita (Ach.) Rabenh.","ownership":"Blackrock Global","laws":"4041373556091258","lon":53.2058,"lat":37.417116,"Year":1980},
{"landUse":"Sideroxylon lanuginosum Michx. ssp. lanuginosum","ownership":"Quad Graphics, Inc","laws":"4041373269750489","lon":16.4543173,"lat":54.5489994,"Year":1980},
{"landUse":"Rubus velox L.H. Bailey","ownership":"Summit Financial Group, Inc.","laws":"4041592617310","lon":38.874434,"lat":23.7247599,"Year":1980},
{"landUse":"Camissonia sierrae P.H. Raven ssp. sierrae","ownership":"Yingli Green Energy Holding Company Limited","laws":null,"lon":null,"lat":null,"Year":null},
{"landUse":"Eucephalus engelmannii (D.C. Eaton) Greene","ownership":"Extra Space Storage Inc","laws":"4017954299468471","lon":20.4593254,"lat":16.70056,"Year":1980},
{"landUse":"Silene petersonii Maguire var. minor C.L. Hitchc. & Maguire","ownership":"First Trust Small Cap Value AlphaDEX Fund","laws":"4801264590426131","lon":-20.94333,"lat":-4.8216406,"Year":1979},
{"landUse":"Pseudocyphellaria crocata (L.) Vain.","ownership":"Ally Financial Inc.","laws":"4017959792191173","lon":-8.3004413,"lat":-37.786693,"Year":1980},
{"landUse":"Struchium P. Br.","ownership":"Community Healthcare Trust Incorporated","laws":"4041373156223","lon":-27.2000865,"lat":-8.2464,"Year":1981},
{"landUse":"Carex lenticularis Michx.","ownership":"Equity Lifestyle Properties, Inc.","laws":"4041373792191","lon":43.5648626,"lat":-12.1695811,"Year":1979},
{"landUse":"Thelomma carolinianum (Tuck.) Tibell","ownership":"Wells Fargo & Company","laws":"4041590239844","lon":-31.4325479,"lat":33.4293662,"Year":1980},
{"landUse":"Spiracantha Kunth","ownership":"PB Bancorp, Inc.","laws":"4304140939834338","lon":21.4981346,"lat":14.4713275,"Year":1980},
{"landUse":"Grimmia pilifera P. Beauv.","ownership":"Franklin Resources, Inc.","laws":"4041595332960253","lon":-4.5286385,"lat":54.3924957,"Year":1981},
{"landUse":"Ceanothus gloriosus J.T. Howell","ownership":"Delek Logistics Partners, L.P.","laws":"4041370373649011","lon":30.830898,"lat":1.8786869,"Year":1980},
{"landUse":"Tradescantia leiandra Torr. var. leiandra","ownership":"Micron Technology, Inc.","laws":"4041372046998106","lon":-19.3088778,"lat":28.79937,"Year":1980},
{"landUse":"Hieracium fendleri Sch. Bip. var. discolor A. Gray","ownership":"RiceBran Technologies","laws":"4017952134447809","lon":31.558356,"lat":34.4042859,"Year":1980},
{"landUse":"Orobanche corymbosa (Rydb.) Ferris","ownership":"Westpac Banking Corporation","laws":"4041593694425","lon":6.3884374,"lat":42.6978209,"Year":1980},
{"landUse":"Rhus virens Lindh. ex A. Gray var. choriophylla (Wooton & Standl.) L.D. Benson","ownership":"Western New England Bancorp, Inc.","laws":"4884080116244596","lon":50.6444579,"lat":37.3551423,"Year":1980},
{"landUse":"Amsinckia vernicosa Hook. & Arn. var. vernicosa","ownership":"Terex Corporation","laws":"4613773467542984","lon":44.2561511,"lat":40.3034691,"Year":1980},
{"landUse":"Chrysolepis chrysophylla (Douglas ex Hook.) Hjelmqvist var. minor (Benth.) Munz","ownership":"Stanley Black & Decker, Inc.","laws":null,"lon":null,"lat":null,"Year":null},
{"landUse":"Ranunculus bonariensis Poir.","ownership":"Moelis & Company","laws":"4017959779654334","lon":36.114691,"lat":53.5511779,"Year":1980},
{"landUse":"Antennaria densifolia A.E. Porsild","ownership":"Nicholas Financial, Inc.","laws":null,"lon":null,"lat":null,"Year":null},
{"landUse":"Chaptalia Vent.","ownership":null,"laws":"4041374186314367","lon":34.620202,"lat":-8.8536444,"Year":1979},
{"landUse":"Stephanomeria runcinata Nutt.","ownership":"Cambium Learning Group, Inc.","laws":"4041370249335498","lon":25.6067597,"lat":49.7115204,"Year":1980},
{"landUse":"Solidago speciosa Nutt. var. pallida Porter","ownership":"First Trust CEF Income Opportunity ETF","laws":"4041598442213100","lon":43.2456198,"lat":31.5140575,"Year":1980},
{"landUse":"Castilleja densiflora (Benth.) T.I. Chuang & Heckard ssp. obispoensis (D.D. Keck) T.I. Chuang & Heckard","ownership":"Two River Bancorp","laws":"4017958708595592","lon":45.1257987,"lat":13.751166,"Year":1981},
{"landUse":"Pyrrocoma hirta (A. Gray) Greene var. sonchifolia (Greene) Kartesz & Gandhi","ownership":"ICF International, Inc.","laws":"4041375126422","lon":-11.8480193,"lat":27.578926,"Year":1980},
{"landUse":"Minuartia nuttallii (Pax) Briq. ssp. gracilis (B.L. Rob.) McNeill","ownership":"LightInTheBox Holding Co., Ltd.","laws":"4962894784476859","lon":33.2064,"lat":36.1899557,"Year":1981},
{"landUse":"Rosa ×dulcissima Lunell (pro sp.)","ownership":"Full House Resorts, Inc.","laws":"4041373766900553","lon":54.8098373,"lat":50.3406189,"Year":1981},
{"landUse":"Caragana arborescens Lam.","ownership":"Synthetic Fixed-Income Securities, Inc.","laws":"4017953939709","lon":16.4826614,"lat":18.1084108,"Year":1981},
{"landUse":"Purshia glandulosa Curran","ownership":"Live Oak Bancshares, Inc.","laws":"4017953673059450","lon":48.5582238,"lat":56.8408003,"Year":1980},
{"landUse":"Melaspilea cupularis Müll. Arg.","ownership":"Cincinnati Bell Inc","laws":"4017953767623567","lon":-7.012244,"lat":13.2648001,"Year":1980},
{"landUse":"Horkeliella congdonis (Rydb.) Rydb.","ownership":"Nucor Corporation","laws":"4041373637248","lon":-6.9949,"lat":46.5993244,"Year":1980},
{"landUse":"Pertusaria flavicunda Tuck.","ownership":"Planet Fitness, Inc.","laws":"4073069681036611","lon":54.4823669,"lat":-5.3375891,"Year":1981},
{"landUse":"Chromolaena ivifolia (L.) R.M. King & H. Rob.","ownership":"The Medicines Company","laws":"4041590268337899","lon":54.4626821,"lat":-23.1072154,"Year":1980},
{"landUse":"Panicum bergii Arechav.","ownership":"Nuveen AMT-Free Municipal Credit Income Fund","laws":"4041597681360","lon":14.265684,"lat":40.991594,"Year":1980},
{"landUse":"Mazus miquelii Makino","ownership":"National Fuel Gas Company","laws":"4601607797173","lon":44.5241667,"lat":35.70915,"Year":1980},
{"landUse":"Ipomopsis congesta (Hook.) V.E. Grant ssp. congesta","ownership":"CPFL Energia S.A.","laws":"4041598026317368","lon":56.4306363,"lat":-6.9621,"Year":1980},
{"landUse":"Pyrenula cuyabensis (Malme) R.C. Harris","ownership":"Crestwood Equity Partners LP","laws":"4041591566708","lon":14.1285009,"lat":-7.7726324,"Year":1980},
{"landUse":null,"ownership":"Western Asset Investment Grade Defined Opportunity Trust Inc.","laws":"4017955500277","lon":62.8511538,"lat":-4.1031257,"Year":1980},
{"landUse":"Agalinis tenuifolia (Vahl) Raf. var. parviflora (Nutt.) Pennell","ownership":"Highway Holdings Limited","laws":"4827777310309279","lon":43.555139,"lat":45.8010928,"Year":1980},
{"landUse":"Nama rothrockii A. Gray","ownership":"Albany Molecular Research, Inc.","laws":"4017955296371345","lon":46.2519995,"lat":14.5257818,"Year":1979},
{"landUse":"Acarospora terricola H. Magn.","ownership":"iShares Nasdaq Biotechnology Index Fund","laws":"4017959830472","lon":-34.4765431,"lat":28.607879,"Year":1981},
{"landUse":"Timmia austriaca Hedw.","ownership":"St. Joe Company (The)","laws":"4041590300160358","lon":57.7602946,"lat":41.6183527,"Year":1979},
{"landUse":"Saxifraga caespitosa L. ssp. uniflora (R. Br.) A.E. Porsild","ownership":"Cytokinetics, Incorporated","laws":"4041593905888","lon":48.1392924,"lat":38.6273566,"Year":1980},
{"landUse":"Mancoa Weddell","ownership":"Och-Ziff Capital Management Group LLC","laws":null,"lon":null,"lat":null,"Year":null},
{"landUse":"Lomatium canbyi (J.M. Coult. & Rose) J.M. Coult. & Rose","ownership":"Israel Chemicals Shs","laws":"4041370821995362","lon":25.7784224,"lat":44.594213,"Year":1980},
{"landUse":"Buellia calcariaecola de Lesd.","ownership":"BlackRock Science and Technology Trust","laws":"4041378684641","lon":49.8599769,"lat":19.4614133,"Year":1979},
{"landUse":"Loeskypnum Paul","ownership":"Noble Energy Inc.","laws":null,"lon":null,"lat":null,"Year":null},
{"landUse":"Funastrum hirtellum (A. Gray) Schltr.","ownership":"Lions Gate Entertainment Corporation","laws":"4017950179507","lon":47.3362701,"lat":39.6900895,"Year":1979},
{"landUse":"Smilax auriculata Walter","ownership":"Dorman Products, Inc.","laws":"4041376800541218","lon":23.184013,"lat":34.7955755,"Year":1979},
{"landUse":"Eriogonum nudum Douglas ex Benth. var. indictum (Jeps.) Reveal","ownership":"The Bancorp, Inc.","laws":"4017953182469505","lon":24.4752847,"lat":-7.2527403,"Year":1980},
{"landUse":"Arenaria humifusa Wahlenb.","ownership":"Redwood Trust, Inc.","laws":"4017954873601653","lon":10.3231036,"lat":30.2638032,"Year":1980},
{"landUse":"Coffea canephora Pierre ex Froehner","ownership":"Marchex, Inc.","laws":"4767230790594","lon":-20.5912573,"lat":22.3750231,"Year":1980},
{"landUse":"Syzygium paniculatum Gaertn.","ownership":"II-VI Incorporated","laws":null,"lon":null,"lat":null,"Year":null},
{"landUse":"Lethariicola Grummann","ownership":"Dynagas LNG Partners LP","laws":"4017951774575085","lon":57.7577156,"lat":-7.7913526,"Year":1980},
{"landUse":"Farnoldia micropsis (A. Massal.) Hertel","ownership":"DHX Media Ltd.","laws":"4041371962135","lon":13.6808985,"lat":12.5322527,"Year":1981},
{"landUse":"Chaetopappa asteroides Nutt. ex DC.","ownership":"NRG Energy, Inc.","laws":"4837544281274884","lon":20.044412,"lat":39.9535181,"Year":1980},
{"landUse":"Cenchrus myosuroides Kunth","ownership":"ENSCO plc","laws":"4017955987425","lon":28.372506,"lat":12.7335527,"Year":1980},
{"landUse":"Navarretia paradoxiclara L.A. Johnson & D. Gowen","ownership":"The Kraft Heinz Company","laws":"4041379660228","lon":42.8130176,"lat":-7.5289363,"Year":1980},
{"landUse":"Mycobilimbia lobulata (Sommerf.) Hafellner","ownership":"Drive Shack Inc.","laws":"4041599280476","lon":39.7975767,"lat":13.6535843,"Year":1979},
{"landUse":"Cardamine pachystigma (S. Watson) Rollins","ownership":"American Axle & Manufacturing Holdings, Inc.","laws":"4041590898613933","lon":18.298167,"lat":55.045149,"Year":1980},
{"landUse":"Schizolobium Vogel","ownership":"Pixelworks, Inc.","laws":"4017953954833193","lon":49.090211,"lat":6.4758334,"Year":1980},
{"landUse":"Cladina stellaris (Opiz) Brodo","ownership":"HomeTown Bankshares Corporation","laws":"4287402904253","lon":48.5851876,"lat":11.9913493,"Year":1980},
{"landUse":"Opuntia chihuahuensis Rose","ownership":"Vanguard Short-Term Government ETF","laws":"4041594996141581","lon":-8.6464,"lat":31.236215,"Year":1980},
{"landUse":"Pseudevernia consocians (Vain.) Hale & W.L. Culb.","ownership":"Iridium Communications Inc","laws":"4041375942409888","lon":7.5273576,"lat":17.7409147,"Year":1980},
{"landUse":"Oreostemma alpigenum (Torr. & A. Gray) Greene var. haydenii (Porter) G.L. Nesom","ownership":null,"laws":"4017950009703173","lon":-7.0808057,"lat":5.242598,"Year":1981},
{"landUse":"Margaritaria L. f.","ownership":null,"laws":"4017954401063","lon":44.255137,"lat":11.0657173,"Year":1979},
{"landUse":"Astragalus tetrapterus A. Gray","ownership":"Winmark Corporation","laws":"4017950944157","lon":-1.1748105,"lat":59.5403823,"Year":1980},
{"landUse":"Usnea Dill. ex Adans.","ownership":"Ironwood Pharmaceuticals, Inc.","laws":"4041590548301","lon":-1.2607218,"lat":15.8137804,"Year":1980},
{"landUse":"Symphoricarpos rotundifolius A. Gray","ownership":"First Citizens BancShares, Inc.","laws":"4041590435500999","lon":32.200197,"lat":63.0331454,"Year":1980},
{"landUse":"Melaleuca diosmifolia Andrews","ownership":"Summit Financial Group, Inc.","laws":"4041598476870593","lon":21.2811908,"lat":-1.7618311,"Year":1981},
{"landUse":"Phacelia novenmillensis Munz","ownership":"Okta, Inc.","laws":"4017958201378","lon":-8.321199,"lat":-6.6721504,"Year":1981},
{"landUse":"Solidago flaccidifolia Small","ownership":"Fifth Street Senior Floating Rate Corp.","laws":"4017951419762601","lon":-9.9678,"lat":37.2980237,"Year":1980},
{"landUse":"Diplacus fasciculatus (Pennell) McMinn","ownership":"John Hancock Hedged Equity & Income Fund","laws":null,"lon":null,"lat":null,"Year":null},
{"landUse":"Polygala glandulosa Kunth","ownership":"Hunter Maritime Acquisition Corp.","laws":"4041370247538","lon":30.20003,"lat":57.7045166,"Year":1980},
{"landUse":"Cyperus retrofractus (L.) Torr.","ownership":"Amyris, Inc.","laws":"4017953277688","lon":38.4224562,"lat":39.6932144,"Year":1980},
{"landUse":"Myriophyllum L.","ownership":"WebMD Health Corp","laws":"4041374789634","lon":38.320362,"lat":29.601192,"Year":1980},
{"landUse":"Cathestecum erectum Vasey & Hack.","ownership":"Raytheon Company","laws":"4017955562996","lon":56.674534,"lat":14.7121689,"Year":1980},
{"landUse":"Hypochaeris glabra L.","ownership":"China Recycling Energy Corporation","laws":"4041371773811912","lon":21.31,"lat":54.356424,"Year":1981},
{"landUse":"Astragalus whitneyi A. Gray","ownership":"iShares MSCI New Zealand Capped ETF","laws":"4041596889758","lon":29.812121,"lat":16.7620996,"Year":1980},
{"landUse":"Lupinus ornatus Douglas ex Lindl.","ownership":"CM Finance Inc","laws":"4041596968321","lon":15.9475779,"lat":-7.3878712,"Year":1980},
{"landUse":"Pulicaria dysenterica (L.) Bernh.","ownership":"Calamos Convertible Opportunities and Income Fund","laws":"4017958037285","lon":52.1327312,"lat":12.3958358,"Year":1980},
{"landUse":"Malcolmia maritima (L.) W.T. Aiton","ownership":"Callon Petroleum Company","laws":"4071800424811","lon":29.222417,"lat":-7.690753,"Year":1980},
{"landUse":"Diervilla Mill.","ownership":"Colonial Municipal Income Trust","laws":"4558370205980092","lon":48.3135026,"lat":49.989968,"Year":1980},
{"landUse":null,"ownership":"Asia Pacific Fund, Inc. (The)","laws":null,"lon":null,"lat":null,"Year":null},
{"landUse":"Sasa palmata (hort. ex Burb.) E.G. Camas","ownership":"TrueBlue, Inc.","laws":"4850588744537744","lon":34.7671945,"lat":31.920658,"Year":1980},
{"landUse":"Arthonia phaeobaea (Norman) Norman","ownership":"Fifth Street Senior Floating Rate Corp.","laws":"4041593611072254","lon":45.0177112,"lat":22.555855,"Year":1980},
{"landUse":"Plagiobryum Lindb.","ownership":"Plantronics, Inc.","laws":"4017957618275","lon":48.392,"lat":-7.6418714,"Year":1980},
{"landUse":"Chorizanthe parryi S. Watson var. parryi","ownership":"IBERIABANK Corporation","laws":"4041590694972723","lon":34.75245,"lat":34.5594987,"Year":1980},
{"landUse":"Cerastium nutans Raf. var. obtectum Kearney & Peebles","ownership":"First Financial Bancorp.","laws":"4041373458953894","lon":23.0998443,"lat":37.7794055,"Year":1981},
{"landUse":"Selaginella watsonii Underw.","ownership":"CAI International, Inc.","laws":"4041373486935","lon":51.1357164,"lat":17.1179264,"Year":1981},
{"landUse":"Lomatium congdonii J.M. Coult. & Rose","ownership":"Oasis Petroleum Inc.","laws":null,"lon":null,"lat":null,"Year":null},
{"landUse":"Ajuga pyramidalis L.","ownership":"Ares Dynamic Credit Allocation Fund, Inc.","laws":"4569443773750309","lon":-13.92399,"lat":37.646108,"Year":1981},
{"landUse":"Tragia L.","ownership":"EnPro Industries","laws":"4017955501007460","lon":-9.9061087,"lat":-28.3833642,"Year":1980},
{"landUse":"Cryptantha wigginsii I.M. Johnst.","ownership":"Zillow Group, Inc.","laws":"4505176392649","lon":54.3786241,"lat":28.379727,"Year":1980},
{"landUse":"Crataegus spathulata Michx.","ownership":"Richmont Mines, Inc.","laws":"4703145807967","lon":-8.21304,"lat":57.8196837,"Year":1979},
{"landUse":"Nothocestrum latifolium A. Gray","ownership":"Alliance Holdings GP, L.P.","laws":"4041377294690941","lon":17.2004826,"lat":45.6138162,"Year":1980},
{"landUse":"Delphinium gracilentum Greene","ownership":"CF Corporation","laws":"4017955920003934","lon":48.5597333,"lat":40.0383706,"Year":1980},
{"landUse":"Carex parallela (Laest.) Sommerf.","ownership":null,"laws":"4173109295429","lon":-14.96617,"lat":51.57429,"Year":1980},
{"landUse":"Rinodina cinereovirens (Vain.) Vain.","ownership":"AquaVenture Holdings Limited","laws":"4041599135095069","lon":-6.9890654,"lat":14.6101685,"Year":1980},
{"landUse":"Stenocybe major (Nyl.) Körb.","ownership":null,"laws":"4041595910699448","lon":-10.01236,"lat":-23.047822,"Year":1981},
{"landUse":"Corallorhiza trifida Chatelain","ownership":"First Trust RiverFront Dynamic Europe ETF","laws":"4041591924543151","lon":26.741856,"lat":-3.7688094,"Year":1980},
{"landUse":"Metopium brownei (Jacq.) Urb.","ownership":"Capitol Federal Financial, Inc.","laws":"4041374976287658","lon":-8.83126,"lat":21.0744245,"Year":1978},
{"landUse":"Tibouchina herbacea (DC.) Cogn.","ownership":"Guaranty Bancshares, Inc.","laws":null,"lon":null,"lat":null,"Year":null},
{"landUse":"Ptilimnium costatum (Elliott) Raf.","ownership":"Mota Group, Inc.","laws":"4017952662971","lon":48.3605267,"lat":20.4416309,"Year":1980},
{"landUse":"Listera caurina Piper","ownership":"Royal Bank Scotland plc (The)","laws":"4017958281958","lon":32.5306814,"lat":50.063355,"Year":1980},
{"landUse":"Rhynchospora elliottii A. Dietr.","ownership":"Marrone Bio Innovations, Inc.","laws":"4462049879610","lon":-34.6738798,"lat":33.9930471,"Year":1980},
{"landUse":"Agropyron cristatum (L.) Gaertn. ssp. pectinatum (M. Bieb.) Tzvelev","ownership":"DURECT Corporation","laws":"4041371766688772","lon":-19.6115404,"lat":41.8214682,"Year":1981},
{"landUse":"Fendlera rupicola A. Gray","ownership":null,"laws":"4017958718245121","lon":49.954706,"lat":47.6060781,"Year":1980},
{"landUse":"Pomaria melanosticta S. Schauer","ownership":"Simmons First National Corporation","laws":"4041591625066","lon":-6.4712737,"lat":-33.1416441,"Year":1979},
{"landUse":"Liatris gholsonii L.C. Anderson","ownership":"Taubman Centers, Inc.","laws":null,"lon":null,"lat":null,"Year":null},
{"landUse":"Desmanthus glandulosus (B.L. Turner) Luckow","ownership":"Moog Inc.","laws":"4317737825087","lon":13.760522,"lat":22.825834,"Year":1980},
{"landUse":"Brachythecium albicans (Hedw.) Schimp.","ownership":"Global Partner Acquisition Corp.","laws":"4017952625800383","lon":55.385815,"lat":55.9180886,"Year":1980},
{"landUse":"Cuphea viscosissima Jacq.","ownership":"VictoryShares International Volatility Wtd ETF","laws":"4017955438589242","lon":34.38528,"lat":37.070834,"Year":1979},
{"landUse":"Loeflingia squarrosa Nutt. ssp. squarrosa","ownership":"Therapix Biosciences Ltd.","laws":"4115027574696651","lon":23.701262,"lat":8.853929,"Year":1979},
{"landUse":"Camissonia parryi (S. Watson) P.H. Raven","ownership":"Capitala Finance Corp.","laws":"4041377359062","lon":35.6869752,"lat":40.1721605,"Year":1980},
{"landUse":"Trapeliopsis Hertel & Gotth. Schneid.","ownership":"Republic Bancorp, Inc.","laws":"4041595551680","lon":11.5731051,"lat":-7.355927,"Year":1980},
{"landUse":"Dioscorea hispida Dennst.","ownership":"Manitowoc Company, Inc. (The)","laws":"4041593958545201","lon":58.5469521,"lat":53.2060963,"Year":1980},
{"landUse":"Zingiber mioga (Thunb.) Roscoe","ownership":"CYS Investments, Inc.","laws":"4017950180240","lon":36.179383,"lat":58.4181236,"Year":1980},
{"landUse":"Lobaria quercizans Michx.","ownership":"Nuveen Real Estate Fund","laws":"4041595629266885","lon":40.7,"lat":49.448552,"Year":1980},
{"landUse":"Sphagnum austinii Sull.","ownership":"Assurant, Inc.","laws":"4041591527501408","lon":35.8939566,"lat":13.8524315,"Year":1980},
{"landUse":"Shinnersoseris S. Tomb","ownership":"Bruker Corporation","laws":"4757592362090","lon":-7.4111208,"lat":34.5000218,"Year":1980},
{"landUse":"Berlandiera betonicifolia (Hook.) Small","ownership":"SITO Mobile, Ltd.","laws":"4041593462689800","lon":24.210761,"lat":-7.13386,"Year":1980},
{"landUse":"Micromitrium Austin","ownership":"Las Vegas Sands Corp.","laws":"4041377965280","lon":40.9765733,"lat":6.7468164,"Year":1980},
{"landUse":"Crataegus versuta Beadle","ownership":"National Retail Properties","laws":"4647327216382638","lon":13.2836618,"lat":38.58,"Year":1980},
{"landUse":"Crossosoma bigelovii S. Watson var. bigelovii","ownership":"Mizuho Financial Group, Inc.","laws":"4041375555260545","lon":11.7367016,"lat":8.2853585,"Year":1980},
{"landUse":"Leproloma vouauxii (Hue) J.R. Laundon","ownership":"UNITIL Corporation","laws":"4041593362222322","lon":50.515804,"lat":28.338821,"Year":1980},
{"landUse":"Aristotelia chilensis (Molina) Stuntz","ownership":"Morgan Stanley","laws":"4041595400189785","lon":32.765421,"lat":51.4174812,"Year":1980},
{"landUse":"Carex schottii Dewey","ownership":"Leidos Holdings, Inc.","laws":"4046078208386296","lon":0.6538277,"lat":13.8781715,"Year":1980},
{"landUse":"Leucanthemum Mill.","ownership":"Matrix Service Company","laws":"4122797678966868","lon":36.6755608,"lat":51.8186111,"Year":1980},
{"landUse":"Rudbeckia klamathensis P. Cox & Urbatsch","ownership":"Medley Capital Corporation","laws":"4041592147763","lon":57.7871116,"lat":32.1717952,"Year":1980},
{"landUse":"Bolandra californica A. Gray","ownership":"World Fuel Services Corporation","laws":"4741870808254488","lon":66.3887667,"lat":13.4689232,"Year":1980},
{"landUse":"Tragia urens L.","ownership":"Alcentra Capital Corp.","laws":"4019462178977","lon":38.6663765,"lat":48.4339701,"Year":1980},
{"landUse":"Hypnum Hedw.","ownership":"Qwest Corporation","laws":"4041377589049","lon":14.6602787,"lat":-7.7502929,"Year":1980},
{"landUse":"Lygodesmia arizonica S. Tomb","ownership":"Ramco-Gershenson Properties Trust","laws":"4009477954070622","lon":52.0697452,"lat":51.8796,"Year":1980},
{"landUse":"Valeriana acutiloba Rydb. var. pubicarpa (Rydb.) Cronquist","ownership":"Liberty Media Corporation","laws":"4041370546152","lon":36.2761885,"lat":22.765392,"Year":1980},
{"landUse":"Garcinia dulcis (Roxb.) Kurz","ownership":"New Mountain Finance Corporation","laws":"4017956106652","lon":34.329605,"lat":18.4458276,"Year":1980},
{"landUse":"Ceiba acuminata (S. Watson) Rose","ownership":null,"laws":"4041376724068","lon":53.5659675,"lat":37.479652,"Year":1980},
{"landUse":"Castilleja haydenii (A. Gray) Cockerell","ownership":"Tahoe Resources, Inc.","laws":"4041599160231","lon":14.7040326,"lat":13.4570619,"Year":1981},
{"landUse":"Rhamnus crocea Nutt. ssp. crocea","ownership":null,"laws":"4867229313235342","lon":60.429728,"lat":-6.3623,"Year":1980},
{"landUse":"Colubrina glandulosa Perkins var. antillana (M.C. Johnst.) M.C. Johnst.","ownership":"PowerShares Water Resources Portfolio","laws":"4017951966126","lon":-22.8340652,"lat":36.2048468,"Year":1981},
{"landUse":"Lecanactis dubia G. Merr.","ownership":"Western Asset/Claymore U.S Treasury Inflation Prot Secs Fd 2","laws":"4041375214839531","lon":43.7764262,"lat":45.9865292,"Year":1980},
{"landUse":"Justicia turneri Hilsenb.","ownership":"LyondellBasell Industries NV","laws":"4628585276417","lon":-27.946449,"lat":51.7783026,"Year":1979},
{"landUse":"Quercus gravesii Sudw.","ownership":"Glu Mobile Inc.","laws":"4017952489157615","lon":40.2221306,"lat":46.09237,"Year":1980},
{"landUse":"Calamagrostis stricta (Timm) Koeler","ownership":"Pebblebrook Hotel Trust","laws":"4017959638347","lon":53.0831775,"lat":-9.8012675,"Year":1980},
{"landUse":"Leitneria floridana Chapm.","ownership":"Bellicum Pharmaceuticals, Inc.","laws":"4831592054575587","lon":45.288656,"lat":44.2006496,"Year":1980},
{"landUse":"Phacelia mollis J.F. Macbr.","ownership":"Criteo S.A.","laws":"4528312862002","lon":10.2581682,"lat":53.3004898,"Year":1980},
{"landUse":"Oxytropis lagopus Nutt. var. conjugans Barneby","ownership":"Phoenix New Media Limited","laws":"4180564869176","lon":30.128901,"lat":47.0179158,"Year":1980},
{"landUse":"Cyathea cooperi (Hook. ex F. Muell.) Domin","ownership":"Quantenna Communications, Inc.","laws":"4017956760026514","lon":40.7084699,"lat":38.6015735,"Year":1980},
{"landUse":"Poa supina Schrad.","ownership":"USLIFE Income Fund, Inc.","laws":"4041377168469034","lon":-11.0073376,"lat":-7.7285206,"Year":1980},
{"landUse":"Sarracenia ×naczii Mellich.","ownership":"Zillow Group, Inc.","laws":"4017958748311","lon":23.534915,"lat":40.9428723,"Year":1980},
{"landUse":"Erigeron radicatus Hook.","ownership":"Pro-Dex, Inc.","laws":"4898012877182289","lon":7.7630152,"lat":56.0127743,"Year":1980},
{"landUse":"Heterotheca rutteri (Rothr.) Shinners","ownership":"Constellation Brands Inc","laws":"4041599690724","lon":28.153607,"lat":-6.7098551,"Year":1981},
{"landUse":"Polygala crotalarioides Buch.-Ham. ex DC.","ownership":"Nuveen High Income November 2021 Target Term Fund","laws":"4828547798420230","lon":14.874441,"lat":41.2080707,"Year":1980},
{"landUse":"Vicia sativa L. ssp. amphicarpa (L.) Batt.","ownership":"OCI Partners LP","laws":"4041593065634","lon":42.2827426,"lat":46.5067026,"Year":1981},
{"landUse":"Acisanthera P. Br.","ownership":"Advaxis, Inc.","laws":"4041378067544687","lon":21.3872385,"lat":49.6246813,"Year":1979},
{"landUse":"Navarretia hamata Greene","ownership":"American Water Works","laws":"4017950216244383","lon":12.7523556,"lat":27.6985161,"Year":1980},
{"landUse":"Aesculus ×arnoldiana Sarg. [excluded]","ownership":"MiMedx Group, Inc","laws":"4017956352981803","lon":45.33697,"lat":39.5061499,"Year":1980},
{"landUse":"Cuscuta pentagona Engelm.","ownership":"Sirius XM Holdings Inc.","laws":null,"lon":null,"lat":null,"Year":null},
{"landUse":"Oleandra Cav.","ownership":"GigaMedia Limited","laws":"4041594215055","lon":49.6207834,"lat":-7.0062,"Year":1980},
{"landUse":"Allium canadense L. var. canadense","ownership":"Aemetis, Inc","laws":"4041592553911","lon":31.204525,"lat":38.4208043,"Year":1980},
{"landUse":null,"ownership":"Rudolph Technologies, Inc.","laws":"4041378399430","lon":63.0706703,"lat":10.8370155,"Year":1980},
{"landUse":"Carex ×neofilipendula Lepage","ownership":"Repros Therapeutics Inc.","laws":"4017956681774945","lon":27.352673,"lat":45.446434,"Year":1980},
{"landUse":"Rhynchosia senna Gillies ex Hook. var. texana (Torr. & A. Gray) M.C. Johnst.","ownership":"PennTex Midstream Partners, LP","laws":"4041374272645450","lon":-8.2104974,"lat":40.1852285,"Year":1979},
{"landUse":"Malvastrum aurantiacum (Scheele) Walp.","ownership":"Vanguard Russell 1000 ETF","laws":"4831685983615","lon":52.7060809,"lat":59.3319489,"Year":1981},
{"landUse":"Descurainia pinnata (Walter) Britton ssp. brachycarpa (Richardson) Detling","ownership":"Pain Therapeutics, Inc.","laws":"4017959811589","lon":9.4423308,"lat":48.5239429,"Year":1980},
{"landUse":"Caloplaca tetraspora (Nyl.) H. Olivier","ownership":"Brocade Communications Systems, Inc.","laws":"4017951435387326","lon":63.8223321,"lat":-17.8832695,"Year":1980},
{"landUse":"Phormium J.R. Forst. & G. Forst.","ownership":"AllianzGI Convertible & Income Fund","laws":"4041375902979946","lon":-18.1880676,"lat":44.0328,"Year":1980},
{"landUse":"Hypotrachyna oostingii (J.P. Dey) Hale","ownership":"Fuling Global Inc.","laws":"4323568486115460","lon":-6.1671806,"lat":26.648393,"Year":1980},
{"landUse":"Echinocereus viridiflorus Engelm. var. weedinii (Leuck ex W. Blum & Mich. Lange) A.D. Zimmerman","ownership":"Axar Acquisition Corp.","laws":"4225848651898","lon":41.393981,"lat":2.7239834,"Year":1980},
{"landUse":"Borrichia ×cubana Britton & S.F. Blake (pro sp.)","ownership":"Pacific Special Acquisition Corp.","laws":"4017953045846","lon":52.958682,"lat":54.1347287,"Year":1979},
{"landUse":"Eriogonum kelloggii A. Gray","ownership":"Tsakos Energy Navigation Ltd","laws":"4935459610419","lon":22.9410456,"lat":48.7192002,"Year":1980},
{"landUse":null,"ownership":"Altimmune, Inc.","laws":"4041376160115","lon":-6.6772938,"lat":39.2380562,"Year":1980},
{"landUse":"Navarretia prolifera Greene ssp. lutea (Brand) H. Mason","ownership":"Bio-Rad Laboratories, Inc.","laws":"4041374332466798","lon":3.2093353,"lat":10.8239425,"Year":1979},
{"landUse":"Byrsonima Rich. ex Kunth","ownership":"Gazit-Globe Ltd.","laws":"4041376793169761","lon":44.0766295,"lat":23.1343601,"Year":1980},
{"landUse":"Mentzelia lindheimeri Urb. & Gilg","ownership":"EnteroMedics Inc.","laws":"4041371189218","lon":52.842561,"lat":5.9840985,"Year":1980},
{"landUse":"Gypsophila arrostii Guss.","ownership":"Amyris, Inc.","laws":"4270390282973","lon":22.7100789,"lat":35.1804745,"Year":1980},
{"landUse":"Ferocactus hamatacanthus (Muehlenpf.) Britton & Rose var. hamatacanthus","ownership":"Legg Mason Emerging Markets Diversified Core ETF","laws":"4041590427027","lon":19.3803931,"lat":41.5106099,"Year":1980},
{"landUse":"Xyris laxifolia Mart.","ownership":"Nuveen NASDAQ 100 Dynamic Overwrite Fund","laws":"4041379758505706","lon":27.829795,"lat":-24.1973637,"Year":1981},
{"landUse":"Oenothera texensis P.H. Raven & Parnell","ownership":"E*TRADE Financial Corporation","laws":"4929379957323551","lon":6.3182464,"lat":14.5665378,"Year":1981},
{"landUse":"Porina rhaphidosperma Müll. Arg.","ownership":"Ooma, Inc.","laws":"4015153061273068","lon":36.62587,"lat":-1.3524989,"Year":1980},
{"landUse":"Crotalaria alata Buch.-Ham. ex D. Don","ownership":"Precision Drilling Corporation","laws":"4017950506485","lon":-7.6965,"lat":49.0920346,"Year":1980},
{"landUse":"Geranium yeoi Aedo & Muñoz Garm.","ownership":"ARMOUR Residential REIT, Inc.","laws":"4041378415575151","lon":35.74716,"lat":-6.9895044,"Year":1979},
{"landUse":"Astragalus miser Douglas ex Hook. var. serotinus (A. Gray ex Cooper) Barneby","ownership":"GrubHub Inc.","laws":"4041374274579","lon":14.5338735,"lat":-18.2852179,"Year":1979},
{"landUse":null,"ownership":"Donnelley Financial Solutions, Inc.","laws":"4942918112417","lon":45.4352011,"lat":-4.6772418,"Year":1979},
{"landUse":"Quercus arkansana Sarg.","ownership":"Costamare Inc.","laws":"4041594182601638","lon":-7.2475,"lat":-37.9625979,"Year":1980},
{"landUse":"Bryum reedii H. Rob.","ownership":"Ross Stores, Inc.","laws":"4041379275001","lon":27.283955,"lat":52.1867388,"Year":1980},
{"landUse":"Silphium compositum Michx. var. venosum (Small) Kartesz & Gandhi","ownership":"China New Borun Corporation","laws":null,"lon":null,"lat":null,"Year":null},
{"landUse":"Physostegia angustifolia Fernald","ownership":"Kinsale Capital Group, Inc.","laws":"4700223336562","lon":57.778556,"lat":21.8727408,"Year":1980},
{"landUse":"Monanthochloe littoralis Engelm.","ownership":null,"laws":"4743773670736772","lon":50.5658445,"lat":22.816884,"Year":1980},
{"landUse":"Erigeron pumilus Nutt.","ownership":"PIMCO Municipal Income Fund","laws":"4017958137903","lon":54.0521127,"lat":50.2837307,"Year":1980},
{"landUse":"Physaria condensata Rollins","ownership":"Cameco Corporation","laws":"4017951643234674","lon":26.308284,"lat":52.222333,"Year":1980},
{"landUse":"Caesalpinia major (Medik.) Dandy & Exell","ownership":null,"laws":null,"lon":null,"lat":null,"Year":null},
{"landUse":"Eustachys paspaloides (Vahl) Lanza & Mattei","ownership":"Itau Unibanco Banco Holding SA","laws":"4041597093343364","lon":-7.5831538,"lat":5.225936,"Year":1980},
{"landUse":"Verbena ×blanchardii Moldenke","ownership":"John Wiley & Sons, Inc.","laws":"4041597113710774","lon":57.779138,"lat":52.8818616,"Year":1980},
{"landUse":"Thalictrum coriaceum (Britton) Small","ownership":"Ocean Bio-Chem, Inc.","laws":null,"lon":null,"lat":null,"Year":null},
{"landUse":"Fontinalis neomexicana Sull. & Lesq.","ownership":"Arrowhead Pharmaceuticals, Inc.","laws":"4879668040366","lon":44.0527811,"lat":25.8749206,"Year":1980},
{"landUse":"Grimmia teretinervis Limpr.","ownership":"Ultra Petroleum Corp.","laws":null,"lon":null,"lat":null,"Year":null},
{"landUse":"Astragalus purshii Douglas ex Hook. var. concinnus Barneby","ownership":"Adecoagro S.A.","laws":"4017953127542929","lon":28.73733,"lat":4.6690872,"Year":1980},
{"landUse":"Nolina brittoniana Nash","ownership":"First Trust TCW Opportunistic Fixed Income ETF","laws":null,"lon":null,"lat":null,"Year":null},
{"landUse":"Woodwardia virginica (L.) Sm.","ownership":"Entergy Mississippi, Inc.","laws":"4813154850434","lon":53.4751957,"lat":14.5560877,"Year":1981},
{"landUse":"Pseudoleskea radicosa (Mitt.) Macoun & Kindb. var. denudata (Kindb.) Wijk & Margad.","ownership":"Brunswick Corporation","laws":"4041375555851","lon":42.2342735,"lat":45.21678,"Year":1980},
{"landUse":"Acaena pinnatifida Ruiz & Pav.","ownership":"PowerShares DWA Technology Momenum Portfolio","laws":"4958586887939413","lon":55.3315791,"lat":17.2375,"Year":1980},
{"landUse":"Dyschoriste Nees","ownership":"Rexnord Corporation","laws":"4017957809783","lon":43.5958543,"lat":49.735524,"Year":1980},
{"landUse":"Oenothera pallida Lindl. ssp. runcinata (Engelm.) Munz & W. Klein","ownership":"Vanguard Russell 2000 Value ETF","laws":"4041375176542875","lon":-8.0934,"lat":58.1186443,"Year":1981},
{"landUse":"Bebbia juncea (Benth.) Greene var. juncea (Benth.) Greene [excluded]","ownership":"Chegg, Inc.","laws":"4041595011429687","lon":25.5527232,"lat":32.433378,"Year":1980},
{"landUse":"Draba stenoloba Ledeb. var. stenoloba","ownership":"HMS Holdings Corp","laws":"4041370681504","lon":46.004267,"lat":30.978349,"Year":1980},
{"landUse":"Korthalsella v. Tiegh.","ownership":"BorgWarner Inc.","laws":"4017953151498154","lon":21.2506392,"lat":47.5206407,"Year":1979},
{"landUse":"Harpagophytum procumbens (Burch.) DC. ex Meisn.","ownership":"PartnerRe Ltd.","laws":"4662238833209","lon":9.1669471,"lat":-8.906419,"Year":1980},
{"landUse":"Imshaugia S.L.F. Mey.","ownership":"Ameren Corporation","laws":"4041374217727","lon":18.8121479,"lat":-6.9404876,"Year":1979},
{"landUse":"Heliotropium torreyi I.M. Johnst.","ownership":"Heat Biologics, Inc.","laws":"4017952556470","lon":33.6909232,"lat":13.7171256,"Year":1980},
{"landUse":"Rinodina vegasii de Lesd.","ownership":"Oxford Immunotec Global PLC","laws":null,"lon":null,"lat":null,"Year":null},
{"landUse":"Cardamine bellidifolia L. var. bellidifolia","ownership":"Rennova Health, Inc.","laws":"4041593301198518","lon":26.497765,"lat":37.9022064,"Year":1980},
{"landUse":"Euphorbia floridana Chapm.","ownership":"RPM International Inc.","laws":"4879233787951414","lon":-26.4820262,"lat":33.8101772,"Year":1980},
{"landUse":"Triglochin gaspensis Lieth & D. Löve","ownership":"SB Financial Group, Inc.","laws":"4041594572459506","lon":47.9039934,"lat":31.893274,"Year":1980},
{"landUse":"Lysimachia ovoidea H. St. John","ownership":"Capital One Financial Corporation","laws":"4017954578265358","lon":25.052896,"lat":30.54251,"Year":1980},
{"landUse":"Castilleja applegatei Fernald ssp. disticha (Eastw.) T.I. Chuang & Heckard","ownership":"CoreCivic, Inc.","laws":"4041592399695","lon":50.9417027,"lat":40.0580479,"Year":1980},
{"landUse":"Agoseris elata (Nutt.) Greene","ownership":"NI Holdings, Inc.","laws":"4041590943254931","lon":-21.1041295,"lat":61.0962323,"Year":1980},
{"landUse":"Elaeocarpus carolinensis Koids.","ownership":"Encore Wire Corporation","laws":"4017957118776347","lon":52.6886817,"lat":-6.9918507,"Year":1980},
{"landUse":"Pectis longipes A. Gray","ownership":"SINOPEC Shangai Petrochemical Company, Ltd.","laws":"4041375656220","lon":24.189754,"lat":48.890054,"Year":1981},
{"landUse":"Carpenteria californica Torr.","ownership":"OGE Energy Corporation","laws":"4041591433172","lon":47.880287,"lat":40.401045,"Year":1980},
{"landUse":"Platanthera purpurascens (Rydb.) Sheviak & Jennings","ownership":"Umpqua Holdings Corporation","laws":"4333342875168177","lon":3.706995,"lat":46.280212,"Year":1980},
{"landUse":"Filipendula ulmaria (L.) Maxim.","ownership":"Comstock Resources, Inc.","laws":"4041371608000707","lon":39.4825368,"lat":33.8597337,"Year":1980},
{"landUse":"Ruta L.","ownership":"First Trust Indxx Global Natural Resources Income ETF","laws":"4017957707978312","lon":23.528764,"lat":25.556716,"Year":1979},
{"landUse":"Lorentziella Müll. Hal.","ownership":"United States Cellular Corporation","laws":"4041372474959315","lon":43.7441795,"lat":31.643918,"Year":1980},
{"landUse":"Angelica archangelica L.","ownership":"Aegion Corp","laws":"4046886965108764","lon":6.7866898,"lat":50.6227967,"Year":1980},
{"landUse":"Phaeographis tortuosa (Ach.) Müll. Arg.","ownership":null,"laws":"4017959335831962","lon":23.10848,"lat":50.689974,"Year":1980},
{"landUse":"Lecanora farinaria Borrer","ownership":"Sonic Automotive, Inc.","laws":null,"lon":null,"lat":null,"Year":null},
{"landUse":"Columbiadoria G.L. Nesom","ownership":"Westbury Bancorp, Inc.","laws":"4091254189603","lon":-3.4944313,"lat":41.8136349,"Year":1980},
{"landUse":"Arctostaphylos stanfordiana Parry ssp. decumbens (P.V. Wells) P.V. Wells","ownership":"RadNet, Inc.","laws":"4041598998151670","lon":34.89305,"lat":40.980653,"Year":1979},
{"landUse":"Echinothecium Zopf","ownership":"SunTrust Banks, Inc.","laws":"4665217218457636","lon":15.1585322,"lat":-8.0693036,"Year":1979},
{"landUse":"Nelumbo Adans.","ownership":"Horizon Technology Finance Corporation","laws":"4041375075140","lon":43.1555152,"lat":55.7387411,"Year":1980},
{"landUse":"Gossypianthus Hook.","ownership":"J P Morgan Chase & Co","laws":"4874899310415","lon":-25.4809333,"lat":11.0990419,"Year":1981},
{"landUse":"Lupinus sericeus Pursh ssp. sericeus var. sericeus","ownership":"Entercom Communications Corporation","laws":"4952288812116","lon":43.0641899,"lat":23.219932,"Year":1980},
{"landUse":"Phacelia lyonii (A. Gray) Rydb.","ownership":"National Energy Services Reunited Corp.","laws":"4041370737123174","lon":52.0391192,"lat":36.15,"Year":1979},
{"landUse":"Calathea crotalifera S. Watson","ownership":"Black Knight Financial Services, Inc.","laws":"4041373054279","lon":15.0447225,"lat":13.7208503,"Year":1980},
{"landUse":"Zizania palustris L.","ownership":"Wayside Technology Group, Inc.","laws":"4017950478909","lon":12.13333,"lat":23.1656982,"Year":1979},
{"landUse":"Encalypta vittiana Horton","ownership":"Pacific Continental Corporation (Ore)","laws":null,"lon":null,"lat":null,"Year":null},
{"landUse":"Brickellia lemmonii A. Gray","ownership":"Teva Pharmaceutical Industries Limited","laws":"4041592685669698","lon":39.8032712,"lat":-31.399061,"Year":1979},
{"landUse":"Clitoria fairchildiana Howard","ownership":"Anheuser-Busch Inbev SA","laws":"4017958923163390","lon":42.3690023,"lat":39.8037641,"Year":1980},
{"landUse":"Sedum moranense Kunth","ownership":"Campbell Soup Company","laws":"4041372484144973","lon":-39.6241126,"lat":40.7,"Year":1981},
{"landUse":"Erigeron cuneifolius DC.","ownership":"Chunghwa Telecom Co., Ltd.","laws":"4536106123758989","lon":49.8634627,"lat":33.288467,"Year":1981},
{"landUse":"Echinocereus papillosus Linke ex Rümpler","ownership":"Paycom Software, Inc.","laws":"4041592656950614","lon":31.920658,"lat":22.915094,"Year":1980},
{"landUse":"Trifolium jokerstii M. Vincent & R. Morgan","ownership":"Navios Maritime Acquisition Corporation","laws":"4041375836970","lon":8.1087597,"lat":29.893672,"Year":1980},
{"landUse":"Polygonum patulum M. Bieb.","ownership":"Digi International Inc.","laws":"4017956963553298","lon":-8.8795811,"lat":11.7874103,"Year":1980},
{"landUse":"Tradescantia roseolens Small","ownership":"Tiffany & Co.","laws":"4850281890479","lon":36.645169,"lat":49.8861287,"Year":1979},
{"landUse":"Hura crepitans L.","ownership":"Blackrock Health Sciences Trust","laws":"4017952207074","lon":42.697778,"lat":59.1983958,"Year":1980},
{"landUse":"Calamovilfa longifolia (Hook.) Scribn. var. magna Scribn. & Merr.","ownership":"Histogenics Corporation","laws":"4041373952258","lon":55.9840531,"lat":49.116169,"Year":1980},
{"landUse":"Calamovilfa longifolia (Hook.) Scribn. var. magna Scribn. & Merr.","ownership":"HCI Group, Inc.","laws":"4041596303312185","lon":7.3410628,"lat":-7.2299572,"Year":1981},
{"landUse":"Festuca elmeri Scribn. & Merr.","ownership":"Two Harbors Investments Corp","laws":"4205620472838","lon":11.40567,"lat":34.569474,"Year":1980},
{"landUse":"Paspalum conjugatum P.J. Bergius","ownership":"Welltower Inc.","laws":"4041379778583592","lon":40.2328952,"lat":-6.8546074,"Year":1980},
{"landUse":null,"ownership":"Jupai Holdings Limited","laws":"4041591164207","lon":-7.7629501,"lat":36.3688889,"Year":1981},
{"landUse":"Trachycystis flagellaris (Sull. & Lesq.) Lindb.","ownership":"Anthera Pharmaceuticals, Inc.","laws":"4041370528262843","lon":52.4198041,"lat":59.7414102,"Year":1979},
{"landUse":"Parkinsonia texana (A. Gray) S. Watson","ownership":"Centrais Electricas Brasileiras S.A.- Eletrobras","laws":"4517297904368","lon":29.795049,"lat":-6.6664588,"Year":1980},
{"landUse":"Poa fendleriana (Steud.) Vasey ssp. fendleriana","ownership":"QuickLogic Corporation","laws":null,"lon":null,"lat":null,"Year":null},
{"landUse":"Mentha L.","ownership":"Prudential Public Limited Company","laws":"4530478086285","lon":-23.8139412,"lat":28.220406,"Year":1979},
{"landUse":"Astragalus humistratus A. Gray var. hosackiae (Greene) M.E. Jones","ownership":"PowerShares Water Resources Portfolio","laws":"4017954554648","lon":30.124428,"lat":43.4018427,"Year":1980},
{"landUse":"Lesquerella fendleri (A. Gray) S. Watson","ownership":"Bank of Hawaii Corporation","laws":"4041591051362","lon":12.192604,"lat":47.0171563,"Year":1981},
{"landUse":"Panicum fauriei Hitchc.","ownership":"Garrison Capital Inc.","laws":null,"lon":null,"lat":null,"Year":null},
{"landUse":"Calycoseris wrightii A. Gray","ownership":"SandRidge Energy, Inc.","laws":"4041372704247","lon":13.8195176,"lat":14.6511524,"Year":1980},
{"landUse":"Enneapogon gracilis (R. Br.) P. Beauv.","ownership":"XG Technology, Inc","laws":"4041592470991","lon":-25.979821,"lat":11.9210864,"Year":1980},
{"landUse":"Vaccinium fuscatum Aiton","ownership":"ENDRA Life Sciences Inc.","laws":"4996351879056","lon":-24.7237668,"lat":-21.8421051,"Year":1980},
{"landUse":"Plagiobothrys humistratus (Greene) I.M. Johnst.","ownership":"Blueknight Energy Partners L.P., L.L.C.","laws":"4184980588055","lon":43.994424,"lat":38.97513,"Year":1979},
{"landUse":null,"ownership":"Mid-America Apartment Communities, Inc.","laws":"4041594668830586","lon":32.868426,"lat":39.0638705,"Year":1980},
{"landUse":"Amblyolepis DC.","ownership":"Brookfield Infrastructure Partners LP","laws":"4041372675541318","lon":52.5387,"lat":50.3100516,"Year":1980},
{"landUse":"Phalaris angusta Nees ex Trin.","ownership":"EZCORP, Inc.","laws":"4017959932682","lon":24.288578,"lat":45.6585294,"Year":1980},
{"landUse":"Oxalis albicans Kunth","ownership":"Coeur Mining, Inc.","laws":"4017955350036008","lon":49.1656853,"lat":0.5948949,"Year":1980},
{"landUse":"Ericameria discoidea (Nutt.) G.L. Nesom var. discoidea","ownership":"Blackbaud, Inc.","laws":null,"lon":null,"lat":null,"Year":null},
{"landUse":"Cyrtomium caryotideum (Wall. ex Hook. & Grev.) C. Presl","ownership":"RLJ Entertainment, Inc.","laws":"4041375806714217","lon":30.2102306,"lat":-7.5849174,"Year":1980},
{"landUse":"Ribes californicum Hook. & Arn. var. californicum","ownership":null,"laws":"4041592107189","lon":32.1733,"lat":15.04538,"Year":1980},
{"landUse":null,"ownership":"Targa Resources, Inc.","laws":"4041371293770","lon":-23.4543148,"lat":-3.3728836,"Year":1980},
{"landUse":"Astragalus racemosus Pursh var. racemosus","ownership":"Helmerich & Payne, Inc.","laws":"4017956523641","lon":51.888151,"lat":-25.3461531,"Year":1980},
{"landUse":"Senecio integerrimus Nutt. var. major (A. Gray) Cronquist","ownership":"WhiteHorse Finance, Inc.","laws":"4091356702737634","lon":30.070933,"lat":51.6891738,"Year":1981},
{"landUse":"Botrychium paradoxum W.H. Wagner","ownership":"Wright Medical Group N.V.","laws":"4017958227331685","lon":49.8687831,"lat":-1.2549934,"Year":1980},
{"landUse":"Phoebanthus grandiflorus (Torr. & A. Gray) S.F. Blake","ownership":"Sony Corp Ord","laws":"4041375638954","lon":12.6836578,"lat":33.9972134,"Year":1980},
{"landUse":"Lobelia dunnii Greene","ownership":"Gabelli Dividend","laws":"4625627649999","lon":-33.8117747,"lat":27.1668637,"Year":1981},
{"landUse":"Gentianella wislizeni (Engelm.) J.M. Gillett","ownership":"Dr Pepper Snapple Group, Inc","laws":"4041599172838496","lon":0.3407154,"lat":26.015959,"Year":1980},
{"landUse":"Viola chamissoniana Gingins ssp. tracheliifolia (Gingins) W.L. Wagner, D.R. Herbst & Sohmer","ownership":"AECOM","laws":"4017957434830158","lon":42.6930655,"lat":47.4936583,"Year":1980},
{"landUse":"Perideridia erythrorhiza (Piper) T.I. Chuang & Constance","ownership":"Papa Murphy's Holdings, Inc.","laws":"4017955565470240","lon":-10.7903678,"lat":14.3839328,"Year":1979},
{"landUse":"Gaillardia parryi Greene","ownership":"ICICI Bank Limited","laws":"4182031429543306","lon":43.656554,"lat":54.2825201,"Year":1979},
{"landUse":"Eriogonum siskiyouense Small","ownership":"Cumulus Media Inc.","laws":"4433124318742274","lon":-26.9165792,"lat":5.1677581,"Year":1979},
{"landUse":"Liatris ×orzellii G.L Nesom","ownership":"Ciena Corporation","laws":"4041377162360494","lon":14.1507357,"lat":-34.5926613,"Year":1980},
{"landUse":"Delphinium californicum Torr. & A. Gray","ownership":"The AES Corporation","laws":"4041378554620","lon":-2.7529366,"lat":41.5826404,"Year":1980},
{"landUse":"Astragalus cremnophylax Barneby var. hevronii Barneby","ownership":"Blackrock New York Municipal Bond Trust","laws":"4041597774512","lon":9.96752,"lat":28.9141178,"Year":1980},
{"landUse":"Chrysothamnus eremobius L.C. Anderson","ownership":"Vanda Pharmaceuticals Inc.","laws":"4041376059204112","lon":41.3281534,"lat":0.9718896,"Year":1980},
{"landUse":"Nama L.","ownership":"Teck Resources Ltd","laws":"4041595075136","lon":12.2328311,"lat":-9.6447416,"Year":1980},
{"landUse":"Tamarindus indica L.","ownership":"Carriage Services, Inc.","laws":"4156782285034119","lon":60.0456385,"lat":40.1726307,"Year":1980},
{"landUse":"Townsendia condensata Parry ex A. Gray var. condensata","ownership":"Ichor Holdings","laws":"4017956952584","lon":31.038781,"lat":-7.7403739,"Year":1980},
{"landUse":null,"ownership":"BlackRock New York Investment Quality Municipal Trust Inc. (Th","laws":"4017959923913","lon":-21.3407385,"lat":33.4316535,"Year":1980},
{"landUse":"Polygonum convolvulus L.","ownership":"Western Asset Bond Fund","laws":"4041373043009","lon":49.8970603,"lat":38.651124,"Year":1980},
{"landUse":"Fraxinus anomala Torr. ex S. Watson","ownership":"Popular, Inc.","laws":"4017953513603","lon":38.895126,"lat":44.9280296,"Year":1980},
{"landUse":"Paederia L.","ownership":"Transglobe Energy Corp","laws":"4017956475519829","lon":52.4639426,"lat":20.8965838,"Year":1980},
{"landUse":"Plantago pusilla Nutt.","ownership":"China Commercial Credit, Inc.","laws":"4017953949989","lon":-22.2090755,"lat":14.593975,"Year":1980},
{"landUse":"Erigeron leiomerus A. Gray","ownership":"DelMar Pharmaceuticals, Inc.","laws":"4041373328517","lon":-6.797767,"lat":42.0132548,"Year":1980},
{"landUse":"Caloplaca celata Th. Fr.","ownership":"Alphatec Holdings, Inc.","laws":"4041372234682","lon":-27.4893816,"lat":41.3351832,"Year":1980},
{"landUse":"Quercus ×inconstans Palmer","ownership":"Sky Solar Holdings, Ltd.","laws":"4041590095758606","lon":10.4179921,"lat":24.588267,"Year":1980},
{"landUse":"Gymnopogon foliosus (Willd.) Nees","ownership":"Myers Industries, Inc.","laws":"4017952285591","lon":-7.8478439,"lat":-27.4893816,"Year":1980},
{"landUse":"Penstemon pinorum L.M. Shultz & J.S. Shultz","ownership":"Transcontinental Realty Investors, Inc.","laws":"4308292424129306","lon":0.0265717,"lat":55.78327,"Year":1980},
{"landUse":"Clermontia kakeana Meyen","ownership":"PriceSmart, Inc.","laws":"4017957381548688","lon":27.378875,"lat":-1.2468663,"Year":1981},
{"landUse":"Dodecatheon meadia L. ssp. meadia","ownership":"Ardmore Shipping Corporation","laws":"4041376128246144","lon":34.746611,"lat":-5.9345929,"Year":1980},
{"landUse":"Phacelia alba Rydb.","ownership":"Otelco Inc.","laws":"4041374023372479","lon":14.4050979,"lat":40.9314367,"Year":1979},
{"landUse":"Dactylis glomerata L. ssp. glomerata","ownership":"Capitol Federal Financial, Inc.","laws":null,"lon":null,"lat":null,"Year":null},
{"landUse":"Staurothele arctica Lynge","ownership":"First Trust Mid Cap Core AlphaDEX Fund","laws":"4041370490370228","lon":30.2771132,"lat":34.527114,"Year":1980},
{"landUse":null,"ownership":"Xenetic Biosciences, Inc.","laws":"4041377288559086","lon":-6.5397069,"lat":46.0382687,"Year":1979},
{"landUse":"Phyllostegia glabra (Gaudich.) Benth.","ownership":"BlueStar TA-BIGITech Israel Technology ETF","laws":"4017958328734","lon":50.3836071,"lat":48.9582445,"Year":1980},
{"landUse":"Solenospora holophaea (Mont.) G. Sampaio","ownership":"Amarin Corporation plc","laws":"4313830559774280","lon":45.0775463,"lat":45.945945,"Year":1980},
{"landUse":"Calamagrostis pickeringii A. Gray","ownership":"Resonant Inc.","laws":"4041379079365954","lon":19.6808413,"lat":41.393981,"Year":1980},
{"landUse":"Crataegus membranacea Sarg.","ownership":"WisdomTree Japan Hedged SmallCap Equity Fund","laws":"4041371887191","lon":49.3448284,"lat":13.91581,"Year":1980},
{"landUse":"Crataegus exilis Beadle","ownership":"Hudbay Minerals Inc.","laws":"4115418472777125","lon":15.5805384,"lat":42.8911415,"Year":1981},
{"landUse":"Eriogonum exilifolium Reveal","ownership":"Chemours Company (The)","laws":"4041597955194","lon":-8.7261,"lat":24.8197427,"Year":1980},
{"landUse":"Erigeron foliosus Nutt. var. confinis (Howell) Jeps.","ownership":"Amphenol Corporation","laws":"4017953520511042","lon":51.2034374,"lat":45.3168,"Year":1980},
{"landUse":"Dalea lumholtzii B.L. Rob. & Fernald","ownership":"First Trust Nasdaq Food & Beverage ETF","laws":"4041598900697265","lon":55.6152783,"lat":30.1762897,"Year":1981},
{"landUse":"Polygonum sachalinense F. Schmidt ex Maxim.","ownership":"ZAIS Group Holdings, Inc.","laws":"4236487369546640","lon":22.558237,"lat":38.400112,"Year":1981},
{"landUse":"Clermontia grandiflora Gaudich. ssp. grandiflora","ownership":"REX American Resources Corporation","laws":null,"lon":null,"lat":null,"Year":null},
{"landUse":"Peperomia megalopoda Trel.","ownership":"Titan Machinery Inc.","laws":"4041592814438","lon":-8.1450324,"lat":14.23306,"Year":1980},
{"landUse":"Lupinus latifolius Lindl. ex J. Agardh ssp. leucanthus (Rydb.) Kenney & D. Dunn","ownership":"Nuveen Tax-Advantaged Total Return Strategy Fund","laws":"4017957334595943","lon":-0.2389045,"lat":-20.3596647,"Year":1980},
{"landUse":"Xanthosoma sagittifolium (L.) Schott","ownership":"SemiLEDS Corporation","laws":"4783445815365","lon":43.9078337,"lat":50.7643672,"Year":1979},
{"landUse":"Hedyotis coriacea Sm.","ownership":"INTL FCStone Inc.","laws":null,"lon":null,"lat":null,"Year":null},
{"landUse":"Arthrocnemum Moq.","ownership":"NewJersey Resources Corporation","laws":"4922997675716","lon":42.4304196,"lat":-20.2562227,"Year":1981},
{"landUse":"Alsinidendron lychnoides (Hillebr.) Sherff","ownership":"ING Group, N.V.","laws":"4017953379088001","lon":-3.446207,"lat":40.5895257,"Year":1981},
{"landUse":"Physaria alpestris Suksd.","ownership":"Special Opportunities Fund Inc.","laws":"4041371242662854","lon":52.382748,"lat":14.2025174,"Year":1980},
{"landUse":"Descurainia incana (Bernh. ex Fisch. & C.A. Mey.) Dorn ssp. incisa (Engelm. ex A. Gray) Kartesz & Gandhi","ownership":"Allegiant Travel Company","laws":"4017954500211","lon":8.164085,"lat":9.97788,"Year":1980},
{"landUse":"Delphinium hansenii (Greene) Greene","ownership":"Oracle Corporation","laws":"4041594587213088","lon":-28.9510773,"lat":23.269131,"Year":1979},
{"landUse":"Alsinidendron viscosum (H. Mann) Sherff","ownership":"Horace Mann Educators Corporation","laws":"4292400948799","lon":19.2030655,"lat":6.7810505,"Year":1980},
{"landUse":"Themeda Forssk.","ownership":"CPB Inc.","laws":null,"lon":null,"lat":null,"Year":null},
{"landUse":"Prunus alleghaniensis Porter var. davisii (W. Wight) Sarg.","ownership":"Nuveen Insured New York Select Tax-Free Income Portfolio","laws":"4041373685392056","lon":12.7430244,"lat":-29.7127463,"Year":1981},
{"landUse":null,"ownership":"Pacific Special Acquisition Corp.","laws":"4041591760735259","lon":32.095838,"lat":19.7633057,"Year":1981},
{"landUse":"Sphaeralcea leptophylla (A. Gray) Rydb.","ownership":"EnteroMedics Inc.","laws":"4017953572591","lon":55.024145,"lat":39.986293,"Year":1980},
{"landUse":"Sagittaria secundifolia Kral","ownership":"Evoke Pharma, Inc.","laws":"4041370550038368","lon":19.1765583,"lat":-9.6099,"Year":1980},
{"landUse":null,"ownership":null,"laws":"4601327794197568","lon":-8.0433348,"lat":40.1654278,"Year":1980},
{"landUse":"Xanthosoma helleborifolium (Jacq.) Schott","ownership":"Heico Corporation","laws":"4017953776705","lon":28.002198,"lat":26.7647964,"Year":1980},
{"landUse":"Arthrostylidium farctum (Aubl.) Soderstr. & Lourteig.","ownership":"Oxford Industries, Inc.","laws":"4726103630873286","lon":-10.5182,"lat":46.5222421,"Year":1980},
{"landUse":"Setaria tenacissima Schrad.","ownership":"Marlin Business Services Corp.","laws":"4041590216457914","lon":-3.6964444,"lat":40.6661376,"Year":1980},
{"landUse":"Zephyranthes simpsonii Chapm.","ownership":"Westrock Company","laws":"4041378975977862","lon":-7.0370275,"lat":-24.700428,"Year":1980},
{"landUse":"Vitex negundo L. var. intermedia (P'ei) Moldenke","ownership":"First Trust Dynamic Europe Equity Income Fund","laws":"4041371247895210","lon":38.2537363,"lat":24.77848,"Year":1979},
{"landUse":"Lomatium caruifolium (Hook. & Arn.) J.M. Coult. & Rose var. caruifolium","ownership":null,"laws":"4017958672719822","lon":58.3776252,"lat":-37.9973752,"Year":1979},
{"landUse":"Silene ×hampeana Meusel & K. Werner","ownership":"Criteo S.A.","laws":"4336525903005","lon":14.6099284,"lat":39.886547,"Year":1979},
{"landUse":"Danthonia compressa Austin","ownership":"Marrone Bio Innovations, Inc.","laws":"4017957167847585","lon":12.5840501,"lat":36.494701,"Year":1980},
{"landUse":"Veronica fruticans Jacq.","ownership":"Royce Micro-Cap Trust, Inc.","laws":"4041375257201","lon":50.23154,"lat":23.573074,"Year":1980},
{"landUse":"Physaria reediana O'Kane & Al-Shehbaz","ownership":null,"laws":"4017956764237","lon":-6.6421188,"lat":40.8318278,"Year":1980},
{"landUse":"Bernardia obovata I.M. Johnst.","ownership":"JA Solar Holdings, Co., Ltd.","laws":"4041591343033","lon":47.4031036,"lat":10.9089364,"Year":1980},
{"landUse":"Jatropha gossypiifolia L. var. elegans (Pohl) Müll. Arg.","ownership":"Davis Select Worldwide ETF","laws":"4588786680322944","lon":40.2673498,"lat":-6.1418556,"Year":1980},
{"landUse":"Spergularia rubra (L.) J. Presl & C. Presl","ownership":"ConnectOne Bancorp, Inc.","laws":"4017954250312","lon":40.794611,"lat":14.6425547,"Year":1980},
{"landUse":"Trifolium alpinum L.","ownership":"Wins Finance Holdings Inc.","laws":"4017951721828","lon":6.7518524,"lat":57.3709349,"Year":1980},
{"landUse":"Peganum L.","ownership":"Black Hills Corporation","laws":"4041591714006476","lon":32.2945837,"lat":45.3934915,"Year":1981},
{"landUse":"Platyschkuhria integrifolia (A. Gray) Rydb.","ownership":"Western Union Company (The)","laws":"4041374564734426","lon":10.8051872,"lat":18.5118006,"Year":1979},
{"landUse":"Lomatium latilobum (Rydb.) Mathias","ownership":"USA Compression Partners, LP","laws":"4017953045784454","lon":38.452173,"lat":42.059759,"Year":1979},
{"landUse":"Nephrolepis Schott","ownership":"Engility Holdings, Inc.","laws":"4017952273498","lon":7.70104,"lat":-10.9884148,"Year":1980},
{"landUse":"Allium scorodoprasum L. ssp. rotundum (L.) Stearn","ownership":"Grupo Aeroportuario del Sureste, S.A. de C.V.","laws":"4716423635327753","lon":32.7481978,"lat":13.4291,"Year":1980},
{"landUse":"Tamarix chinensis Lour.","ownership":"Territorial Bancorp Inc.","laws":"4588257129122","lon":-19.0764128,"lat":59.905383,"Year":1980},
{"landUse":"Scabiosa caucasica M. Bieb.","ownership":"eBay Inc.","laws":"4675337246362","lon":58.8110301,"lat":21.244721,"Year":1980},
{"landUse":"Chelidonium majus L.","ownership":"Ducommun Incorporated","laws":"4041377643804","lon":10.018056,"lat":29.913085,"Year":1980},
{"landUse":"Astragalus argophyllus Nutt. var. panguicensis (M.E. Jones) M.E. Jones","ownership":"American Public Education, Inc.","laws":"4041594302887","lon":39.8,"lat":13.0958903,"Year":1980},
{"landUse":"Chamaesyce lata (Engelm.) Small","ownership":"Silicon Motion Technology Corporation","laws":null,"lon":null,"lat":null,"Year":null},
{"landUse":"Lespedeza bicolor Turcz.","ownership":"Obalon Therapeutics, Inc.","laws":"4041372154740","lon":24.9372186,"lat":43.3155137,"Year":1979},
{"landUse":"Scutellaria thieretii Shinners","ownership":"Colony NorthStar, Inc.","laws":"4463440738470","lon":43.3153592,"lat":-25.0662897,"Year":1981},
{"landUse":"Themeda villosa (Poir.) A. Camus","ownership":"NeoGenomics, Inc.","laws":"4041377870786832","lon":30.536514,"lat":-12.3108043,"Year":1980},
{"landUse":"Viburnum farreri Stearn","ownership":"Luxottica Group, S.p.A.","laws":"4041594491102","lon":11.862577,"lat":28.0990178,"Year":1980},
{"landUse":"Rhynchosia Lour.","ownership":null,"laws":"4041372786400","lon":-7.0631844,"lat":8.9112352,"Year":1980},
{"landUse":"Warnstorfia pseudostraminea (Müll. Hal.) Tuom. & T. Kop.","ownership":"Altisource Residential Corporation","laws":null,"lon":null,"lat":null,"Year":null},
{"landUse":"Arabis laevigata (Muhl. ex Willd.) Poir.","ownership":"First Trust BICK Index Fund","laws":"4017956941421","lon":14.7292113,"lat":47.9795218,"Year":1980},
{"landUse":"Honckenya peploides (L.) Ehrh.","ownership":null,"laws":"4041596332544","lon":-8.1448805,"lat":44.0127932,"Year":1980},
{"landUse":"Achnatherum stillmanii (Bol.) Barkworth","ownership":"Gaming Partners International Corporation","laws":"4041596977496","lon":49.8626967,"lat":-8.328435,"Year":1980},
{"landUse":"Thymophylla aurea (A. Gray) Greene ex Britton","ownership":"Vicor Corporation","laws":"4041598502896","lon":-8.6306506,"lat":53.3004898,"Year":1979},
{"landUse":"Phlox carolina L. ssp. alta Wherry","ownership":"GenVec, Inc.","laws":"4409487655671","lon":-7.24562,"lat":-31.6577222,"Year":1980},
{"landUse":"Erigeron corymbosus Nutt.","ownership":"Alarm.com Holdings, Inc.","laws":"4041378440440","lon":34.995728,"lat":44.1372925,"Year":1980},
{"landUse":"Phlomis fruticosa L.","ownership":"Halyard Health, Inc.","laws":"4041376040635978","lon":56.7525624,"lat":51.6396221,"Year":1980},
{"landUse":"Hypericum chapmanii P. Adams","ownership":"Atlanticus Holdings Corporation","laws":"4057173333473","lon":40.2928735,"lat":35.709077,"Year":1980},
{"landUse":"Senecio serra Hook.","ownership":null,"laws":"4041374530535345","lon":50.7819156,"lat":27.338257,"Year":1980},
{"landUse":null,"ownership":"ANI Pharmaceuticals, Inc.","laws":"4041596070052","lon":28.818645,"lat":-3.7600304,"Year":1980},
{"landUse":"Bromidium Nees & Meyen","ownership":"Nuveen Real Estate Fund","laws":"4041595952722","lon":37.8513562,"lat":39.952319,"Year":1980},
{"landUse":null,"ownership":"Quanta Services, Inc.","laws":"4017954254819","lon":51.6711341,"lat":46.7260141,"Year":1981},
{"landUse":"Calocedrus decurrens (Torr.) Florin","ownership":"Apartment Investment and Management Company","laws":"4017953269213511","lon":-5.0898252,"lat":39.68,"Year":1980},
{"landUse":"Bertholletia excelsa Humb. & Bonpl.","ownership":"Applied Industrial Technologies, Inc.","laws":null,"lon":null,"lat":null,"Year":null},
{"landUse":"Flourensia cernua DC.","ownership":"iShares MSCI Brazil Small-Cap ETF","laws":"4041379973928","lon":43.5162166,"lat":25.423994,"Year":1980},
{"landUse":"Thelenella hassei (Zahlbr.) H. Mayrh.","ownership":"Bunge Limited","laws":"4017958288776786","lon":13.3475852,"lat":48.8132669,"Year":1980},
{"landUse":"Diervilla Mill.","ownership":null,"laws":"4148553415156184","lon":32.8279425,"lat":61.0210967,"Year":1980},
{"landUse":null,"ownership":"Thermon Group Holdings, Inc.","laws":null,"lon":null,"lat":null,"Year":null},
{"landUse":"Synthyris pinnatifida S. Watson var. canescens (Pennell) Cronquist","ownership":"Nasdaq, Inc.","laws":"4017950203414460","lon":57.719258,"lat":46.2559467,"Year":1979},
{"landUse":"Quercus gambelii Nutt. var. bonina S.L. Welsh","ownership":"Origo Acquisition Corporation","laws":"4017950686592","lon":43.7616313,"lat":26.042443,"Year":1981},
{"landUse":"Usnea pensylvanica Mot.","ownership":"Netshoes (Cayman) Limited","laws":"4410609547861","lon":38.63,"lat":19.7605927,"Year":1980},
{"landUse":"Helianthemum rosmarinifolium Pursh","ownership":"Innophos Holdings, Inc.","laws":"4041593290380","lon":50.322121,"lat":14.5665378,"Year":1980},
{"landUse":"Yucca elata (Engelm.) Engelm.","ownership":"General American Investors, Inc.","laws":"4017954958505795","lon":39.944315,"lat":35.1982076,"Year":1981},
{"landUse":"Lobelia feayana A. Gray","ownership":"Spirit Realty Capital, Inc.","laws":"4041377392783036","lon":28.460473,"lat":32.8744365,"Year":1980},
{"landUse":"Polemonium pulcherrimum Hook. ssp. pulcherrimum","ownership":"Comerica Incorporated","laws":"4041592726222291","lon":14.83302,"lat":50.5339443,"Year":1981},
{"landUse":"Sphagnum austinii Sull.","ownership":"Amphastar Pharmaceuticals, Inc.","laws":"4041599379088","lon":26.89745,"lat":38.7004586,"Year":1980},
{"landUse":"Clermontia samuelii Forbes","ownership":"Sun Communities, Inc.","laws":"4041599073541","lon":40.3705555,"lat":2.2763077,"Year":1981},
{"landUse":"Vaccinium boreale I.V. Hall & Aalders","ownership":"Fluidigm Corporation","laws":null,"lon":null,"lat":null,"Year":null},
{"landUse":"Sphagnum platyphyllum (Lindb. ex Braithw.) Sull. ex Warnst.","ownership":"Kinder Morgan, Inc.","laws":"4017951442144","lon":19.3803931,"lat":37.6883607,"Year":1980},
{"landUse":"Grimmia ovalis (Hedw.) Lindb.","ownership":"First Trust MLP and Energy Income Fund","laws":"4215700009818079","lon":32.965655,"lat":13.4767279,"Year":1980},
{"landUse":"Stephanomeria lactucina A. Gray","ownership":"Liberty TripAdvisor Holdings, Inc.","laws":"4017954123311","lon":-7.2457269,"lat":43.4945737,"Year":1980},
{"landUse":"Brickellia hinckleyi Standl. var. terlinguensis (Flyr) B.L. Turner","ownership":"BOK Financial Corporation","laws":"4041375103942","lon":32.478018,"lat":34.2423088,"Year":1980},
{"landUse":"Lupinus albifrons Benth. var. eminens (Greene) C.P. Sm.","ownership":"Citigroup Inc.","laws":"4627185628192902","lon":-33.9842244,"lat":25.849502,"Year":1981},
{"landUse":"Grindelia revoluta Steyerm.","ownership":"Quad Graphics, Inc","laws":"4041370767405343","lon":57.6900919,"lat":49.7503184,"Year":1980},
{"landUse":"Cheilanthes clevelandii D.C. Eaton","ownership":"Edwards Lifesciences Corporation","laws":"4289833450264401","lon":13.6343413,"lat":30.77175,"Year":1979},
{"landUse":"Lagenaria Ser.","ownership":null,"laws":"4017959415803","lon":-15.5319205,"lat":49.0161213,"Year":1980},
{"landUse":"Potamogeton ×mysticus Morong (pro sp.)","ownership":"Qiagen N.V.","laws":"4814487453193","lon":22.654032,"lat":41.107107,"Year":1979},
{"landUse":"Atriplex glabriuscula Edmondston var. glabriuscula","ownership":"Washington Federal, Inc.","laws":"4041598298354","lon":-21.120123,"lat":47.7765978,"Year":1979},
{"landUse":"Trichosanthes dioica Roxb.","ownership":"Sanchez Energy Corporation","laws":"4017958724510","lon":-0.819175,"lat":46.1503563,"Year":1980},
{"landUse":"Ambrosia bidentata Michx.","ownership":"AirMedia Group Inc","laws":"4041373478908","lon":43.0641899,"lat":0.7821696,"Year":1980},
{"landUse":"Phacelia patuliflora (Engelm. & A. Gray) A. Gray var. patuliflora","ownership":"Invesco High Income Trust II","laws":"4041595518422805","lon":36.675439,"lat":45.9380817,"Year":1980},
{"landUse":"Rhexia alifanus Walter","ownership":"Arlington Asset Investment Corp","laws":"4017956843244209","lon":43.7633364,"lat":7.47717,"Year":1981},
{"landUse":"Potentilla glandulosa Lindl. ssp. glandulosa","ownership":"PIMCO Income Strategy Fund II","laws":null,"lon":null,"lat":null,"Year":null},
{"landUse":"Sorbaria (Ser. ex DC.) A. Braun","ownership":"Bear State Financial, Inc.","laws":"4041595547239493","lon":52.7989429,"lat":50.7193517,"Year":1980},
{"landUse":"Arnoglossum reniforme (Hook.) H. Rob.","ownership":"Formula Systems (1985) Ltd.","laws":"4041370324873","lon":43.4945737,"lat":-22.4186285,"Year":1979},
{"landUse":"Astragalus recurvus Greene","ownership":"Qiagen N.V.","laws":"4041595992355","lon":46.9691061,"lat":-8.0230452,"Year":1980},
{"landUse":"Ericameria palmeri (A. Gray) H.M. Hall var. pachylepis (H.M. Hall) G.L. Nesom","ownership":"Cedar Realty Trust, Inc.","laws":"4041595243155","lon":41.2499754,"lat":-8.463483,"Year":1979},
{"landUse":"Porophyllum ruderale (Jacq.) Cass.","ownership":"Axovant Sciences Ltd.","laws":"4041374327252","lon":50.05998,"lat":-3.6092043,"Year":1980},
{"landUse":"Ludwigia peploides (Kunth) P.H. Raven","ownership":"Agrium Inc.","laws":"4041590435160","lon":-9.483333,"lat":23.343496,"Year":1980},
{"landUse":"Galearis Raf.","ownership":null,"laws":"4041370206999435","lon":14.6181466,"lat":43.8231125,"Year":1980},
{"landUse":"Potentilla hippiana Lehm.","ownership":"Hoegh LNG Partners LP","laws":"4041378929939","lon":32.679852,"lat":-6.892162,"Year":1981},
{"landUse":"Artemisia biennis Willd. var. diffusa Dorn","ownership":"PFSweb, Inc.","laws":"4041378111256445","lon":24.410255,"lat":42.6002262,"Year":1981},
{"landUse":"Arenaria congesta Nutt. var. simulans Maguire","ownership":"Ferrellgas Partners, L.P.","laws":"4224654216834297","lon":30.862289,"lat":38.7649768,"Year":1981},
{"landUse":"Baptisia ×fulva Larisey","ownership":"ClearBridge All Cap Growth ETF","laws":"4041592198446840","lon":14.4931058,"lat":39.367146,"Year":1979},
{"landUse":"Sphagnum pylaesii Brid.","ownership":"UCP, Inc.","laws":"4041591861294941","lon":24.70521,"lat":41.4744811,"Year":1979},
{"landUse":"Silene uralensis (Rupr.) Bocquet ssp. ogilviensis (A.E. Porsild) Brunton","ownership":"Pimco Municipal Income Fund II","laws":"4017954009040016","lon":49.3457516,"lat":30.015509,"Year":1979},
{"landUse":"Salix ×princeps-ourayi L. Kelso","ownership":"Southern National Bancorp of Virginia, Inc.","laws":"4017951681977150","lon":-7.5816489,"lat":39.7075592,"Year":1980},
{"landUse":"Astragalus kentrophyta A. Gray var. neomexicanus (Barneby) Barneby","ownership":"Interactive Brokers Group, Inc.","laws":"4017951001696613","lon":30.20003,"lat":-10.4322235,"Year":1980},
{"landUse":"Symphoricarpos ×chenaultii Rehder","ownership":"Entergy Louisiana, Inc.","laws":"4208759426359678","lon":32.993182,"lat":40.3219266,"Year":1980},
{"landUse":"Phlox richardsonii Hook.","ownership":"Top Image Systems, Ltd.","laws":"4294327657576660","lon":15.8352583,"lat":57.7498282,"Year":1980},
{"landUse":"Caesalpinia monensis Britton","ownership":"Cooper-Standard Holdings Inc.","laws":"4041378980320","lon":-5.1804211,"lat":13.8135951,"Year":1980},
{"landUse":"Achnatherum swallenii (C.L. Hitchc. & Spellenb.) Barkworth","ownership":null,"laws":"4041595252255","lon":12.8603014,"lat":16.0001974,"Year":1979},
{"landUse":"Polemonium reptans L. var. villosum E.L. Braun","ownership":"Morgan Stanley Emerging Markets Fund, Inc.","laws":"4041375433689121","lon":-20.8933441,"lat":14.8974128,"Year":1980},
{"landUse":"Platanthera dilatata (Pursh) Lindl. ex Beck var. leucostachys (Lindl.) Luer","ownership":"Kemet Corporation","laws":"4041371228370","lon":32.305011,"lat":29.00431,"Year":1981},
{"landUse":"Smilax bona-nox L.","ownership":null,"laws":"4041593153320574","lon":45.8442734,"lat":32.0169411,"Year":1980},
{"landUse":"Arabis suffrutescens S. Watson","ownership":"VCA Inc. ","laws":"4038597313234","lon":39.0865525,"lat":41.150307,"Year":1980},
{"landUse":"Euphorbia esula L. var. esula","ownership":"AG Mortgage Investment Trust, Inc.","laws":null,"lon":null,"lat":null,"Year":null},
{"landUse":"Solidago latissimifolia Mill.","ownership":"Minerva Neurosciences, Inc","laws":"4041597396944","lon":7.4143831,"lat":34.6911,"Year":1979},
{"landUse":"Quercus parvula Greene var. parvula","ownership":"Asure Software Inc","laws":"4818496497786","lon":56.968436,"lat":-7.5739492,"Year":1980},
{"landUse":"Aspicilia novae-semliae (Zahlbr.) Oksner","ownership":"Titan International, Inc.","laws":"4041599283801","lon":55.868922,"lat":38.925875,"Year":1979},
{"landUse":"Lupinus prunophilus M.E. Jones","ownership":"AZZ Inc.","laws":"4156031096936793","lon":29.591108,"lat":51.6203554,"Year":1979},
{"landUse":"Arthothelium gregarium (Willey) Zahlbr.","ownership":"Nuveen New York AMT-Free Quality Municipal","laws":"4041593589369","lon":50.6594689,"lat":42.901533,"Year":1980},
{"landUse":"Teramnus P. Br.","ownership":"Ruth's Hospitality Group, Inc.","laws":"4041376017885","lon":-19.2580383,"lat":6.343847,"Year":1979},
{"landUse":"Nidema Britton & Millsp.","ownership":"CSI Compressco LP","laws":null,"lon":null,"lat":null,"Year":null},
{"landUse":null,"ownership":"Savara, Inc.","laws":"4999016889019965","lon":42.8212455,"lat":-1.9735657,"Year":1980},
{"landUse":"Homalothecium nuttallii (Wilson) A. Jaeger","ownership":"GasLog LP.","laws":"4413371371038413","lon":30.7446878,"lat":24.094765,"Year":1981},
{"landUse":"Hypericum exile P. Adams","ownership":"Caesars Entertainment Corporation","laws":"4041590136099","lon":51.1644956,"lat":26.8429645,"Year":1979},
{"landUse":"Selaginella mutica D.C. Eaton ex Underw. var. mutica","ownership":"Kennedy-Wilson Holdings Inc.","laws":"4041594045718","lon":14.2512158,"lat":31.89609,"Year":1980},
{"landUse":"Empetrum nigrum L. ssp. nigrum","ownership":"NCI Building Systems, Inc.","laws":"4041594527527308","lon":-41.1254857,"lat":3.139199,"Year":1980},
{"landUse":"Nesaea longipes A. Gray","ownership":"ContraVir Pharmaceuticals Inc","laws":null,"lon":null,"lat":null,"Year":null},
{"landUse":"Erigeron heliographis G.L. Nesom","ownership":"Crescent Point Energy Corporation","laws":"4017957538606","lon":13.6910654,"lat":53.016924,"Year":1981},
{"landUse":"Dactylospora urceolata (Th. Fr.) Arnold","ownership":"Fortress Transportation and Infrastructure Investors LLC","laws":null,"lon":null,"lat":null,"Year":null},
{"landUse":"Lotus nuttallianus Greene","ownership":null,"laws":"4041377868112","lon":8.2459842,"lat":-34.6126133,"Year":1981},
{"landUse":"Veronica anagallis-aquatica L.","ownership":"Cohen & Steers Global Income Builder, Inc.","laws":"4041590933013503","lon":55.527934,"lat":32.809026,"Year":1980},
{"landUse":"Tripterocalyx (Torr.) Hook.","ownership":"Luxottica Group, S.p.A.","laws":"4017952494587566","lon":57.4167684,"lat":-9.916667,"Year":1980},
{"landUse":"Cordia parvifolia A. DC.","ownership":"PowerShares DWA Consumer Cyclicals Momentum Portfolio","laws":null,"lon":null,"lat":null,"Year":null},
{"landUse":"Brickellia floribunda A. Gray","ownership":"NextEra Energy, Inc.","laws":"4017957120792852","lon":-33.8603461,"lat":-14.226324,"Year":1979},
{"landUse":"Xerophyllum tenax (Pursh) Nutt.","ownership":"Walker & Dunlop, Inc.","laws":"4041374276899822","lon":51.6269724,"lat":49.9636769,"Year":1980},
{"landUse":"Sida hermaphrodita (L.) Rusby","ownership":"Newtek Business Services Corp.","laws":"4017955499116612","lon":38.895126,"lat":22.9290295,"Year":1980},
{"landUse":"Anemone quinquefolia L.","ownership":"Dreyfus High Yield Strategies Fund","laws":"4041372501714519","lon":63.6939838,"lat":48.0486753,"Year":1980},
{"landUse":"Wyethia helianthoides Nutt.","ownership":"Cypress Energy Partners, L.P.","laws":null,"lon":null,"lat":null,"Year":null},
{"landUse":"Serissa foetida (L. f.) Lam.","ownership":"Electronics for Imaging, Inc.","laws":"4041597037209","lon":34.339552,"lat":15.2679414,"Year":1980},
{"landUse":"Baileya multiradiata Harv. & A. Gray ex A. Gray","ownership":"Spark Energy, Inc.","laws":"4041596809600984","lon":-0.3208374,"lat":51.8925044,"Year":1980},
{"landUse":"Tephrosia candida DC.","ownership":"Evercore Partners Inc","laws":"4041375470902395","lon":-7.0747722,"lat":15.1650908,"Year":1979},
{"landUse":"Palaquium gutta (Hook. f.) Baill.","ownership":"Sysco Corporation","laws":"4017957405954","lon":4.5475154,"lat":50.3150962,"Year":1981},
{"landUse":"Psychotria hexandra H. Mann ssp. hexandra","ownership":"Brookfield Real Assets Income Fund Inc.","laws":"4041372688309661","lon":34.0874479,"lat":38.088041,"Year":1980},
{"landUse":"Epidendrum nocturnum Jacq.","ownership":"Legacy Reserves LP","laws":"4041597837606639","lon":14.1281138,"lat":52.2572052,"Year":1981},
{"landUse":"Carex rupestris All. var. rupestris","ownership":null,"laws":"4070452410573","lon":50.562666,"lat":-6.2649072,"Year":1980},
{"landUse":"Eleocharis schaffneri Boeckeler","ownership":"Immune Design Corp.","laws":"4041372850339","lon":24.27397,"lat":60.0142824,"Year":1980},
{"landUse":"Habenaria repens Nutt.","ownership":"Rambus, Inc.","laws":"4017954861412303","lon":53.3687505,"lat":21.9327554,"Year":1980},
{"landUse":"Geum ×aurantiacum Fr.","ownership":"Bel Fuse Inc.","laws":"4041370823707534","lon":35.024634,"lat":10.829771,"Year":1980},
{"landUse":"Houstonia parviflora Holz. ex Greenm.","ownership":"Textron Inc.","laws":"4041595057597","lon":34.2211097,"lat":-6.9520475,"Year":1980},
{"landUse":"Polymeridium contendens (Nyl.) R.C. Harris","ownership":"Manulife Financial Corp","laws":"4041371182938710","lon":5.0549877,"lat":5.7643446,"Year":1980},
{"landUse":"Ericameria watsonii (A. Gray) G.L. Nesom","ownership":"Columbia Seligman Premium Technology Growth Fund, Inc","laws":"4041592339329","lon":34.34866,"lat":43.7441795,"Year":1980},
{"landUse":"Penstemon navajoa N.H. Holmgren","ownership":"Salisbury Bancorp, Inc.","laws":"4041593375296859","lon":10.3793903,"lat":53.9762845,"Year":1979},
{"landUse":null,"ownership":"LaSalle Hotel Properties","laws":"4017956609713","lon":-7.15232,"lat":27.223071,"Year":1979},
{"landUse":"Hesperostipa curtiseta (Hitchc.) Barkworth","ownership":"Stellus Capital Investment Corporation","laws":"4041378529549","lon":-5.7,"lat":-8.1448805,"Year":1979},
{"landUse":"Eriogonum longifolium Nutt. var. gnaphalifolium Gandog.","ownership":"Taitron Components Incorporated","laws":"4041596663922","lon":19.782027,"lat":41.2781543,"Year":1979},
{"landUse":"Balsamorhiza ×tomentosa Rydb. (pro sp.)","ownership":"iShares S&P/Citigroup International Treasury Bond Fund","laws":"4041590255055","lon":38.8248475,"lat":56.6444907,"Year":1979},
{"landUse":"Gymnosiphon niveus (Griseb.) Urb.","ownership":"Angie's List, Inc.","laws":"4041595147406","lon":55.3851413,"lat":52.1087493,"Year":1980},
{"landUse":"Doryopteris subdecipiens W.H. Wagner","ownership":"Fluidigm Corporation","laws":"4017959836779322","lon":37.020948,"lat":-9.2993916,"Year":1981},
{"landUse":"Ceanothus impressus Trel. var. impressus","ownership":"SAP SE","laws":null,"lon":null,"lat":null,"Year":null},
{"landUse":"Arctostaphylos andersonii A. Gray","ownership":"Harte-Hanks, Inc.","laws":"4614996017616","lon":-3.4097,"lat":1.5589383,"Year":1981},
{"landUse":"Psychotria hexandra H. Mann ssp. hexandra var. kealiae Fosberg","ownership":"Chesapeake Energy Corporation","laws":"4017950861055217","lon":-6.4534018,"lat":-10.539,"Year":1980},
{"landUse":"Crataegus ×incaedua Sarg. (pro sp.)","ownership":"BlackRock Utility and Infrastructure Trust","laws":"4041593242886","lon":-8.2077579,"lat":40.3821458,"Year":1980},
{"landUse":"Quercus mongolica Fisch. ex Ledeb.","ownership":null,"laws":"4930622900300","lon":48.9200144,"lat":60.1347052,"Year":1979},
{"landUse":"Erigeron glabellus Nutt. var. pubescens Hook.","ownership":"Kellogg Company","laws":"4041593886831","lon":48.7203863,"lat":49.7287057,"Year":1979},
{"landUse":"Eragrostis von Wolf","ownership":"Abraxas Petroleum Corporation","laws":"4041597224476240","lon":34.198019,"lat":38.235241,"Year":1979},
{"landUse":"Dalea wrightii A. Gray","ownership":"Griffin Industrial Realty, Inc.","laws":"4320213769608914","lon":41.4610499,"lat":32.5171226,"Year":1980},
{"landUse":"Panicum hallii Vasey var. hallii","ownership":"Pennsylvania Real Estate Investment Trust","laws":"4041594820862","lon":28.213424,"lat":-30.4015687,"Year":1980},
{"landUse":"Eucalyptus botryoides Sm.","ownership":"Spark Therapeutics, Inc.","laws":"4254390752438788","lon":28.363741,"lat":55.0123473,"Year":1980},
{"landUse":"Carex sterilis Willd.","ownership":"Kingstone Companies, Inc","laws":"4017954670667","lon":-1.4493473,"lat":37.031485,"Year":1980},
{"landUse":"Physaria floribunda Rydb. var. osterhoutii (Payson) Rollins","ownership":"Sunstone Hotel Investors, Inc.","laws":null,"lon":null,"lat":null,"Year":null},
{"landUse":"Priva lappulacea (L.) Pers.","ownership":"PPL Capital Funding, Inc.","laws":"4017955523196","lon":54.0925958,"lat":53.8653,"Year":1980},
{"landUse":"Geocarpon Mack.","ownership":"Magellan Midstream Partners L.P.","laws":"4017952030120","lon":-7.2026914,"lat":53.508326,"Year":1980},
{"landUse":null,"ownership":"Kamada Ltd.","laws":"4594326930452548","lon":18.1096868,"lat":38.383059,"Year":1980},
{"landUse":"Gaillardia aestivalis (Walter) H. Rock","ownership":"Taitron Components Incorporated","laws":"4017957324862642","lon":37.339426,"lat":-5.81526,"Year":1980},
{"landUse":"Pertusaria rhexostoma Nyl.","ownership":"Johnson Outdoors Inc.","laws":"4017958616633","lon":38.9175948,"lat":36.4051945,"Year":1980},
{"landUse":"Lilium parvum Kellogg","ownership":"Capital One Financial Corporation","laws":null,"lon":null,"lat":null,"Year":null},
{"landUse":"Asclepias glaucescens Kunth","ownership":null,"laws":"4041374640530","lon":38.1731682,"lat":57.9760319,"Year":1980},
{"landUse":"Alyssum corsicum Duby","ownership":"Arconic Inc.","laws":"4041375386893","lon":31.415251,"lat":-22.8590499,"Year":1980},
{"landUse":"Pittosporum hosmeri Rock","ownership":"Sify Technologies Limited","laws":"4413474149450199","lon":8.0275138,"lat":28.6693449,"Year":1980},
{"landUse":null,"ownership":"SeaChange International, Inc.","laws":"4985747011474605","lon":54.6879925,"lat":-27.1886944,"Year":1979},
{"landUse":"×Elyhordeum Mansf. ex Zizin & Petrowa","ownership":"EPR Properties","laws":"4017959678919127","lon":56.3121599,"lat":52.3626877,"Year":1980},
{"landUse":"Sachsia Griseb.","ownership":"First Trust Canada AlphaDEX Fund","laws":"4017953462777","lon":-7.1916713,"lat":22.947532,"Year":1980},
{"landUse":"Brothera leana (Sull.) Müll. Hal.","ownership":"TCF Financial Corporation","laws":"4017950175422","lon":38.540644,"lat":-32.817807,"Year":1979},
{"landUse":"Graphis leucopepla Tuck.","ownership":"Oxford Lane Capital Corp.","laws":"4041598815048422","lon":36.158405,"lat":56.6062481,"Year":1981},
{"landUse":"Parkia clappertoniana Keay","ownership":"Sotheby's","laws":"4041597691070","lon":29.652491,"lat":-3.3851176,"Year":1980},
{"landUse":"Atriplex acanthocarpa (Torr.) S. Watson ssp. acanthocarpa","ownership":"SPDR Dorsey Wright Fixed Income Allocation ETF","laws":"4041590063351293","lon":40.8457193,"lat":29.6793128,"Year":1981},
{"landUse":"Trematodon montanus Belland & Brass.","ownership":"Sonoma Pharmaceuticals, Inc.","laws":"4041594448166046","lon":44.8990915,"lat":-38.0033365,"Year":1980},
{"landUse":"Gaultheria hispidula (L.) Muhl. ex Bigelow","ownership":"Cerus Corporation","laws":"4544495663033790","lon":-4.3822378,"lat":27.33186,"Year":1981},
{"landUse":"Plagiobothrys kingii (S. Watson) A. Gray var. harknessii (Greene) Jeps.","ownership":"W.R. Berkley Corporation","laws":null,"lon":null,"lat":null,"Year":null},
{"landUse":"Astragalus amphioxys A. Gray var. modestus Barneby","ownership":"Virco Manufacturing Corporation","laws":"4379404731340286","lon":13.5009779,"lat":28.520684,"Year":1979},
{"landUse":"Packera cardamine (Greene) W.A. Weber & Á. Löve","ownership":"STRATS Trust","laws":"4474606160670470","lon":47.0378741,"lat":16.7260699,"Year":1979},
{"landUse":"Banksia integrifolia L. f.","ownership":"Liberty TripAdvisor Holdings, Inc.","laws":"4017952026639430","lon":44.5047212,"lat":34.477861,"Year":1980},
{"landUse":"Melicope puberula (H. St. John) T.G. Hartley & B.C. Stone","ownership":"Invesco Senior Income Trust","laws":"4017950451377","lon":24.646975,"lat":6.7703871,"Year":1980},
{"landUse":"Carex deweyana Schwein.","ownership":"DarioHealth Corp.","laws":"4041377427067","lon":23.0861808,"lat":38.7052727,"Year":1980},
{"landUse":"Pilea perfragilis Ekman","ownership":"Forestar Group Inc","laws":"4017950677234485","lon":48.7212066,"lat":16.7095,"Year":1980},
{"landUse":"Ramalina willeyi R. Howe","ownership":"Planet Fitness, Inc.","laws":"4017957393127653","lon":38.9835516,"lat":24.4432479,"Year":1981},
{"landUse":"Lagascea Cav.","ownership":"Floor & Decor Holdings, Inc.","laws":"4036608737789","lon":-5.0768453,"lat":58.3410191,"Year":1980},
{"landUse":"Shorea Roxb. ex C.F. Gaertn.","ownership":"Delphi Automotive plc","laws":"4017951486265835","lon":-2.9863926,"lat":23.364295,"Year":1980},
{"landUse":"Lecania subcaesia (Nyl.) de Lesd.","ownership":"NorthWestern Corporation","laws":"4162548379217","lon":55.893363,"lat":-41.4332215,"Year":1978},
{"landUse":"Calylophus berlandieri Spach ssp. pinifolius (Engelm. ex A. Gray) Towner","ownership":"Blackrock MuniYield California Fund, Inc.","laws":"4017956377593989","lon":53.175543,"lat":51.0376583,"Year":1979},
{"landUse":"Polygonum lacerum Kunth","ownership":"Lee Enterprises, Incorporated","laws":"4506352291045397","lon":3.1166667,"lat":14.2157645,"Year":1981},
{"landUse":"Anemone tuberosa Rydb. var. texana Enquist & Crozier","ownership":"AllianzGI Equity & Convertible Income Fund","laws":"4017959243035284","lon":15.4963503,"lat":44.9799999,"Year":1980},
{"landUse":"Penstemon canescens (Britton) Britton","ownership":"Education Realty Trust Inc.","laws":"4017950251779012","lon":6.3182464,"lat":31.364042,"Year":1981},
{"landUse":"Pterocaulon pycnostachyum (Michx.) Elliott","ownership":"Texas Capital Bancshares, Inc.","laws":"4763373228161","lon":40.1384545,"lat":36.512506,"Year":1979},
{"landUse":"Packera crocata (Rydb.) W.A. Weber & Á. Löve","ownership":"Boston Private Financial Holdings, Inc.","laws":"4587294024667406","lon":30.215009,"lat":40.8440444,"Year":1980},
{"landUse":"Carex montis-eeka Hillebr.","ownership":"Alon USA Partners, LP","laws":"4041374269428829","lon":7.5683211,"lat":25.4251732,"Year":1980},
{"landUse":"Thelesperma ambiguum A. Gray","ownership":"Phillips 66 Partners LP","laws":"4041379531205","lon":52.4271002,"lat":53.83333,"Year":1980},
{"landUse":"Baileya Harv. & A. Gray ex A. Gray","ownership":"FRP Holdings, Inc.","laws":"4017959457375","lon":38.694365,"lat":32.12287,"Year":1980},
{"landUse":"Phacelia hastata Douglas ex Lehm. var. dasyphylla (Greene ex J.F. Macbr.) Kartesz & Gandhi","ownership":"Heritage Financial Corporation","laws":null,"lon":null,"lat":null,"Year":null},
{"landUse":"Rinodina endophragmia Lamb","ownership":"Red Hat, Inc.","laws":"4017956381099","lon":48.2576572,"lat":19.5037694,"Year":1980},
{"landUse":"Setaria sphacelata (Schumach.) Stapf & C.E. Hubb. ex M.B. Moss","ownership":"HealthSouth Corporation","laws":"4041596292821","lon":38.235241,"lat":30.939169,"Year":1980},
{"landUse":"Machaerium lunatum (L. f.) Ducke","ownership":"Nuveen New Jersey Quality Municipal Income Fund","laws":"4041378630404","lon":43.5958543,"lat":31.319438,"Year":1980},
{"landUse":"Juncus nevadensis S. Watson","ownership":"First Trust NASDAQ Smartphone Index Fund","laws":"4041597869734","lon":18.1817674,"lat":35.819227,"Year":1981},
{"landUse":"Adiantum petiolatum Desv.","ownership":"Lion Biotechnologies, Inc.","laws":"4256104583699","lon":-10.7386421,"lat":4.4979714,"Year":1980},
{"landUse":"Tragia betonicifolia Nutt.","ownership":"FormFactor, Inc.","laws":"4041595428454401","lon":13.1789151,"lat":59.2784304,"Year":1980},
{"landUse":"Schaereria Th. Fr.","ownership":"Constellium N.V.","laws":"4041373009547","lon":-7.0370275,"lat":59.9416014,"Year":1981},
{"landUse":"Astragalus argophyllus Nutt.","ownership":"BB&T Corporation","laws":"4019719244770","lon":24.4192041,"lat":-6.9140488,"Year":1980},
{"landUse":"Reussia rotundifolia (L. f.) Castell.","ownership":null,"laws":null,"lon":null,"lat":null,"Year":null},
{"landUse":"Camissonia gouldii P.H. Raven","ownership":"Southern National Bancorp of Virginia, Inc.","laws":"4041592186767108","lon":32.1957948,"lat":49.817777,"Year":1980},
{"landUse":"Arenaria lanuginosa (Michx.) Rohrb. ssp. lanuginosa var. longipedunculata Duncan","ownership":"IBERIABANK Corporation","laws":null,"lon":null,"lat":null,"Year":null},
{"landUse":"Thaumatococcus Benth.","ownership":"Morgan Stanley Emerging Markets Fund, Inc.","laws":"4017950443671","lon":-15.25055,"lat":51.5574609,"Year":1981},
{"landUse":"Trichosanthes L.","ownership":"Gabelli Equity Trust, Inc. (The)","laws":"4041370476634332","lon":45.683569,"lat":-7.7291029,"Year":1981},
{"landUse":"Pityopsis falcata (Pursh) Nutt.","ownership":"Vanguard International Dividend Appreciation ETF","laws":"4017954693252588","lon":19.3508272,"lat":-6.2167736,"Year":1980},
{"landUse":"Geum rossii (R. Br.) Ser.","ownership":"HP Inc.","laws":"4041377830711565","lon":34.041823,"lat":-0.2467982,"Year":1980},
{"landUse":"Lupinus meionanthus A. Gray","ownership":"Old National Bancorp","laws":"4264980092921952","lon":9.3450522,"lat":50.6170721,"Year":1980},
{"landUse":"Periploca L.","ownership":"Whiting Petroleum Corporation","laws":"4041375048457971","lon":42.660251,"lat":57.6294504,"Year":1980},
{"landUse":"Ostrya knowltonii Sarg.","ownership":"TiVo Corporation","laws":"4041595941113","lon":47.3591366,"lat":13.9293954,"Year":1980},
{"landUse":"Nephroma expallidum (Nyl.) Nyl.","ownership":"Valhi, Inc.","laws":"4017954348595","lon":38.1731682,"lat":6.3878527,"Year":1980},
{"landUse":"Passiflora serratodigitata L.","ownership":"Insteel Industries, Inc.","laws":"4041376215429942","lon":-17.5872806,"lat":-10.2824604,"Year":1980},
{"landUse":"Laburnum alpinum (Mill.) J. Presl","ownership":"Under Armour, Inc.","laws":"4041590391774539","lon":47.1792078,"lat":46.3782836,"Year":1981},
{"landUse":"Catopsis sessiliflora (Ruiz & Pav.) Mez","ownership":"FNB Bancorp","laws":"4041599861325","lon":25.8517475,"lat":39.029567,"Year":1980},
{"landUse":"Arabis glabra (L.) Bernh.","ownership":"Bridge Bancorp, Inc.","laws":"4541916776787645","lon":34.7385063,"lat":-23.7661064,"Year":1980},
{"landUse":"Asplenium resiliens Kunze","ownership":"America Movil, S.A.B. de C.V.","laws":"4677610187513403","lon":6.0318676,"lat":-23.1087262,"Year":1981},
{"landUse":"Zigadenus micranthus Eastw. var. fontanus (Eastw.) O.S. Walsh ex McNeal","ownership":"Cott Corporation","laws":"4017958396293","lon":-6.1920539,"lat":27.318852,"Year":1980},
{"landUse":"Festuca saximontana Rydb. var. purpusiana (St.-Yves) Frederiksen & Pavlick","ownership":"EnPro Industries","laws":"4041372317183800","lon":-8.4642661,"lat":17.7235605,"Year":1979},
{"landUse":"Castilleja scabrida Eastw. var. scabrida","ownership":"Invitation Homes Inc.","laws":"4041599368287367","lon":47.1844184,"lat":-34.3042878,"Year":1980},
{"landUse":"Potamogeton ×mysticus Morong (pro sp.)","ownership":"World Point Terminals, LP","laws":null,"lon":null,"lat":null,"Year":null},
{"landUse":"Sporobolus vaginiflorus (Torr. ex A. Gray) Alph. Wood var. ozarkanus (Fernald) Shinners","ownership":"Eagle Pharmaceuticals, Inc.","laws":"4017958062305893","lon":47.335654,"lat":55.6027928,"Year":1979},
{"landUse":"Galactia mollis Michx.","ownership":"Church & Dwight Company, Inc.","laws":"4017951825546","lon":42.3781869,"lat":51.78914,"Year":1980},
{"landUse":"Mahonia swaseyi (Buckley ex Young) Fedde","ownership":"Huaneng Power International, Inc.","laws":null,"lon":null,"lat":null,"Year":null},
{"landUse":"Leptogium dactylinum Tuck.","ownership":"Select Asset Inc.","laws":"4017959032333304","lon":13.9803424,"lat":17.0056829,"Year":1980},
{"landUse":"Heliotropium ramosissimum (Lehm.) DC.","ownership":"Lipocine Inc.","laws":"4017954846200","lon":40.076762,"lat":24.304673,"Year":1980},
{"landUse":"Phacelia brachyloba (Benth.) A. Gray","ownership":"Medovex Corp.","laws":"4727758310027","lon":36.84757,"lat":5.1088508,"Year":1981},
{"landUse":"Sorghastrum setosum (Griseb.) Hitchc.","ownership":"Eaton Vance Corporation","laws":"4017957513102412","lon":20.0910963,"lat":50.483611,"Year":1980},
{"landUse":"Brosimum alicastrum Sw. ssp. bolivarense (Pitt.) C.C. Berg","ownership":"Post Holdings, Inc.","laws":"4041379638638","lon":44.30672,"lat":27.4669558,"Year":1981},
{"landUse":"Acanthomintha lanceolata Curran","ownership":"Taro Pharmaceutical Industries Ltd.","laws":null,"lon":null,"lat":null,"Year":null},
{"landUse":"Microstegium Nees","ownership":"Goldman Sachs Group, Inc. (The)","laws":"4041599179209261","lon":40.9177668,"lat":6.5243793,"Year":1980},
{"landUse":"Xanthoria candelaria (L.) Th. Fr.","ownership":"Lehman ABS Corporation","laws":"4041371998681264","lon":14.1762086,"lat":40.2538143,"Year":1980},
{"landUse":"Copaifera langsdorffii Desf.","ownership":"Qiagen N.V.","laws":"4849225042106","lon":38.6087272,"lat":59.3609203,"Year":1980},
{"landUse":"Phlox diffusa Benth. ssp. diffusa","ownership":"Boston Properties, Inc.","laws":"4017950300978474","lon":47.9963155,"lat":20.0910963,"Year":1980},
{"landUse":"Stenaria nigricans (Lam.) Terrell var. floridana (Standl.) Terrell","ownership":"Estee Lauder Companies, Inc. (The)","laws":"4340404356103718","lon":45.90453,"lat":47.1738671,"Year":1980},
{"landUse":"Phacelia pulchella A. Gray var. atwoodii S.L. Welsh","ownership":"Wintrust Financial Corporation","laws":"4041594588163753","lon":30.830898,"lat":15.6987382,"Year":1979},
{"landUse":"Delphinium decorum Fisch. & C.A. Mey. ssp. tracyi Ewan","ownership":"Identiv, Inc.","laws":"4041597278605","lon":32.168137,"lat":30.6509359,"Year":1980},
{"landUse":"Rumex bucephalophorus L.","ownership":"Yamana Gold Inc.","laws":"4857399069962415","lon":46.3194856,"lat":35.7013041,"Year":1980},
{"landUse":"Juncus hemiendytus F.J. Herm. var. hemiendytus","ownership":"Graham Corporation","laws":"4950622776237","lon":15.6452543,"lat":57.063557,"Year":1980},
{"landUse":"Psora Hoffm.","ownership":"Opexa Therapeutics, Inc.","laws":"4166792794807","lon":-6.161513,"lat":16.228139,"Year":1980},
{"landUse":"Solenospora A. Massal.","ownership":null,"laws":"4034903218829","lon":15.3179065,"lat":36.097577,"Year":1980},
{"landUse":"Perideridia bolanderi (A. Gray) A. Nelson & J.F. Macbr. ssp. involucrata T.I. Chuang & Constance","ownership":"City Holding Company","laws":"4041597488527","lon":40.417358,"lat":-8.5277646,"Year":1980},
{"landUse":"Huperzia haleakalae (Brack.) Holub","ownership":"PowerShares QQQ Trust, Series 1","laws":"4041371864045230","lon":53.0860174,"lat":-14.98306,"Year":1980},
{"landUse":"Waltheria calcicola Urb.","ownership":"Codexis, Inc.","laws":"4041379664654093","lon":-14.51688,"lat":-6.9174639,"Year":1981},
{"landUse":"Senecio aquaticus Hill ssp. barbareifolius (Wimm. & Grab.) S.M. Walters","ownership":"Invuity, Inc.","laws":"4041594597429","lon":48.9378251,"lat":21.912701,"Year":1980},
{"landUse":"Adenocarpus foliolosus (Aiton) DC.","ownership":"Skyworks Solutions, Inc.","laws":null,"lon":null,"lat":null,"Year":null},
{"landUse":"Callirhoe triangulata (Leavenworth) A. Gray","ownership":"Scripps Networks Interactive, Inc","laws":"4041377588280","lon":59.1239637,"lat":-26.892953,"Year":1980},
{"landUse":"Stenogyne cinerea Hillebr.","ownership":"Fidelity Nasdaq Composite Index Tracking Stock","laws":"4041596028562817","lon":25.8333333,"lat":-23.2980974,"Year":1980},
{"landUse":"Dasynotus daubenmirei I.M. Johnst.","ownership":"E.I. du Pont de Nemours and Company","laws":null,"lon":null,"lat":null,"Year":null},
{"landUse":"Myurella Schimp.","ownership":"Kingold Jewelry Inc.","laws":"4041372096362","lon":14.5806413,"lat":39.55699,"Year":1981},
{"landUse":"Eriogonum lewisii Reveal","ownership":"Cavco Industries, Inc.","laws":"4017955248679","lon":-7.232837,"lat":36.494701,"Year":1980},
{"landUse":"Cupaniopsis anacardioides (A. Rich.) Radlk.","ownership":"Liberty Global plc","laws":"4041374916269923","lon":49.7995264,"lat":28.901462,"Year":1980},
{"landUse":"Cynanchum utahense (Engelm.) Woodson","ownership":"Magna International, Inc.","laws":"4041593480312","lon":40.4520266,"lat":1.78925,"Year":1980},
{"landUse":"Bassia americana (S. Watson) A.J. Scott","ownership":"Ingles Markets, Incorporated","laws":"4041597209071","lon":-7.934176,"lat":14.5968528,"Year":1981},
{"landUse":"Desmodium viridiflorum (L.) DC.","ownership":null,"laws":"4027862518593","lon":-34.7503543,"lat":-33.745727,"Year":1979},
{"landUse":"Aegilops crassa Boiss.","ownership":"Ark Restaurants Corp.","laws":"4131709136864303","lon":54.3116188,"lat":6.9655812,"Year":1980},
{"landUse":"Drypetes Vahl","ownership":"Quidel Corporation","laws":"4017958827628","lon":65.1474586,"lat":31.5319623,"Year":1980},
{"landUse":"Streptanthus bracteatus A. Gray","ownership":"Gladstone Capital Corporation","laws":"4041598155315","lon":48.9855573,"lat":45.945945,"Year":1981},
{"landUse":"Abies balsamea (L.) Mill.","ownership":null,"laws":"4017955716360","lon":-0.0917016,"lat":-6.212159,"Year":1980},
{"landUse":"Clematis terniflora DC. var. terniflora","ownership":"NRG Energy, Inc.","laws":"4614493138895997","lon":37.9687252,"lat":8.8763514,"Year":1980},
{"landUse":"Wyethia longicaulis A. Gray","ownership":"Lincoln Electric Holdings, Inc.","laws":"4041590961068957","lon":-7.1047476,"lat":59.3573881,"Year":1981},
{"landUse":"Bacidia ravenelii (Tuck.) Zahlbr.","ownership":"Skyline Medical Inc.","laws":"4238032650040883","lon":-7.532337,"lat":22.786186,"Year":1980},
{"landUse":"Clidemia strigillosa (Sw.) DC.","ownership":"AdvisorShares Market Adaptive Unconstrained Income ETF","laws":"4017958850447006","lon":35.2923343,"lat":30.975286,"Year":1981},
{"landUse":"Xenostegia tridentata (L.) Austin & Staples","ownership":"Fogo de Chao, Inc.","laws":"4041372017590","lon":-6.8639965,"lat":52.1124967,"Year":1980},
{"landUse":"Asclepias michauxii Decne.","ownership":"Tronox Limited","laws":"4041378095400","lon":59.3251422,"lat":29.8867778,"Year":1980},
{"landUse":"Lotus benthamii Greene","ownership":"Korn/Ferry International","laws":"4017959156217","lon":-7.5651443,"lat":47.6519866,"Year":1980},
{"landUse":"Cardamine flagellifera O.E. Schulz var. hugeri (Small) Rollins","ownership":"Guggenheim Strategic Opportunities Fund","laws":"4305484501997985","lon":18.759886,"lat":38.6871727,"Year":1981},
{"landUse":"Silene lemmonii S. Watson","ownership":"Electro-Sensors, Inc.","laws":"4041379201906717","lon":-6.5413435,"lat":-26.2219963,"Year":1981},
{"landUse":"Epidendrum floridense Hágsater","ownership":"Griffon Corporation","laws":"4774828353005648","lon":-8.3478186,"lat":-23.0939881,"Year":1980},
{"landUse":"Illosporium Mart.","ownership":"American Homes 4 Rent","laws":"4041373049450129","lon":10.752961,"lat":43.3209022,"Year":1980},
{"landUse":"Pertusaria texana Müll. Arg.","ownership":"Palo Alto Networks, Inc.","laws":"4017955184894176","lon":-8.2138062,"lat":-13.6635336,"Year":1980},
{"landUse":"Chaerophyllum procumbens (L.) Crantz","ownership":"PowerShares DWA Tactical Sector Rotation Portfolio","laws":"4017958312837","lon":50.8323221,"lat":2.523477,"Year":1980},
{"landUse":"Forestiera pubescens Nutt. var. pubescens","ownership":"Goldman Sachs Group, Inc. (The)","laws":null,"lon":null,"lat":null,"Year":null},
{"landUse":"Hypogymnia tubulosa (Schaerer) Hav.","ownership":"Dreyfus Strategic Municipals, Inc.","laws":"4818849637559","lon":28.743812,"lat":48.887593,"Year":1980},
{"landUse":null,"ownership":"Buffalo Wild Wings, Inc.","laws":null,"lon":null,"lat":null,"Year":null},
{"landUse":"Chaerophyllum procumbens (L.) Crantz var. procumbens","ownership":"MannKind Corporation","laws":"4041590876983","lon":37.029718,"lat":52.7009338,"Year":1980},
{"landUse":"Cladonia gracilis (L.) Willd. ssp. vulnerata Ahti","ownership":"Vanguard Russell 1000 ETF","laws":"4041594782690","lon":60.2527141,"lat":6.4126332,"Year":1981},
{"landUse":"Eucladium verticillatum (Brid.) Bruch & Schimp.","ownership":"Principal Real Estate Income Fund","laws":"4041374653617177","lon":54.8948642,"lat":34.728584,"Year":1980},
{"landUse":"Castilleja parviflora Bong. var. parviflora","ownership":"Invesco Bond Fund","laws":"4041377821301","lon":27.948308,"lat":9.329496,"Year":1980},
{"landUse":"Hymenoxys vaseyi (A. Gray) Cockerell","ownership":"Baxter International Inc.","laws":"4017953303302","lon":32.670426,"lat":-6.7050629,"Year":1980},
{"landUse":"Drosera linearis Goldie","ownership":"Teva Pharmaceutical Industries Limited","laws":"4017959732918","lon":31.2035483,"lat":8.931132,"Year":1980},
{"landUse":"Watsonia Mill.","ownership":"Goldman Sachs Group, Inc. (The)","laws":"4650371275262","lon":-16.4708895,"lat":41.6429311,"Year":1980},
{"landUse":"Trypethelium floridanum (Zahlbr. ex M. Choisy) R.C. Harris","ownership":"AMERISAFE, Inc.","laws":"4041375584067","lon":-10.0396,"lat":41.0606685,"Year":1980},
{"landUse":"Salix glauca L. ssp. callicarpaea (Trautv.) Böcher","ownership":null,"laws":"4041597555997814","lon":36.9923139,"lat":43.4945737,"Year":1980},
{"landUse":"Epidendrum antillanum Ackerman & Hágsater","ownership":"Insight Select Income Fund","laws":"4041592620211036","lon":53.0172544,"lat":-6.927607,"Year":1980},
{"landUse":"Lamiastrum galeobdolon (L.) Ehrend. & Polatschek","ownership":"Cobalt International Energy, Inc.","laws":"4041378299556","lon":-37.7236851,"lat":13.5468199,"Year":1980},
{"landUse":"Stachys drummondii Benth.","ownership":"BlackRock Energy and Resources Trust","laws":"4041370461825937","lon":33.5041035,"lat":-5.98978,"Year":1980},
{"landUse":"Gladiolus communis L. ssp. byzantinus (Mill.) A.P. Ham.","ownership":"Superior Energy Services, Inc.","laws":"4041375267113545","lon":38.135288,"lat":59.615642,"Year":1981},
{"landUse":"Glyceria grandis S. Watson var. grandis","ownership":"Stone Harbor Emerging Markets Income Fund","laws":"4017953877936438","lon":57.7385277,"lat":59.3703069,"Year":1980},
{"landUse":"Fragaria cascadensis K.E. Hummer","ownership":"LiNiu Technology Group","laws":"4041370462053596","lon":49.94712,"lat":23.9179637,"Year":1980},
{"landUse":"Rimularia limborina Nyl.","ownership":"Tecogen Inc.","laws":"4017955695275","lon":-6.9828037,"lat":39.685846,"Year":1980},
{"landUse":"Eriogonum sphaerocephalum Douglas ex Benth.","ownership":"Argo Group International Holdings, Ltd.","laws":"4041379499478","lon":44.766541,"lat":45.7716857,"Year":1981},
{"landUse":"Orthocarpus luteus Nutt.","ownership":"CHS Inc","laws":"4017957664535","lon":2.3390467,"lat":12.50337,"Year":1980},
{"landUse":null,"ownership":"Alere Inc.","laws":"4041370738585","lon":32.983101,"lat":-7.003074,"Year":1980},
{"landUse":"Anisomeridium (Müll. Arg.) M. Choisy","ownership":"SB Financial Group, Inc.","laws":"4358846397105","lon":-26.2171929,"lat":43.8447278,"Year":1979},
{"landUse":"Cirsium douglasii DC. var. breweri (A. Gray) D.J. Keil & C.E. Turner","ownership":"Western Asset Emerging Markets Debt Fund Inc","laws":"4041599608754101","lon":-23.8879561,"lat":26.497669,"Year":1980},
{"landUse":"Helianthus porteri (A. Gray) Pruski","ownership":"Crescent Point Energy Corporation","laws":"4017955607544","lon":15.678696,"lat":38.88829,"Year":1980},
{"landUse":"Hippocrepis L.","ownership":"The Gabelli Healthcare & Wellness Trust","laws":"4017955011903","lon":47.9523565,"lat":28.168408,"Year":1981},
{"landUse":"Brassica narinosa L.H. Bailey","ownership":"Severn Bancorp Inc","laws":"4017953660321","lon":59.3405742,"lat":43.1905743,"Year":1980},
{"landUse":"Castilleja lanata A. Gray","ownership":"BLACKROCK INTERNATIONAL, LTD.","laws":"4041595183061748","lon":57.6593247,"lat":-7.7013097,"Year":1980},
{"landUse":"Astragalus tidestromii (Rydb.) Clokey","ownership":"Royal Dutch Shell PLC","laws":"4041374268654","lon":23.642114,"lat":29.163159,"Year":1980},
{"landUse":"Schistidium andreaeopsis (Müll. Hal.) Laz.","ownership":"Pebblebrook Hotel Trust","laws":"4041375875598","lon":40.1976461,"lat":-8.0884404,"Year":1980},
{"landUse":"Heliotropium racemosum Rose & Standl.","ownership":"Cleveland BioLabs, Inc.","laws":"4041378989990","lon":4.9640933,"lat":8.27533,"Year":1980},
{"landUse":"Dipsacus laciniatus L.","ownership":"Net 1 UEPS Technologies, Inc.","laws":"4041597096456486","lon":28.430921,"lat":57.9289181,"Year":1981},
{"landUse":"Echinoplaca tetrapla (Zahlbr.) Lücking","ownership":"J P Morgan Chase & Co","laws":"4017957815525","lon":58.6316895,"lat":41.66528,"Year":1980},
{"landUse":"Rhamnus davurica Pall. ssp. nipponica (Makino) Kartesz & Gandhi","ownership":"Sierra Bancorp","laws":"4017952666873","lon":-12.1768359,"lat":-13.5119941,"Year":1980},
{"landUse":"Prunus serotina Ehrh. ssp. capuli (Cav.) McVaugh","ownership":"Aramark","laws":"4041595809922","lon":40.472433,"lat":50.2770333,"Year":1979},
{"landUse":"Primula anisodora Balf. f. & G. Forrest [excluded]","ownership":"Washington Real Estate Investment Trust","laws":null,"lon":null,"lat":null,"Year":null},
{"landUse":"Papaver glaucum Boiss. & Hausskn.","ownership":"Quinpario Acquisition Corp. 2","laws":"4041372037158389","lon":49.8391504,"lat":41.554479,"Year":1979},
{"landUse":"Sideritis romana L.","ownership":null,"laws":"4199367393820","lon":10.2019084,"lat":4.9237913,"Year":1980},
{"landUse":"Acalypha indica L.","ownership":"Wells Fargo & Company","laws":"4017953596046","lon":29.301449,"lat":35.62231,"Year":1980},
{"landUse":"Perotis rara R. Br.","ownership":"Mid-America Apartment Communities, Inc.","laws":"4017953284296","lon":-11.6557739,"lat":-9.6635623,"Year":1980},
{"landUse":"Melaleuca huegelii Endl.","ownership":"Nuveen Short Duration Credit Opportunities Fund","laws":"4118315136883","lon":12.2153659,"lat":47.0765556,"Year":1980},
{"landUse":"Mesembryanthemum crystallinum L.","ownership":"1st Constitution Bancorp (NJ)","laws":"4017951632827","lon":38.8189466,"lat":18.7338573,"Year":1980},
{"landUse":"Centaurea jacea L.","ownership":"Medical Transcription Billing, Corp.","laws":"4930567040237","lon":26.0696179,"lat":30.753924,"Year":1979},
{"landUse":"Solidago speciosa Nutt. var. rigidiuscula Torr. & A. Gray","ownership":"GasLog Partners LP","laws":"4966389003961","lon":54.659677,"lat":7.45,"Year":1980},
{"landUse":"Flemingia strobilifera (L.) W.T. Aiton","ownership":"Genius Brands International, Inc.","laws":"4017954469151","lon":11.0991113,"lat":49.5012266,"Year":1981},
{"landUse":"Mirabilis multiflora (Torr.) A. Gray var. multiflora","ownership":"Appian Corporation","laws":"4041375699659","lon":51.6113555,"lat":22.636828,"Year":1980},
{"landUse":null,"ownership":"CorEnergy Infrastructure Trust, Inc.","laws":null,"lon":null,"lat":null,"Year":null},
{"landUse":"Perityle gracilis (M.E. Jones) Rydb.","ownership":"iPath US Treasury Long Bond Bull ETN","laws":"4041594586997111","lon":40.6627728,"lat":32.318255,"Year":1979},
{"landUse":"Tabebuia donnell-smithii Rose","ownership":"B&G Foods, Inc.","laws":"4041592306183137","lon":49.78998,"lat":32.0777617,"Year":1980},
{"landUse":"Urospermum Scop.","ownership":"Royal Bank Scotland plc (The)","laws":"4041598258292206","lon":-19.59354,"lat":47.6593594,"Year":1980},
{"landUse":"Selenicereus grandiflorus (L.) Britton & Rose","ownership":"Frank's International N.V.","laws":"4041594387511905","lon":47.2215999,"lat":32.9234588,"Year":1980},
{"landUse":"Tragia amblyodonta (Müll. Arg.) Pax & K. Hoffm.","ownership":"James River Group Holdings, Ltd.","laws":"4041371059156040","lon":50.4897179,"lat":16.2569214,"Year":1980},
{"landUse":"Orthotrichum pycnophyllum Schimp.","ownership":"Energy Focus, Inc.","laws":"4786245235353","lon":31.035395,"lat":14.6701,"Year":1980},
{"landUse":"Silphium integrifolium Michx. var. integrifolium","ownership":"Yatra Online, Inc.","laws":"4041596847244","lon":-9.780803,"lat":27.23895,"Year":1981},
{"landUse":"Aeschynomene aspera L.","ownership":"Apple Hospitality REIT, Inc.","laws":"4041596882460702","lon":28.397356,"lat":6.839006,"Year":1980},
{"landUse":"Carex conoidea Schkuhr ex Willd.","ownership":"Mid-America Apartment Communities, Inc.","laws":null,"lon":null,"lat":null,"Year":null},
{"landUse":"Funastrum cynanchoides (Decne.) Schltr. ssp. heterophyllum (Engelm. ex Torr.) Kartesz","ownership":"Urstadt Biddle Properties Inc.","laws":"4041598487739712","lon":52.7066595,"lat":-10.6872332,"Year":1980},
{"landUse":"Lecidea violascens H. Magn.","ownership":"Wintrust Financial Corporation","laws":"4041371009788","lon":29.703113,"lat":43.4945737,"Year":1980},
{"landUse":"Begonia L.","ownership":"Verso Corporation","laws":"4041377166795505","lon":50.6655892,"lat":-6.7348499,"Year":1980},
{"landUse":null,"ownership":"Performance Food Group Company","laws":"4017959459696134","lon":40.229627,"lat":40.9357866,"Year":1980},
{"landUse":"Cystopteris reevesiana Lellinger","ownership":"Flaherty & Crumrine Preferred Income Opportunity Fund Inc","laws":null,"lon":null,"lat":null,"Year":null},
{"landUse":"Dioscorea elephantipes (L'Hér.) Engl.","ownership":"Enbridge Energy, L.P.","laws":"4771805916972","lon":51.8792137,"lat":-12.55,"Year":1980},
{"landUse":"Lomatium dissectum (Nutt.) Mathias & Constance var. multifidum (Nutt.) Mathias & Constance","ownership":"AutoNation, Inc.","laws":"4041597020130","lon":15.9052069,"lat":-7.2133284,"Year":1981},
{"landUse":"Astragalus tibetanus Benth. ex Bunge","ownership":"TTM Technologies, Inc.","laws":"4041374982890","lon":42.5387912,"lat":10.74044,"Year":1979},
{"landUse":"Iva annua L. var. macrocarpa (S.F. Blake) R.C. Jacks., nom. inq.","ownership":"ITT Inc.","laws":"4017953693207","lon":-7.1045439,"lat":48.2046068,"Year":1980},
{"landUse":"Galium serpenticum Dempster ssp. scotticum Dempster & Ehrend.","ownership":"Tableau Software, Inc.","laws":"4017950086152716","lon":1.683061,"lat":50.591842,"Year":1980},
{"landUse":"Kosteletzkya virginica (L.) C. Presl ex A. Gray","ownership":"The Finish Line, Inc.","laws":"4041590267209","lon":40.6898292,"lat":55.56047,"Year":1980},
{"landUse":"Utricularia minor L.","ownership":"First Trust NASDAQ Cybersecurity ETF","laws":"4041594186525957","lon":48.0762327,"lat":23.201636,"Year":1980},
{"landUse":"Aspicilia nathoristii (Lynge) J.W. Thomson","ownership":null,"laws":"4381856266822523","lon":42.0011586,"lat":18.6243144,"Year":1981},
{"landUse":"Cardamine microphylla M.F. Adams ssp. blaisdellii (Eastw.) D.F. Murray & S. Kelso","ownership":"NII Holdings, Inc.","laws":"4041370852350198","lon":41.124339,"lat":39.1340249,"Year":1980},
{"landUse":"Horkeliella congdonis (Rydb.) Rydb.","ownership":"LaSalle Hotel Properties","laws":"4359352031379328","lon":56.0181995,"lat":-8.602068,"Year":1979},
{"landUse":"Nicandra Adans.","ownership":"UMH Properties, Inc.","laws":"4041591361804983","lon":34.7964208,"lat":31.697836,"Year":1980},
{"landUse":"Myrcianthes Berg","ownership":"PIMCO Dynamic Income Fund","laws":"4041373748474","lon":49.8881618,"lat":41.923103,"Year":1981},
{"landUse":"Mycomicrothelia wallrothii (Hepp) D. Hawksw.","ownership":"EP Energy Corporation","laws":"4041591713797","lon":14.9659262,"lat":-10.218,"Year":1981},
{"landUse":"Crepis runcinata (James) Torr. & A. Gray ssp. barberi (Greenm.) Babc. & Stebbins","ownership":"Nuveen Preferred Income Opportunites Fund","laws":"4041594527400","lon":50.1323846,"lat":53.3194376,"Year":1980},
{"landUse":"Saxifraga nuttallii Small","ownership":"Brookline Bancorp, Inc.","laws":"4041593072202192","lon":19.8838774,"lat":1.33546,"Year":1980},
{"landUse":"Melaspilea cupularis Müll. Arg.","ownership":"White Mountains Insurance Group, Ltd.","laws":"4391008866286","lon":18.3419004,"lat":38.8833,"Year":1980},
{"landUse":"Aquilegia jonesii Parry","ownership":"Inter Parfums, Inc.","laws":"4999607306470698","lon":-15.6500913,"lat":-20.2973067,"Year":1980},
{"landUse":"Scleria purdiei C.B. Clarke [excluded]","ownership":"Parker-Hannifin Corporation","laws":"4041374413233380","lon":49.8417042,"lat":-20.895689,"Year":1980},
{"landUse":"Bouchea spathulata Torr.","ownership":"Cohen & Steers Quality Income Realty Fund Inc","laws":"4017950871430194","lon":28.701403,"lat":42.057517,"Year":1980},
{"landUse":"Lysimachia scopulensis Marr","ownership":"Weyerhaeuser Company","laws":"4850066987180027","lon":23.9179637,"lat":-1.2468663,"Year":1980},
{"landUse":"Crataegus spatiosa Sarg.","ownership":"Consumer Portfolio Services, Inc.","laws":"4041594922367847","lon":-12.8435129,"lat":-15.7666707,"Year":1980},
{"landUse":"Karwinskia humboldtiana (Schult.) Zucc.","ownership":"EPR Properties","laws":"4226051877247638","lon":41.43999,"lat":30.9579533,"Year":1980},
{"landUse":"Schadonia alpina Körb.","ownership":"FinTech Acquisition Corp. II","laws":"4413793861254","lon":34.6672527,"lat":-15.1497334,"Year":1979},
{"landUse":"Canavalia sericea A. Gray","ownership":"Western Refining Logistics, LP","laws":"4673036318061","lon":-7.8090256,"lat":13.60864,"Year":1980},
{"landUse":"Juncus militaris Bigelow","ownership":"Bitauto Holdings Limited","laws":"4769664917130128","lon":4.449797,"lat":31.4840951,"Year":1980},
{"landUse":"Monardella lanceolata A. Gray var. microcephala A. Gray","ownership":"Care.com, Inc.","laws":"4041379903701","lon":52.1267722,"lat":57.7119589,"Year":1980},
{"landUse":"Bouchea Cham.","ownership":"Suncor Energy  Inc.","laws":"4041370214470","lon":-21.6704167,"lat":47.73021,"Year":1980},
{"landUse":null,"ownership":"Aduro Biotech, Inc.","laws":"4017951850163","lon":35.429135,"lat":-7.5450262,"Year":1980},
{"landUse":"Hobsonia Massee","ownership":"On Track Innovations Ltd","laws":"4041596974871220","lon":13.9289816,"lat":58.3615767,"Year":1979},
{"landUse":"Parkinsonia microphylla Torr.","ownership":"Universal Health Services, Inc.","laws":"4017954488759409","lon":35.2219554,"lat":-11.22075,"Year":1980},
{"landUse":"Nemophila pedunculata Douglas ex Benth.","ownership":"Fortis Inc.","laws":"4041371006180","lon":37.546455,"lat":12.225759,"Year":1979},
{"landUse":"Andrographis echioides (L.) Nees","ownership":"Infosys Limited","laws":"4017954678474595","lon":-7.0405094,"lat":-7.316501,"Year":1979},
{"landUse":"Astragalus williamsii Rydb.","ownership":"Tenaris S.A.","laws":"4017950229476","lon":47.573689,"lat":41.217649,"Year":1980},
{"landUse":"Pandanus L. f.","ownership":"Meridian Waste Solutions, Inc","laws":"4041590545557285","lon":28.2068263,"lat":47.5745404,"Year":1980},
{"landUse":"Rubus odoratus L. var. columbianus Millsp.","ownership":"Hanesbrands Inc.","laws":"4041592546686105","lon":41.91142,"lat":10.8325561,"Year":1980},
{"landUse":"Heliotropium ramosissimum (Lehm.) DC.","ownership":"Deltic Timber Corporation","laws":"4359371584810","lon":59.334679,"lat":64.0516089,"Year":1980},
{"landUse":"Scolymus L.","ownership":"Upland Software, Inc.","laws":"4454455164838798","lon":48.3228384,"lat":64.58897,"Year":1980},
{"landUse":"Camissonia benitensis P.H. Raven","ownership":"Dynegy Inc.","laws":"4393775225126","lon":50.810462,"lat":19.696407,"Year":1980},
{"landUse":"Ceratophyllum echinatum A. Gray","ownership":"Safety Insurance Group, Inc.","laws":"4236190242335","lon":-7.2120194,"lat":19.4458447,"Year":1980},
{"landUse":"Collinsia rattanii A. Gray ssp. glandulosa (Howell) Pennell","ownership":"Innovative Solutions and Support, Inc.","laws":"4799160942688580","lon":49.5048872,"lat":29.0180288,"Year":1980},
{"landUse":"Hieracium ×fuscatrum Naegeli & Peter (pro sp.)","ownership":null,"laws":"4955773679986637","lon":32.748143,"lat":40.376804,"Year":1980},
{"landUse":"Lecanora sambuci (Pers.) Nyl.","ownership":"Quintiles IMS Holdings, Inc.","laws":"4666864502178","lon":15.2113128,"lat":49.9344975,"Year":1980},
{"landUse":"Eriogonum subreniforme S. Watson","ownership":"iStar Financial Inc.","laws":"4041379553084","lon":56.4768137,"lat":24.5167005,"Year":1980},
{"landUse":"Sadleria Kaulf.","ownership":null,"laws":"4041370013531512","lon":17.9213664,"lat":23.157289,"Year":1980},
{"landUse":"Spermolepis Raf.","ownership":"Liberty All-Star Growth Fund, Inc.","laws":null,"lon":null,"lat":null,"Year":null},
{"landUse":"Bryum canariense Brid.","ownership":null,"laws":"4041376679197951","lon":-20.9508706,"lat":38.2031194,"Year":1981},
{"landUse":"Brachythecium acuminatum (Hedw.) Austin","ownership":"KT Corporation","laws":"4017950868651851","lon":42.8130176,"lat":34.14,"Year":1980},
{"landUse":"Bryum alpinum Huds. ex With.","ownership":"ACADIA Pharmaceuticals Inc.","laws":"4577016258522391","lon":13.5722578,"lat":44.0461726,"Year":1980},
{"landUse":"Astragalus funereus M.E. Jones","ownership":"AmerisourceBergen Corporation (Holding Co)","laws":"4041371494771791","lon":14.13,"lat":31.295228,"Year":1980},
{"landUse":"Lupinus johannis-howellii C.P. Sm.","ownership":"BorgWarner Inc.","laws":"4942450323653766","lon":8.636758,"lat":40.9368325,"Year":1980},
{"landUse":"Stereocaulon alpinum Laurer ex Funck","ownership":"UnitedHealth Group Incorporated","laws":"4041593602891514","lon":8.8698491,"lat":53.495408,"Year":1980},
{"landUse":"Euonymus fortunei (Turcz.) Hand.-Maz.","ownership":"Lantheus Holdings, Inc.","laws":"4039556244113","lon":34.683646,"lat":40.432725,"Year":1981},
{"landUse":"Polygala watsonii Chod.","ownership":"Invitae Corporation","laws":"4017954337333","lon":-6.9399,"lat":43.1342238,"Year":1980},
{"landUse":"Bergia L.","ownership":null,"laws":null,"lon":null,"lat":null,"Year":null},
{"landUse":"Paraserianthes I.C. Nielsen","ownership":"Global Payments Inc.","laws":"4041599476673482","lon":41.2699428,"lat":5.329576,"Year":1980},
{"landUse":"Stipulicida setacea Michx. var. lacerata C.W. James","ownership":"NuVasive, Inc.","laws":"4812914280648785","lon":-27.5059385,"lat":45.3218651,"Year":1980},
{"landUse":"Eriodictyon crassifolium Benth.","ownership":"MercadoLibre, Inc.","laws":"4017953794558323","lon":39.63148,"lat":9.7457208,"Year":1980},
{"landUse":"Hasteola robertiorum L.C. Anderson","ownership":"DDR Corp.","laws":"4041375017516575","lon":9.2008079,"lat":1.0725136,"Year":1980},
{"landUse":"Elymus glaucus Buckley ssp. jepsonii (Burtt Davy) Gould","ownership":"Aspen Technology, Inc.","laws":"4017954029101962","lon":35.0298547,"lat":41.833253,"Year":1980},
{"landUse":"Oligotrichum Lam. & DC.","ownership":"Proto Labs, Inc.","laws":"4041377946608515","lon":58.695946,"lat":47.3752386,"Year":1980},
{"landUse":"Landolphia kirkii Dyer","ownership":"AmTrust Financial Services, Inc.","laws":"4041596346812910","lon":24.288578,"lat":30.641073,"Year":1981},
{"landUse":"Adenophyllum porophyllum (Cav.) Hemsl.","ownership":"Vident Core U.S. Bond Strategy Fund","laws":"4041372154120","lon":50.4252048,"lat":34.0577762,"Year":1980},
{"landUse":"Pediocactus paradinei B.W. Benson","ownership":"DTE Energy Company","laws":"4017956946170582","lon":10.6544509,"lat":30.823054,"Year":1980},
{"landUse":"Saussurea angustifolia (Willd.) DC.","ownership":"Exponent, Inc.","laws":"4041596523308","lon":39.16352,"lat":41.5088439,"Year":1981},
{"landUse":"Lotus rubriflorus H. Sharsm.","ownership":"Exa Corporation","laws":"4662963528735798","lon":39.877206,"lat":40.1427498,"Year":1980},
{"landUse":"Psidium guajava L.","ownership":"National Health Investors, Inc.","laws":"4041370796732","lon":3.9928933,"lat":48.8162706,"Year":1979},
{"landUse":"Dictyonema sericeum (Sw.) Berk.","ownership":"Torchmark Corporation","laws":"4557406568696","lon":36.0917434,"lat":28.498966,"Year":1980},
{"landUse":"Scirpus pallidus (Britton) Fernald","ownership":"First Trust South Korea AlphaDEX Fund","laws":"4041598268886","lon":25.526437,"lat":29.866917,"Year":1980},
{"landUse":"Chamaesyce ocellata (Durand & Hilg.) Millsp. ssp. ocellata","ownership":"Barington/Hilco Acquisition Corp.","laws":"4041591113501","lon":26.096382,"lat":58.9764624,"Year":1980},
{"landUse":"Pyrrocoma racemosa (Nutt.) Torr. & A. Gray var. racemosa","ownership":"Aqua Metals, Inc.","laws":"4017950366054","lon":38.416663,"lat":14.6634634,"Year":1981},
{"landUse":"Bothriochloa insculpta (Hochst.) A. Camus [excluded]","ownership":"Thai Fund, Inc. (The)","laws":"4041378155758","lon":-8.2151612,"lat":60.2638215,"Year":1981},
{"landUse":"Seymeria falcata B.L. Turner","ownership":"Select Energy Services, Inc.","laws":null,"lon":null,"lat":null,"Year":null},
{"landUse":"Scleria cubensis Boeckeler","ownership":"Sino-Global Shipping America, Ltd.","laws":"4041373684642071","lon":29.649109,"lat":40.2549207,"Year":1980},
{"landUse":"Mimulus L.","ownership":"Five Oaks Investment Corp.","laws":"4017955670402963","lon":-10.1749134,"lat":-6.7183784,"Year":1980},
{"landUse":"Epilobium brachycarpum C. Presl","ownership":"Compania Cervecerias Unidas, S.A.","laws":"4125102372357174","lon":-6.2624908,"lat":10.1819305,"Year":1979},
{"landUse":"Croton cortesianus Kunth","ownership":"Hilltop Holdings Inc.","laws":"4017955062617","lon":49.6109539,"lat":14.6213127,"Year":1979},
{"landUse":"Pyrola asarifolia Michx. ssp. asarifolia","ownership":"G1 Therapeutics, Inc.","laws":"4041597314324888","lon":35.683952,"lat":50.5658445,"Year":1980},
{"landUse":null,"ownership":"Carnival Corporation","laws":"4041598093943336","lon":55.9562612,"lat":39.906972,"Year":1981},
{"landUse":"Muhlenbergia cuspidata (Torr. ex Hook.) Rydb.","ownership":"Meritage Corporation","laws":"4041599088770","lon":51.341376,"lat":18.6794938,"Year":1981},
{"landUse":"Ranunculus alismifolius Geyer ex Benth. var. alismifolius","ownership":"Broadcom Limited","laws":"4041590480623357","lon":46.8087637,"lat":9.1631736,"Year":1980},
{"landUse":"Tephrosia angustissima Shuttlw. ex Chapm. var. curtissii (Small ex Rydb.) Isely","ownership":"BroadSoft, Inc.","laws":"4041590676110","lon":46.6908888,"lat":9.231487,"Year":1980},
{"landUse":"Phacelia humilis Torr. & A. Gray var. humilis","ownership":"Inphi Corporation","laws":null,"lon":null,"lat":null,"Year":null},
{"landUse":"Pleuropogon R. Br.","ownership":"U.S. Global Investors, Inc.","laws":"4041593218969","lon":16.2093368,"lat":48.7720518,"Year":1979},
{"landUse":"Lecidea santae-monicae H. Magn.","ownership":"Aberdeen Japan Equity Fund, Inc. ","laws":"4017951473495","lon":28.1905018,"lat":34.6919356,"Year":1980},
{"landUse":"Ochrolechia gyalectina (Nyl.) Zahlbr.","ownership":"Omega Healthcare Investors, Inc.","laws":"4041378787873","lon":50.6657079,"lat":55.9424359,"Year":1980},
{"landUse":"Suaeda tampicensis (Standl.) Standl.","ownership":"MSG Networks Inc.","laws":"4136694408118767","lon":-7.0754952,"lat":40.4776836,"Year":1981},
{"landUse":"Leptogium (Ach.) A. Gray","ownership":null,"laws":"4017952726142073","lon":18.4622215,"lat":30.5604564,"Year":1980},
{"landUse":"Festuca brachyphylla Schult. ex Schult. & Schult. f.","ownership":"Hancock Holding Company","laws":"4041599532454","lon":50.7338713,"lat":52.211713,"Year":1980},
{"landUse":"Erigeron purpuratus Greene var. purpuratus","ownership":"Telefonica SA","laws":"4041379324007","lon":49.7274403,"lat":54.6879925,"Year":1980},
{"landUse":"Astragalus pycnostachyus A. Gray","ownership":"Cross Timbers Royalty Trust","laws":"4085329234059452","lon":6.6172697,"lat":22.302496,"Year":1979},
{"landUse":"Cyrtandra ×ramosissima Rock (pro sp.)","ownership":"Georgia Power Company","laws":"4017958698313048","lon":30.550638,"lat":47.028397,"Year":1979},
{"landUse":"Lomatium torreyi (J.M. Coult. & Rose) J.M. Coult. & Rose","ownership":"Moody's Corporation","laws":"4881889568458154","lon":38.7933106,"lat":14.1929998,"Year":1981},
{"landUse":"Luzula multiflora (Ehrh.) Lej.","ownership":null,"laws":"4012696526402717","lon":42.16964,"lat":49.0395242,"Year":1980},
{"landUse":"Draba ramulosa Rollins","ownership":"Ball Corporation","laws":"4017959899683","lon":14.7953378,"lat":-14.8258317,"Year":1979},
{"landUse":"Festuca brachyphylla Schult. ex Schult. & Schult. f. ssp. brachyphylla","ownership":"TiGenix","laws":"4634545694103","lon":38.04119,"lat":49.9521852,"Year":1979},
{"landUse":"Syringa pekinensis Rupr.","ownership":"Owens-Illinois, Inc.","laws":"4017952253402510","lon":13.151121,"lat":45.0485391,"Year":1979},
{"landUse":"Lantana depressa Small var. floridana (Moldenke) R.W. Sanders","ownership":"Senior Housing Properties Trust","laws":"4017950299084912","lon":-6.8747015,"lat":54.0481202,"Year":1980},
{"landUse":"Phlox L.","ownership":"Nuveen Georgia Quality Municipal Income Fund ","laws":"4017958081511620","lon":25.60162,"lat":44.7515479,"Year":1980},
{"landUse":"Commelina benghalensis L.","ownership":"Virtus Global Multi-Sector Income Fund","laws":"4017953226148024","lon":-6.1912334,"lat":23.583208,"Year":1980},
{"landUse":"Limosella acaulis Sessé & Moc.","ownership":"STAAR Surgical Company","laws":"4017957135320","lon":-34.5261401,"lat":32.114217,"Year":1980},
{"landUse":"Carex vexans F.J. Herm.","ownership":"Morgan Stanley","laws":"4064977342188327","lon":-18.9549753,"lat":13.6095632,"Year":1980},
{"landUse":"Bryum stirtonii Schimp.","ownership":"Legg Mason US Diversified Core ETF","laws":"4017954608882297","lon":52.0404442,"lat":-1.8409583,"Year":1980},
{"landUse":"Collinsia sparsiflora Fisch. & C.A. Mey.","ownership":"Rogers Communication, Inc.","laws":"4738393675451561","lon":45.9501067,"lat":31.5612018,"Year":1979},
{"landUse":"Nemophila spatulata Coville","ownership":"Marcus Corporation (The)","laws":"4041378608314657","lon":32.20076,"lat":63.2914986,"Year":1980},
{"landUse":"Erigeron lobatus A. Nelson","ownership":"Phibro Animal Health Corporation","laws":null,"lon":null,"lat":null,"Year":null},
{"landUse":null,"ownership":"Smith Micro Software, Inc.","laws":"4440416749443162","lon":11.5098328,"lat":-29.8355529,"Year":1980},
{"landUse":"Eriogonum eremicola J.T. Howell & Reveal","ownership":"Evoke Pharma, Inc.","laws":"4041590170312","lon":15.48333,"lat":44.7733293,"Year":1979},
{"landUse":"Erysimum odoratum Ehrh.","ownership":"Home Federal Bancorp, Inc. of Louisiana","laws":"4041370124629254","lon":63.4400274,"lat":25.456453,"Year":1980},
{"landUse":"Aspicarpa Rich.","ownership":"Timken Company (The)","laws":"4017955085450995","lon":39.948572,"lat":59.8063602,"Year":1980}]}