{
  "data": [
    {
      "landUse": "Eryngium diffusum Torr.",
      "ownership": "Virtus Investment Partners, Inc.",
      "laws": "4017951893136843"
    },
    {
      "landUse": "Lomatium farinosum (Hook.) J.M. Coult. & Rose var. hambleniae (Mathias & Constance) Schlessman",
      "ownership": "Federated Premier Intermediate Municipal Income Fund",
      "laws": "4041379867313661"
    },
    {
      "landUse": "Sagittaria lancifolia L.",
      "ownership": "Home Depot, Inc. (The)",
      "laws": null
    },
    {
      "landUse": null,
      "ownership": "Voyager Therapeutics, Inc.",
      "laws": "4041370878118"
    },
    {
      "landUse": "Astragalus beckwithii Torr. & A. Gray var. sulcatus Barneby",
      "ownership": null,
      "laws": "4749746052738446"
    },
    {
      "landUse": "Fontinalis langloisii Cardot",
      "ownership": "Destination Maternity Corporation",
      "laws": "4041599565140"
    },
    {
      "landUse": "Platycodon grandiflorus (Jacq.) A. DC.",
      "ownership": null,
      "laws": "4041590813139626"
    },
    {
      "landUse": "Castilleja revealii N.H. Holmgren",
      "ownership": "Deluxe Corporation",
      "laws": "4041373942793674"
    },
    {
      "landUse": "Phacelia demissa A. Gray",
      "ownership": "Dril-Quip, Inc.",
      "laws": "4393677447281"
    },
    {
      "landUse": "Senna pendula (Humb. & Bonpl. ex Willd.) Irwin & Barneby var. stahlii (Urb.) Irwin & Barneby",
      "ownership": "Dril-Quip, Inc.",
      "laws": "4017958531767343"
    },
    {
      "landUse": "Camissonia cardiophylla (Torr.) P.H. Raven ssp. cardiophylla",
      "ownership": "GATX Corporation",
      "laws": "4017956792546299"
    },
    {
      "landUse": "Dalea scandens (Mill.) R.T. Clausen",
      "ownership": "Buffalo Wild Wings, Inc.",
      "laws": "4017951080506"
    },
    {
      "landUse": "Buchnera americana L.",
      "ownership": "Compugen Ltd.",
      "laws": "4017959533142"
    },
    {
      "landUse": "Solidago velutina DC.",
      "ownership": "Harmony Merger Corp.",
      "laws": "4317278728344"
    },
    {
      "landUse": "Porophyllum Adans.",
      "ownership": "Yext, Inc.",
      "laws": "4017950616227"
    },
    {
      "landUse": "Brickellia californica (Torr. & A. Gray) A. Gray var. jepsonii B.L. Rob.",
      "ownership": "Superior Industries International, Inc.",
      "laws": "4041598726453"
    },
    {
      "landUse": "Verbena pinetorum Moldenke",
      "ownership": "Zogenix, Inc.",
      "laws": "4466671652708"
    },
    { "landUse": "Duranta L.", "ownership": null, "laws": "4041593256500932" },
    {
      "landUse": "Eriastrum sapphirinum (Eastw.) H. Mason ssp. dasyanthum (Brand) H. Mason",
      "ownership": "Synthetic Fixed-Income Securities, Inc.",
      "laws": "4041599289769097"
    },
    {
      "landUse": "Keckiella antirrhinoides (Benth.) Straw",
      "ownership": "Biomerica, Inc.",
      "laws": "4017954037337640"
    },
    {
      "landUse": "Bryoria spiralifera Brodo & D. Hawksw.",
      "ownership": "Global X MSCI SuperDividend EAFE ETF",
      "laws": "4041374188436218"
    },
    {
      "landUse": "Isoetes minima A.A. Eaton",
      "ownership": "Advaxis, Inc.",
      "laws": "4320997192711242"
    },
    {
      "landUse": "Nama undulatum Kunth",
      "ownership": "Copart, Inc.",
      "laws": "4017952515695299"
    },
    {
      "landUse": "Triticum vavilovii Jakubz.",
      "ownership": "Nexstar Media Group, Inc.",
      "laws": "4041378663272"
    },
    {
      "landUse": null,
      "ownership": "KBL Merger Corp. IV",
      "laws": "4017958380003014"
    },
    {
      "landUse": "Dubautia knudsenii Hillebr. ssp. filiformis G.D. Carr",
      "ownership": "Oxbridge Re Holdings Limited",
      "laws": "4336022111636396"
    },
    {
      "landUse": "Betula ×eastwoodiae Sarg. (pro sp.)",
      "ownership": "ICC Holdings, Inc.",
      "laws": "4041374238327"
    },
    {
      "landUse": "Bromus diandrus Roth ssp. diandrus",
      "ownership": "WisdomTree Barclays Interest Rate Hedged U.S. Aggregate Bond F",
      "laws": "4041598220564"
    },
    {
      "landUse": "Malaxis major (Rchb. f.) Léon ex A.D. Hawkes",
      "ownership": "The Priceline Group Inc. ",
      "laws": "4483162876217"
    },
    {
      "landUse": "Luzula multiflora (Ehrh.) Lej.",
      "ownership": "Boardwalk Pipeline Partners L.P.",
      "laws": "4041595832317970"
    },
    {
      "landUse": "Hemizonella minima (A. Gray) A. Gray",
      "ownership": "Guggenheim Taxable Municipal Managed Duration Trst",
      "laws": "4172916819322"
    },
    {
      "landUse": "Symphoricarpos ×chenaultii Rehder",
      "ownership": "Richardson Electronics, Ltd.",
      "laws": "4041370321437147"
    },
    {
      "landUse": "Delphinium treleasei Bush ex K.C. Davis",
      "ownership": "Performant Financial Corporation",
      "laws": "4041377428065"
    },
    {
      "landUse": "Platanthera sparsiflora (S. Watson) Schltr. var. ensifolia (Rydb.) Luer",
      "ownership": "Global Ship Lease, Inc.",
      "laws": "4827910275160235"
    },
    {
      "landUse": "Tayloria lingulata (Dicks.) Lindb.",
      "ownership": "Synthesis Energy Systems, Inc.",
      "laws": "4017954395345706"
    },
    {
      "landUse": "Oplismenus hirtellus (L.) P. Beauv.",
      "ownership": "Aevi Genomic Medicine, Inc.",
      "laws": "4041596851473793"
    },
    {
      "landUse": "Desmatodon leucostoma (R. Br.) Berggr.",
      "ownership": "Kayne Anderson MLP Investment Company",
      "laws": "4041598128913031"
    },
    {
      "landUse": "Calamagrostis holmii Lange",
      "ownership": "Eagle Bulk Shipping Inc.",
      "laws": "4041594126046429"
    },
    {
      "landUse": "Cordia dichotoma G. Forst.",
      "ownership": "Cooper Tire & Rubber Company",
      "laws": "4041374614036269"
    },
    {
      "landUse": "Odontonema Nees",
      "ownership": "DTE Energy Company",
      "laws": "4370995631994"
    },
    {
      "landUse": "Arctoa fulvella (Dicks.) Bruch & Schimp.",
      "ownership": "Computer Programs and Systems, Inc.",
      "laws": "4017952622066"
    },
    {
      "landUse": "Johanneshowellia puberula (S. Watson) Reveal",
      "ownership": "ADOMANI, Inc.",
      "laws": "4017959745795"
    },
    {
      "landUse": "Xylorhiza tortifolia (Torr. & A. Gray) Greene var. parashantensis N.D. Atwood & S.L. Welsh",
      "ownership": "VelocityShares Daily Inverse VIX Medium-Term ETN",
      "laws": "4017950722902599"
    },
    {
      "landUse": "Hemarthria altissima (Poir.) Stapf & C.E. Hubbard",
      "ownership": "Rexford Industrial Realty, Inc.",
      "laws": "4017958238988259"
    },
    {
      "landUse": "Trifolium clypeatum L.",
      "ownership": "Caseys General Stores, Inc.",
      "laws": "4041375054772"
    },
    {
      "landUse": "Mammillaria thornberi Orcutt",
      "ownership": "Graham Corporation",
      "laws": null
    },
    {
      "landUse": "Clematis ×jackmanii T. Moore",
      "ownership": "Ormat Technologies, Inc.",
      "laws": "4041591868328"
    },
    {
      "landUse": "Penstemon atwoodii S.L. Welsh",
      "ownership": "Tortoise Energy Independence Fund, Inc.",
      "laws": "4017950542778575"
    },
    {
      "landUse": null,
      "ownership": "Universal Health Services, Inc.",
      "laws": null
    },
    {
      "landUse": "Arabis nuttallii B.L. Rob.",
      "ownership": "Blackrock MuniHoldings Investment Quality Fund",
      "laws": "4017954424752260"
    },
    {
      "landUse": null,
      "ownership": "VelocityShares 3x Long Gold ETN",
      "laws": "4041379076915371"
    },
    {
      "landUse": "Pseudognaphalium viscosum (Kunth) W.A. Weber",
      "ownership": "Easterly Acquisition Corp.",
      "laws": null
    },
    {
      "landUse": "Centrosema virginianum (L.) Benth.",
      "ownership": "Oncobiologics, Inc.",
      "laws": "4041590916182523"
    },
    {
      "landUse": "Allium atrorubens S. Watson",
      "ownership": "Viper Energy Partners LP",
      "laws": "4041598321461"
    },
    {
      "landUse": "Hypopterygium fauriei Besch.",
      "ownership": "Microchip Technology Incorporated",
      "laws": "4017951842103"
    },
    {
      "landUse": "Sarcographa labyrinthica (Ach.) Müll. Arg.",
      "ownership": "Summit Therapeutics plc",
      "laws": "4041372895797"
    },
    {
      "landUse": "Thrinax radiata Lodd. ex Schult. & Schult. f.",
      "ownership": "Global Self Storage, Inc.",
      "laws": "4017957733470"
    },
    {
      "landUse": "Atriplex spinifera J.F. Macbr.",
      "ownership": "John Wiley & Sons, Inc.",
      "laws": "4896816650260456"
    },
    {
      "landUse": "Convallaria majalis L.",
      "ownership": "Lakeland Industries, Inc.",
      "laws": "4041376765107476"
    },
    {
      "landUse": "Bidens hawaiensis A. Gray",
      "ownership": "Cemtrex Inc.",
      "laws": null
    },
    {
      "landUse": "Trematodon ambiguus (Hedw.) Hornsch.",
      "ownership": "Synovus Financial Corp.",
      "laws": "4017951754465851"
    },
    {
      "landUse": "Verbascum densiflorum Bertol.",
      "ownership": "Bank of America Corporation",
      "laws": "4017955033336411"
    },
    {
      "landUse": "Gentianella amarella (L.) Börner ssp. heterosepala (Engelm.) J.M. Gillett",
      "ownership": "Teck Resources Ltd",
      "laws": "4111948708090814"
    },
    {
      "landUse": "Maireana aphylla (R. Br.) Paul G. Wilson",
      "ownership": "Opexa Therapeutics, Inc.",
      "laws": "4762786697269"
    },
    {
      "landUse": "Kleinhovia L.",
      "ownership": null,
      "laws": "4041594515819451"
    },
    {
      "landUse": "Galium angustifolium Nutt. ex A. Gray ssp. angustifolium",
      "ownership": "Enterprise Products Partners L.P.",
      "laws": "4041379712037"
    },
    {
      "landUse": "Arctostaphylos stanfordiana Parry",
      "ownership": "ESSA Pharma Inc.",
      "laws": "4000108562907"
    },
    {
      "landUse": "Acarospora oligospora (Nyl.) Arnold",
      "ownership": "Acadia Healthcare Company, Inc.",
      "laws": "4623980480335126"
    },
    {
      "landUse": "Silphium asteriscus L. var. asteriscus",
      "ownership": "Principal Millennials Index ETF",
      "laws": "4842229283925"
    },
    {
      "landUse": "Psilactis asteroides A. Gray",
      "ownership": "Yingli Green Energy Holding Company Limited",
      "laws": "4041591151394"
    },
    {
      "landUse": "Delphinium polycladon Eastw.",
      "ownership": "Blackrock Corporate High Yield Fund, Inc.",
      "laws": "4116158122168"
    },
    {
      "landUse": "Bellardia trixago (L.) All.",
      "ownership": "General Finance Corporation",
      "laws": "4017955471768"
    },
    {
      "landUse": "Hesperochiron S. Watson",
      "ownership": "Piper Jaffray Companies",
      "laws": "4311813599476"
    },
    {
      "landUse": null,
      "ownership": "MIND C.T.I. Ltd.",
      "laws": "4812150673436"
    },
    {
      "landUse": "Arabis suffrutescens S. Watson var. horizontalis (Greene) Rollins",
      "ownership": "Pacific Coast Oil Trust",
      "laws": "4041375242179"
    },
    {
      "landUse": "Pinus ponderosa Lawson & C. Lawson var. washoensis (H. Mason & Stockw.) J.R. Haller & Vivrette",
      "ownership": "Eros International PLC",
      "laws": "4503797583803"
    },
    {
      "landUse": "Lasthenia coronaria (Nutt.) Ornduff",
      "ownership": "Anixter International Inc.",
      "laws": "4041597782240392"
    },
    {
      "landUse": "Dudleya cymosa (Lem.) Britton & Rose ssp. crebrifolia K.M. Nakai & Verity",
      "ownership": "iSectors Post-MPT Growth ETF",
      "laws": "4041378142384"
    },
    {
      "landUse": "Lotus argophyllus (A. Gray) Greene var. argenteus Dunkle",
      "ownership": "MannKind Corporation",
      "laws": "4824648252004"
    },
    {
      "landUse": "Rhizocarpon tetramerum (Vain.) Vain.",
      "ownership": "FlexShares Credit-Scored US Long Corporate Bond Index Fund",
      "laws": "4041595044488"
    },
    {
      "landUse": "Withania Pauquy",
      "ownership": "Spok Holdings, Inc.",
      "laws": "4041591149393838"
    },
    {
      "landUse": "Epidendrum ramosum Jacq.",
      "ownership": "Global X Millennials Thematic ETF",
      "laws": "4041376557993182"
    },
    {
      "landUse": "Lobelia amoena Michx.",
      "ownership": null,
      "laws": "4041594408361"
    },
    {
      "landUse": "Festuca brachyphylla Schult. ex Schult. & Schult. f. ssp. brachyphylla",
      "ownership": "Pope Resources",
      "laws": "4017955985197"
    },
    {
      "landUse": "Hyperbaena laurifolia (Poir.) Urb.",
      "ownership": "Cinemark Holdings Inc",
      "laws": "4041590213736963"
    },
    {
      "landUse": "Warnockia M.W. Turner",
      "ownership": "Hawaiian Telcom Holdco, Inc.",
      "laws": null
    },
    {
      "landUse": "Penstemon pruinosus Douglas ex Lindl.",
      "ownership": "Arch Capital Group Ltd.",
      "laws": "4041370408166049"
    },
    {
      "landUse": "Hedysarum alpinum L.",
      "ownership": "Hess Corporation",
      "laws": "4017952320903425"
    },
    {
      "landUse": "Usnea fragilescens Hav. ex Lynge var. mollis (Vain.) Clerc",
      "ownership": "Fenix Parts, Inc.",
      "laws": "4181516857558"
    },
    {
      "landUse": "Agropyron cristatum (L.) Gaertn. ssp. cristatum",
      "ownership": "Ultra Clean Holdings, Inc.",
      "laws": null
    },
    {
      "landUse": "Cyperus elegans L.",
      "ownership": "PIMCO Municipal Income Fund",
      "laws": "4017957260046259"
    },
    {
      "landUse": "Silene multinervia S. Watson",
      "ownership": "First South Bancorp Inc",
      "laws": "4097478475041"
    },
    {
      "landUse": "Hyeronima Allemao",
      "ownership": "W.P. Carey Inc.",
      "laws": "4041598601755"
    },
    {
      "landUse": "Rhynchospora uniflora Boeckeler",
      "ownership": "Andina Acquisition Corp. II",
      "laws": null
    },
    {
      "landUse": "Endolepis Torr.",
      "ownership": "PPlus Trust",
      "laws": "4002218830518070"
    },
    {
      "landUse": "Catopsis Griseb.",
      "ownership": "Xerox Corporation",
      "laws": "4017958726627393"
    },
    {
      "landUse": "Euthamia galetorum Greene",
      "ownership": "Nuveen NASDAQ 100 Dynamic Overwrite Fund",
      "laws": "4041377266379879"
    },
    {
      "landUse": "Braya glabella Richardson ssp. purpurascens (R. Br.) Cody",
      "ownership": "ServiceMaster Global Holdings, Inc.",
      "laws": "4041592112881734"
    },
    {
      "landUse": "Cymbopogon refractus (R. Br.) A. Camus",
      "ownership": "Home BancShares, Inc.",
      "laws": "4041376048864"
    },
    {
      "landUse": "Erigeron eatonii A. Gray var. eatonii",
      "ownership": "SciClone Pharmaceuticals, Inc.",
      "laws": "4273575394142"
    },
    {
      "landUse": "Lomatium watsonii (J.M. Coult. & Rose) J.M. Coult. & Rose",
      "ownership": "Liberty Media Corporation",
      "laws": "4041595917691"
    },
    {
      "landUse": "Erigeron hultenii Spongberg",
      "ownership": null,
      "laws": "4017952670110977"
    },
    {
      "landUse": "Neurolaena lobata (L.) Cass.",
      "ownership": "National CineMedia, Inc.",
      "laws": "4102723265450"
    },
    {
      "landUse": "Empetrum eamesii Fernald & Wiegand",
      "ownership": "SJW Group",
      "laws": "4085160667285680"
    },
    {
      "landUse": "Sarcographa medusulina (Nyl.) Müll. Arg.",
      "ownership": "AmTrust Financial Services, Inc.",
      "laws": "4012032391308302"
    },
    {
      "landUse": "Eleocharis quadrangulata (Michx.) Roem. & Schult.",
      "ownership": "Hartford Financial Services Group, Inc. (The)",
      "laws": "4447912815841"
    },
    {
      "landUse": "Penstemon confertus Douglas ex Lindl.",
      "ownership": "Liberty Tax, Inc.",
      "laws": "4017955088422"
    },
    {
      "landUse": "Trichothelium Müll. Arg.",
      "ownership": "First Financial Northwest, Inc.",
      "laws": "4017950072732851"
    },
    {
      "landUse": "Margaranthus solanaceus Schltdl.",
      "ownership": "CryoLife, Inc.",
      "laws": "4017957183096860"
    },
    {
      "landUse": "Matteuccia Todaro",
      "ownership": "Renasant Corporation",
      "laws": "4041597622448"
    },
    {
      "landUse": "Lygodesmia juncea (Pursh) D. Don ex Hook.",
      "ownership": "Holly Energy Partners, L.P.",
      "laws": null
    },
    {
      "landUse": "Didymodon tophaceus (Brid.) Lisa",
      "ownership": "Cohen & Steers Total Return Realty Fund, Inc.",
      "laws": "4017958115424618"
    },
    {
      "landUse": "Oxytropis campestris (L.) DC.",
      "ownership": "Southwest Bancorp, Inc.",
      "laws": "4017955421592880"
    },
    {
      "landUse": "Phyllanthus abnormis Baill.",
      "ownership": "Simon Property Group, Inc.",
      "laws": "4041593292428"
    },
    {
      "landUse": "Astragalus salmonis M.E. Jones",
      "ownership": "MercadoLibre, Inc.",
      "laws": "4041592590052048"
    },
    {
      "landUse": "Galium glabrescens (Ehrend.) Dempster & Ehrend. ssp. harticum Dempster & Ehrend.",
      "ownership": "Endurance International Group Holdings, Inc.",
      "laws": "4987240988356"
    },
    {
      "landUse": "Scleria lacustris C. Wright",
      "ownership": "McCormick & Company, Incorporated",
      "laws": "4041378600260049"
    },
    {
      "landUse": "Psoroma Michx.",
      "ownership": "PureFunds ETFx HealthTech ETF",
      "laws": null
    },
    {
      "landUse": "Eriochloa polystachya Kunth",
      "ownership": "Canadian Imperial Bank of Commerce",
      "laws": "4354600204395074"
    },
    {
      "landUse": "Mentzelia multiflora (Nutt.) A. Gray var. integra M.E. Jones",
      "ownership": "Associated Banc-Corp",
      "laws": "4901464377059795"
    },
    {
      "landUse": "Monarda fistulosa L. ssp. fistulosa var. rubra A. Gray",
      "ownership": "Cellectar Biosciences, Inc.",
      "laws": "4017956767156561"
    },
    {
      "landUse": "Taenidia montana (Mack.) Cronquist",
      "ownership": "Ocwen Financial Corporation",
      "laws": "4041596399923"
    },
    {
      "landUse": "Phedimus aizoon (L.) 't Hart",
      "ownership": "VIVUS, Inc.",
      "laws": null
    },
    {
      "landUse": "Cladonia strepsilis (Ach.) Grognot",
      "ownership": "Synthetic Fixed-Income Securities, Inc.",
      "laws": "4041593565815"
    },
    {
      "landUse": "Arctostaphylos nevadensis A. Gray",
      "ownership": "CB Financial Services, Inc.",
      "laws": "4017951881515"
    },
    {
      "landUse": "Senna artemisioides (Gaudich. ex DC.) Randell ssp. helmsii (Symon) Randell",
      "ownership": "Fly Leasing Limited",
      "laws": "4103684589219"
    },
    {
      "landUse": "Philonotis fontana (Hedw.) Brid. var. caespitosa (Jur.) Schimp.",
      "ownership": null,
      "laws": "4041593329644345"
    },
    {
      "landUse": "Hygrohypnum bestii (Renauld & Bryhn) Broth.",
      "ownership": "ClearBridge All Cap Growth ETF",
      "laws": "4300037702172512"
    },
    {
      "landUse": "Solorina saccata (L.) Ach.",
      "ownership": "Optibase Ltd.",
      "laws": "4041377454808382"
    },
    {
      "landUse": "Platismatia lacunosa (Ach.) W.L. Culb. & C.F. Culb.",
      "ownership": "The Kraft Heinz Company",
      "laws": "4041379125636"
    },
    {
      "landUse": "Cologania pulchella Kunth",
      "ownership": null,
      "laws": "4041372534220831"
    },
    {
      "landUse": null,
      "ownership": "DST Systems, Inc.",
      "laws": "4041595732171360"
    },
    {
      "landUse": "Corymbia ficifolia (F. Muell.) K.D. Hill & L.A.S. Johnson",
      "ownership": "Willis Towers Watson Public Limited Company",
      "laws": "4041378088249"
    },
    {
      "landUse": "Equisetum laevigatum A. Braun",
      "ownership": "BeiGene, Ltd.",
      "laws": "4041373483973"
    },
    {
      "landUse": "Crepis occidentalis Nutt. ssp. pumila (Rydb.) Babc. & Stebbins",
      "ownership": null,
      "laws": "4041379555592"
    },
    {
      "landUse": "Skimmia Thunb.",
      "ownership": "Select Energy Services, Inc.",
      "laws": "4017953597170466"
    },
    {
      "landUse": "Carex microrhyncha Mack.",
      "ownership": "Chart Industries, Inc.",
      "laws": null
    },
    {
      "landUse": "Macrothelypteris (H. Itô) Ching",
      "ownership": "Model N, Inc.",
      "laws": "4715665875745"
    },
    {
      "landUse": "Coptis aspleniifolia Salisb.",
      "ownership": "CVB Financial Corporation",
      "laws": "4889435974629384"
    },
    {
      "landUse": "Clematis hirsutissima Pursh",
      "ownership": "SGOCO Group, Ltd",
      "laws": null
    },
    {
      "landUse": "Hylotelephium telephium (L.) H. Ohba",
      "ownership": "VictoryShares US Discovery Enhanced Volatility Wtd ETF",
      "laws": "4041594293300"
    },
    {
      "landUse": "Iris ×fulvala Dykes",
      "ownership": "Invesco Quality Municipal Income Trust",
      "laws": "4041372386001107"
    },
    {
      "landUse": "Salix lasiolepis Benth.",
      "ownership": "Korea Fund, Inc. (The)",
      "laws": "4017956126007190"
    },
    {
      "landUse": "Crataegus ancisa Beadle",
      "ownership": "W&T Offshore, Inc.",
      "laws": "4041596330363805"
    },
    {
      "landUse": "Quercus frainetto Ten.",
      "ownership": "The Gabelli Healthcare & Wellness Trust",
      "laws": "4041599449514342"
    },
    {
      "landUse": "Karwinskia Zucc.",
      "ownership": "National General Holdings Corp",
      "laws": "4017953832368420"
    },
    {
      "landUse": "Xylococcus bicolor Nutt.",
      "ownership": "Ashford Hospitality Trust Inc",
      "laws": "4041374704001330"
    },
    {
      "landUse": "Borrichia ×cubana Britton & S.F. Blake (pro sp.)",
      "ownership": "Global Medical REIT Inc.",
      "laws": "4017952879955"
    },
    {
      "landUse": "Pseudolarix kaempferi (Lamb.) Gordon",
      "ownership": "Alexander & Baldwin Holdings, Inc.",
      "laws": "4041375331352"
    },
    {
      "landUse": "Clauzadea Hafellner & Bellem.",
      "ownership": "Kyocera Corporation",
      "laws": "4017952128250193"
    },
    {
      "landUse": "Cladonia scabriuscula (Delise) Nyl.",
      "ownership": "LCI Industries ",
      "laws": "4017959630817658"
    },
    {
      "landUse": "Huperzia aqualupiana (Spring) Rothm.",
      "ownership": "Smart Sand, Inc.",
      "laws": "4017952717973"
    },
    {
      "landUse": "Acacia anegadensis Britton [excluded]",
      "ownership": "TCF Financial Corporation",
      "laws": "4017956010599"
    },
    {
      "landUse": "Physalis virginiana Mill. var. campaniforma Waterf.",
      "ownership": "MVC Capital, Inc.",
      "laws": "4329043649129257"
    },
    {
      "landUse": "Isoetes ×truncata (A.A. Eaton) Clute (pro sp.)",
      "ownership": "Tronox Limited",
      "laws": "4041376007983098"
    },
    {
      "landUse": "Bryum lisae De Not.",
      "ownership": "Crocs, Inc.",
      "laws": "4072035034091679"
    },
    {
      "landUse": "Trillium chloropetalum (Torr.) Howell var. giganteum (Hook. & Arn.) Munz",
      "ownership": "James River Group Holdings, Ltd.",
      "laws": "4041597407956"
    },
    {
      "landUse": "Dendrophthora flagelliformis (Lam.) Krug & Urb.",
      "ownership": "Waddell & Reed Financial, Inc.",
      "laws": null
    },
    {
      "landUse": "Lagophylla diabolensis B.G. Baldwin",
      "ownership": "Chesapeake Granite Wash Trust",
      "laws": "4857919191154"
    },
    {
      "landUse": "Verrucaria submuralis Nyl.",
      "ownership": "Voya Global Advantage and Premium Opportunity Fund",
      "laws": null
    },
    {
      "landUse": "Polygonum hirsutum Walter",
      "ownership": "Medtronic plc",
      "laws": "4041379429707"
    },
    {
      "landUse": "Atriplex torreyi (S. Watson) S. Watson",
      "ownership": "Estee Lauder Companies, Inc. (The)",
      "laws": null
    },
    {
      "landUse": "Minuartia L.",
      "ownership": "Sage Therapeutics, Inc.",
      "laws": "4017951973842351"
    },
    {
      "landUse": "Populus ×brayshawii B. Boivin",
      "ownership": "Arbor Realty Trust",
      "laws": "4041592620819556"
    },
    {
      "landUse": "Dioscorea convolvulacea Cham. & Schltdl.",
      "ownership": "TransAlta Corporation",
      "laws": null
    },
    {
      "landUse": "Distichium Bruch & Schimp.",
      "ownership": "Otelco Inc.",
      "laws": "4993051014522"
    },
    {
      "landUse": "Arnica dealbata (A. Gray) B.G. Baldw.",
      "ownership": "Magna International, Inc.",
      "laws": "4017951922418"
    },
    {
      "landUse": "Carex shortiana Dewey",
      "ownership": "Enterprise Bancorp Inc",
      "laws": "4017950494915365"
    },
    {
      "landUse": "Packera malmstenii (S.F. Blake ex Tidestr.) Kartesz",
      "ownership": "OneBeacon Insurance Group, Ltd.",
      "laws": "4017954487252"
    },
    {
      "landUse": "Faidherbia albida (Delile) A. Chev.",
      "ownership": "Artisan Partners Asset Management Inc.",
      "laws": "4041590580074170"
    },
    {
      "landUse": "Arenaria congesta Nutt. var. wheelerensis Maguire",
      "ownership": "Endocyte, Inc.",
      "laws": "4041596215764"
    },
    {
      "landUse": "Dactylis glomerata L.",
      "ownership": "India Fund, Inc. (The)",
      "laws": "4041593435308"
    },
    {
      "landUse": "Gomphrena nealleyi J.M. Coult. & Fisher",
      "ownership": "Seaspan Corporation",
      "laws": "4041591243761"
    },
    {
      "landUse": "Trifolium depauperatum Desv.",
      "ownership": "DexCom, Inc.",
      "laws": "4041596500892"
    },
    {
      "landUse": "Cyrtandra waianaeensis H. St. John & Storey",
      "ownership": "Aspen Insurance Holdings Limited",
      "laws": "4041599617412"
    },
    {
      "landUse": "Sanicula graveolens Poepp. ex DC.",
      "ownership": "Pacific Ethanol, Inc.",
      "laws": "4333072679872"
    },
    {
      "landUse": "Artemisia cana Pursh ssp. cana",
      "ownership": "Splunk Inc.",
      "laws": "4017955324082"
    },
    {
      "landUse": "Marshallia mohrii Beadle & F.E. Boynt.",
      "ownership": "State Street Corporation",
      "laws": "4041371226077"
    },
    {
      "landUse": "Monardella odoratissima Benth. ssp. discolor (Greene) Epling",
      "ownership": "Wendy's Company (The)",
      "laws": "4280827206784"
    },
    {
      "landUse": "Berula erecta (Huds.) Coville",
      "ownership": "Kinross Gold Corporation",
      "laws": "4041595339714"
    },
    {
      "landUse": "Sullivantia sullivantii (Torr. & A. Gray) Britton",
      "ownership": null,
      "laws": "4041375950131572"
    },
    {
      "landUse": "Eriogonum batemanii M.E. Jones",
      "ownership": "Triton International Limited",
      "laws": "4078084670019"
    },
    {
      "landUse": "Salvia subincisa Benth.",
      "ownership": "FlexShares Real Assets Allocation Index Fund",
      "laws": "4017955680874730"
    },
    {
      "landUse": "Phlox kelseyi Britton ssp. kelseyi",
      "ownership": "China Recycling Energy Corporation",
      "laws": "4017953163848362"
    },
    {
      "landUse": "Flavoparmelia baltimorensis (Gyel. & Foriss) Hale",
      "ownership": "Elbit Imaging Ltd.",
      "laws": "4017958595837404"
    },
    {
      "landUse": "Paspalum fasciculatum Willd. ex Flueggé",
      "ownership": "KCG Holdings, Inc.",
      "laws": "4041376503553"
    },
    {
      "landUse": "Draba carnosula O.E. Schulz",
      "ownership": "Cypress Semiconductor Corporation",
      "laws": "4041595898792"
    },
    {
      "landUse": "Eriophorum gracile W.D.J. Koch",
      "ownership": "Colony Starwood Homes",
      "laws": "4733881047372130"
    },
    {
      "landUse": "Dianthus repens Willd.",
      "ownership": null,
      "laws": "4041590416261108"
    },
    {
      "landUse": "Cynanchum northropiae (Schltr.) Alain",
      "ownership": "Lombard Medical, Inc.",
      "laws": "4133062885325516"
    },
    {
      "landUse": "Machaonia woodburyana Acev.-Rodr.",
      "ownership": "X-Links Gold Shares Covered Call ETN",
      "laws": "4041379025389801"
    },
    {
      "landUse": "Glycyrrhiza glabra L.",
      "ownership": "IES Holdings, Inc.",
      "laws": "4017958371065410"
    },
    {
      "landUse": "Bryum pseudocapillare Besch.",
      "ownership": "Kentucky First Federal Bancorp",
      "laws": "4017953292109"
    },
    {
      "landUse": "Eriophyllum lanatum (Pursh) Forbes var. lanatum",
      "ownership": "Panhandle Royalty Company",
      "laws": "4041594510737"
    },
    {
      "landUse": "Penstemon venustus Douglas ex Lindl.",
      "ownership": "Farmers & Merchants Bancorp, Inc.",
      "laws": "4329086003726119"
    },
    {
      "landUse": "Isocoma tenuisecta Greene",
      "ownership": "Neff Corporation",
      "laws": "4041591519716865"
    },
    {
      "landUse": "Leucanthemum Mill.",
      "ownership": "News Corporation",
      "laws": "4041373898322478"
    },
    {
      "landUse": "Rauvolfia serpentina (L.) Benth. ex Kurz",
      "ownership": "CB Financial Services, Inc.",
      "laws": "4041378030410628"
    },
    {
      "landUse": "Cyanea lanceolata (Gaudich.) Lammers, Givnish & Sytsma",
      "ownership": "Great Ajax Corp.",
      "laws": "4875357790071"
    },
    {
      "landUse": "Eriogonum kennedyi Porter ex S. Watson",
      "ownership": "Dell Technologies Inc.",
      "laws": "4975694308965"
    },
    {
      "landUse": "Solidago canadensis L. var. lepida (DC.) Cronquist",
      "ownership": null,
      "laws": "4041593408243910"
    },
    {
      "landUse": "Delphinium viridescens Leiberg",
      "ownership": "Grifols, S.A.",
      "laws": "4017953588720"
    },
    { "landUse": null, "ownership": "CRISPR Therapeutics AG", "laws": null },
    {
      "landUse": "Hypogymnia lugubris (Pers.) Krog",
      "ownership": null,
      "laws": "4041595101312"
    },
    {
      "landUse": "Splachnum vasculosum Hedw. var. vasculosum",
      "ownership": "Equity Commonwealth",
      "laws": "4017954879417"
    },
    {
      "landUse": "Houstonia acerosa (A. Gray) A. Gray ex Benth. & Hook. f. var. acerosa",
      "ownership": "Arconic Inc.",
      "laws": "4041373721500902"
    },
    {
      "landUse": "Rubus pervarius (L.H. Bailey) L.H. Bailey",
      "ownership": "Aaron's,  Inc.",
      "laws": "4041375022481534"
    },
    {
      "landUse": "Chloris elata Desv.",
      "ownership": "Euro Tech Holdings Company Limited",
      "laws": "4041374635670"
    },
    {
      "landUse": "Lilaea Bonpl.",
      "ownership": "Coca-Cola European Partners plc",
      "laws": "4041599129038984"
    },
    {
      "landUse": "Centaurium Hill",
      "ownership": null,
      "laws": "4600840686789"
    },
    { "landUse": null, "ownership": "Wells Fargo & Company", "laws": null },
    {
      "landUse": "Strongylodon Vogel",
      "ownership": "CF Industries Holdings, Inc.",
      "laws": "4041378825293"
    },
    {
      "landUse": "Amelanchier laevis Wiegand",
      "ownership": "WisdomTree China ex-State-Owned Enterprises Fund",
      "laws": "4017957137193"
    },
    {
      "landUse": "Dicerandra Benth.",
      "ownership": "GWG Holdings, Inc",
      "laws": "4017957898539"
    },
    {
      "landUse": "Arenaria congesta Nutt. var. suffrutescens (A. Gray) B.L. Rob.",
      "ownership": "DryShips Inc.",
      "laws": "4837101573682"
    },
    {
      "landUse": "Astragalus miser Douglas ex Hook.",
      "ownership": "Owens-Illinois, Inc.",
      "laws": "4041378317569377"
    },
    {
      "landUse": "Phlox opalensis Dorn",
      "ownership": "PICO Holdings Inc.",
      "laws": "4919536894256358"
    },
    {
      "landUse": "Orphniospora Körb.",
      "ownership": "iShares MSCI ACWI Index Fund",
      "laws": "4017954780466"
    },
    {
      "landUse": "Herpetineuron (Müll. Hal.) Cardot",
      "ownership": "Marten Transport, Ltd.",
      "laws": "4041591678213712"
    },
    {
      "landUse": "Dichelyma Myr.",
      "ownership": "Celadon Group, Inc.",
      "laws": "4041379148053912"
    },
    {
      "landUse": "Ramalina stenospora Müll. Arg.",
      "ownership": "PowerShares QQQ Trust, Series 1",
      "laws": "4041371739240404"
    },
    {
      "landUse": "Cyperus compressus L.",
      "ownership": "Vuzix Corporation",
      "laws": "4041374870740257"
    },
    {
      "landUse": "Stachys cordata Riddell",
      "ownership": "Wells Fargo & Company",
      "laws": null
    },
    {
      "landUse": "Cyrtandra ×mannii H. St. John & Storey (pro sp.)",
      "ownership": "Coca-Cola Company (The)",
      "laws": "4017956722288046"
    },
    {
      "landUse": "Yeatesia platystegia (Torr.) Hilsenb.",
      "ownership": "Avangrid, Inc.",
      "laws": "4017954528406474"
    },
    {
      "landUse": "Penstemon degeneri Crosswh.",
      "ownership": null,
      "laws": "4017958940900"
    },
    {
      "landUse": "Heteranthera rotundifolia (Kunth) Griseb.",
      "ownership": "Barclays PLC",
      "laws": null
    },
    {
      "landUse": "Geranium arboreum A. Gray",
      "ownership": "U.S. Bancorp",
      "laws": "4041592606966"
    },
    {
      "landUse": "Ephedra coryi E.L. Reed",
      "ownership": "Aurinia Pharmaceuticals Inc",
      "laws": "4041371437166323"
    },
    {
      "landUse": "Carex ×subsalina Lepage",
      "ownership": "Horizons DAX Germany ETF",
      "laws": "4041377917498904"
    },
    {
      "landUse": "Platydictya minutissima (Sull. & Lesq.) H.A. Crum",
      "ownership": "Rogers Communication, Inc.",
      "laws": "4017956057756"
    },
    {
      "landUse": "Garcinia kola Heckel",
      "ownership": "First South Bancorp Inc",
      "laws": "4041595169068352"
    },
    {
      "landUse": "Forsteronia G. Mey.",
      "ownership": "Lattice Semiconductor Corporation",
      "laws": "4741830488872009"
    },
    {
      "landUse": "Cardamine oligosperma Nutt. var. kamtschatica (Regel) Detling",
      "ownership": "Triumph Bancorp, Inc.",
      "laws": "4041378954900968"
    },
    {
      "landUse": "Setaria setosa (Sw.) P. Beauv. var. setosa",
      "ownership": null,
      "laws": "4017958483718468"
    },
    {
      "landUse": "Hypnum cupressiforme Hedw. var. julaceum Brid.",
      "ownership": "Loral Space and Communications, Inc.",
      "laws": "4017952253852920"
    },
    {
      "landUse": "Wyethia amplexicaulis (Nutt.) Nutt.",
      "ownership": "Globant S.A.",
      "laws": "4041591477583"
    },
    {
      "landUse": "Potamogeton illinoensis Morong",
      "ownership": "Teekay Offshore Partners L.P.",
      "laws": "4017950217791770"
    },
    {
      "landUse": "Tabebuia rosea (Bertol.) DC.",
      "ownership": "Hudson Pacific Properties, Inc.",
      "laws": "4041379993142885"
    },
    {
      "landUse": "Halenia deflexa (Sm.) Griseb.",
      "ownership": "Euroseas Ltd.",
      "laws": "4017958836453342"
    },
    {
      "landUse": "Bonamia repens (I.M. Johnst.) Austin & Staples",
      "ownership": "BioShares Biotechnology Products Fund",
      "laws": "4041370987992"
    },
    {
      "landUse": "Xanthium strumarium L. var. canadense (Mill.) Torr. & A. Gray",
      "ownership": "OMNOVA Solutions Inc.",
      "laws": "4041379917396"
    },
    {
      "landUse": "Rhynchospora pineticola C.B. Clarke",
      "ownership": "Kohl's Corporation",
      "laws": "4041590949335"
    },
    {
      "landUse": "Anomodon viticulosus (Hedw.) Hook. & Taylor",
      "ownership": "DXC Technology Company",
      "laws": "4041591523386"
    },
    {
      "landUse": "Malaxis spicata Sw.",
      "ownership": "PowerShares DWA Momentum & Low Volatility Rotation Portfolio",
      "laws": "4017955217195"
    },
    {
      "landUse": "Schoenoplectiella ×magrathii F.M. Sm. & P.M. McKenzie",
      "ownership": "RELX PLC",
      "laws": "4041597630229225"
    },
    {
      "landUse": "Carex albicans Willd. ex Spreng. var. albicans",
      "ownership": "Chesapeake Energy Corporation",
      "laws": "4934149956951"
    },
    {
      "landUse": "Parmelinopsis swinscowii (Hale) Elix & Hale",
      "ownership": "Tekla Life Sciences Investors",
      "laws": "4041379644917"
    },
    {
      "landUse": "Lecidea albofuscescens Nyl.",
      "ownership": "Cedar Realty Trust, Inc.",
      "laws": "4186826030472795"
    },
    {
      "landUse": "Argythamnia humilis (Engelm. & A. Gray) Müll. Arg. var. laevis (Torr.) Shinners",
      "ownership": "Cousins Properties Incorporated",
      "laws": "4817259541353865"
    },
    {
      "landUse": "Bromus polyanthus Scribn. ex Shear",
      "ownership": "PROS Holdings, Inc.",
      "laws": "4041590832643731"
    },
    {
      "landUse": "Agalinis tenuifolia (Vahl) Raf. var. polyphylla (Small) Pennell",
      "ownership": "Total System Services, Inc.",
      "laws": null
    },
    {
      "landUse": "Astragalus miser Douglas ex Hook. var. hylophilus (Rydb.) Barneby",
      "ownership": "Atlas Financial Holdings, Inc.",
      "laws": null
    },
    {
      "landUse": "Eutrochium dubium (Willd. ex Poir.) E.E. Lamont",
      "ownership": "Chimera Investment Corporation",
      "laws": "4017955176524"
    },
    {
      "landUse": "Galactia volubilis (L.) Britton",
      "ownership": "Continental Building Products, Inc.",
      "laws": "4953923939694"
    },
    {
      "landUse": "Schizachyrium sanguineum (Retz.) Alston",
      "ownership": "Farmers National Banc Corp.",
      "laws": "4418562238045949"
    },
    {
      "landUse": "Heuchera parvifolia Nutt. ex Torr. & A. Gray",
      "ownership": "Dreyfus Strategic Municipal Bond Fund, Inc.",
      "laws": "4017958652091"
    },
    {
      "landUse": "Pennisetum advena Wipff & Veldkamp",
      "ownership": "Atlassian Corporation Plc",
      "laws": "4041590509543"
    },
    {
      "landUse": "Brachychiton Schott & Endl.",
      "ownership": "National Holdings Corporation",
      "laws": "4861586161813"
    },
    {
      "landUse": "Pritchardia limahuliensis H. St. John",
      "ownership": "Pier 1 Imports, Inc.",
      "laws": "4762796953694"
    },
    {
      "landUse": "Sanicula hoffmannii (Munz) Shan & Constance (pro hybr.)",
      "ownership": "Manhattan Associates, Inc.",
      "laws": "4041590191193"
    },
    {
      "landUse": "Stellaria graminea L.",
      "ownership": "Dominion Energy, Inc.",
      "laws": "4041376285243"
    },
    {
      "landUse": "Carex gmelinii Hook. & Arn.",
      "ownership": "China Online Education Group",
      "laws": "4041373372911341"
    },
    {
      "landUse": "Suaeda tampicensis (Standl.) Standl.",
      "ownership": "Medley Capital Corporation",
      "laws": "4041593223563"
    },
    {
      "landUse": "Illicium verum Hook. f.",
      "ownership": "Entertainment Gaming Asia Incorporated",
      "laws": "4041596624320"
    },
    {
      "landUse": "Leptodontium excelsum (Sull.) E. Britton",
      "ownership": "Saratoga Investment Corp",
      "laws": "4041373778265"
    },
    {
      "landUse": "Securidaca L.",
      "ownership": "Goldman Sachs Group, Inc. (The)",
      "laws": "4017958886244"
    },
    {
      "landUse": "Deparia cataracticola M. Kato",
      "ownership": "DAQO New Energy Corp.",
      "laws": "4041377920525"
    },
    {
      "landUse": "Stenotus armerioides Nutt.",
      "ownership": "Concordia International Corp.",
      "laws": "4444276706455542"
    },
    {
      "landUse": "Lipochaeta kamolensis O. Deg. & Sherff",
      "ownership": "Alliant Energy Corporation",
      "laws": "4041596347610115"
    },
    {
      "landUse": "Camassia leichtlinii (Baker) S. Watson ssp. leichtlinii",
      "ownership": "Entergy Louisiana, Inc.",
      "laws": "4041373397328471"
    },
    {
      "landUse": null,
      "ownership": "USG Corporation",
      "laws": "4455543607882660"
    },
    {
      "landUse": "Tribulus terrestris L.",
      "ownership": null,
      "laws": "4041375794853555"
    },
    {
      "landUse": "Cryptantha rugulosa (Payson) Payson",
      "ownership": "Blackrock Global",
      "laws": "4041591144365"
    },
    {
      "landUse": "Leptosiphon bicolor Nutt.",
      "ownership": "Calamos Convertible and High Income Fund",
      "laws": null
    },
    {
      "landUse": "Stephanomeria fluminea Gottlieb",
      "ownership": "Brown Forman Corporation",
      "laws": "4041590551834"
    },
    {
      "landUse": "Townsendia florifer (Hook.) A. Gray",
      "ownership": "Kenon Holdings Ltd.",
      "laws": "4601065741846"
    },
    {
      "landUse": "Salvia regla Cav.",
      "ownership": "USA Truck, Inc.",
      "laws": "4041599267176"
    },
    {
      "landUse": "Iris lacustris Nutt.",
      "ownership": null,
      "laws": "4017952273711015"
    },
    {
      "landUse": "Eleutherococcus Maxim.",
      "ownership": "Brookdale Senior Living Inc.",
      "laws": "4308613259541"
    },
    {
      "landUse": "Alectoria sarmentosa (Ach.) Ach. ssp. sarmentosa",
      "ownership": "Eagle Pharmaceuticals, Inc.",
      "laws": "4041379639297"
    },
    {
      "landUse": "Tridens ambiguus (Elliott) Schult.",
      "ownership": "Federal Agricultural Mortgage Corporation",
      "laws": "4041594886103"
    },
    {
      "landUse": "Ophiopogon japonicus (L. f.) Ker Gawl.",
      "ownership": "Carlisle Companies Incorporated",
      "laws": "4041376238107277"
    },
    {
      "landUse": "Polycarpon L.",
      "ownership": "Hubbell Inc",
      "laws": "4394644691050"
    },
    {
      "landUse": "Sorghastrum nutans (L.) Nash",
      "ownership": null,
      "laws": "4017958954528164"
    },
    {
      "landUse": "Clematis occidentalis (Hornem.) DC. var. occidentalis",
      "ownership": "Reading International Inc",
      "laws": "4041374331888208"
    },
    {
      "landUse": "Xylographa vitiligo (Ach.) J.R. Laundon",
      "ownership": "Harte-Hanks, Inc.",
      "laws": "4702159963580458"
    },
    {
      "landUse": "Macradenia lutescens R. Br.",
      "ownership": "Echelon Corporation",
      "laws": null
    },
    {
      "landUse": "Weigela florida (Bunge) A. DC.",
      "ownership": "AVX Corporation",
      "laws": "4041590567772"
    },
    {
      "landUse": "Acer griseum (Franch.) Pax",
      "ownership": "Southern California Edison Company",
      "laws": "4041370987364"
    },
    {
      "landUse": "Cyperus cyperinus (Retz.) Sur.",
      "ownership": "Banco Bradesco Sa",
      "laws": "4041596700963"
    },
    {
      "landUse": "Eritrichium nanum (Vill.) Schrad. ex Gaudin",
      "ownership": "WGL Holdings Inc",
      "laws": "4684141777968"
    },
    {
      "landUse": "Geranium kauaiense (Rock) H. St. John",
      "ownership": "CBRE Group, Inc.",
      "laws": "4041597410331"
    },
    {
      "landUse": "Calotis cuneifolia R. Br.",
      "ownership": "Apple Hospitality REIT, Inc.",
      "laws": "4017952885796"
    },
    {
      "landUse": "Malosma laurina (Nutt.) Nutt. ex Abrams",
      "ownership": "E.I. du Pont de Nemours and Company",
      "laws": "4041599054590"
    },
    {
      "landUse": "Koerberia biformis A. Massal.",
      "ownership": "Thermo Fisher Scientific Inc",
      "laws": "4041370429480304"
    },
    {
      "landUse": "Melampodium cinereum DC.",
      "ownership": "ACNB Corporation",
      "laws": "4410213854283780"
    },
    {
      "landUse": "Malacothamnus palmeri (S. Watson) Greene",
      "ownership": "Hartford Financial Services Group, Inc. (The)",
      "laws": "4041599037147158"
    },
    {
      "landUse": "Fraxinus anomala Torr. ex S. Watson",
      "ownership": "PennantPark Investment Corporation",
      "laws": "4652796270445873"
    },
    {
      "landUse": "Gilia clivorum (Jeps.) V.E. Grant",
      "ownership": "Alexander & Baldwin Holdings, Inc.",
      "laws": "4041377165766"
    },
    {
      "landUse": "Utricularia uliginosa Vahl",
      "ownership": "iRhythm Technologies, Inc.",
      "laws": "4665207358546041"
    },
    {
      "landUse": "Melicope kavaiensis (H. Mann) T.G. Hartley & B.C. Stone",
      "ownership": "Constellation Brands Inc",
      "laws": null
    },
    {
      "landUse": "Arachis repens Handro",
      "ownership": "VOC Energy Trust",
      "laws": "4403176993584"
    },
    {
      "landUse": "Nemacaulis denudata Nutt. var. gracilis Goodman & L.D. Benson",
      "ownership": "Sumitomo Mitsui Financial Group Inc",
      "laws": "4041596198095929"
    },
    {
      "landUse": "Verbena pinetorum Moldenke",
      "ownership": "Valhi, Inc.",
      "laws": "4613346505171"
    },
    {
      "landUse": null,
      "ownership": "Roper Technologies, Inc.",
      "laws": "4041375314390"
    },
    {
      "landUse": "Aspicilia anseris (Lynge) J.W. Thomson",
      "ownership": "Sonic Automotive, Inc.",
      "laws": "4041592304303950"
    },
    {
      "landUse": "Psidium cattleianum Sabine",
      "ownership": "Charter Financial Corp.",
      "laws": "4041599800956728"
    },
    {
      "landUse": "Vitis arizonica Engelm.",
      "ownership": "Zions Bancorporation",
      "laws": "4347079939711543"
    },
    {
      "landUse": "Lewisia Pursh",
      "ownership": "iPath US Treasury 2-year Bull ETN",
      "laws": null
    },
    {
      "landUse": "Delphinium parryi A. Gray",
      "ownership": "TriplePoint Venture Growth BDC Corp.",
      "laws": "4017956162273854"
    },
    {
      "landUse": "Maurandella antirrhiniflora (Humb. & Bonpl. ex Willd.) Rothm.",
      "ownership": "Apple Inc.",
      "laws": "4824658361444368"
    },
    {
      "landUse": "Myrsine petiolata Hosaka",
      "ownership": null,
      "laws": "4774158249686"
    },
    {
      "landUse": "Ionaspis suaveolens (Fr.) Th. Fr.",
      "ownership": "Black Stone Minerals, L.P.",
      "laws": "4041376400338049"
    },
    {
      "landUse": "Prosartes hookeri Torr. var. trachyandra (Torr.) Kartesz",
      "ownership": "Validea Market Legends ETF",
      "laws": "4041377245385252"
    },
    {
      "landUse": "Myrsine wawraea (Mez) Hosaka",
      "ownership": "Covanta Holding Corporation",
      "laws": "4017953845764789"
    },
    {
      "landUse": "Eriogonum umbellatum Torr. var. chlorothamnus Reveal",
      "ownership": "Greenhill & Co., Inc.",
      "laws": "4041594086312332"
    },
    {
      "landUse": "Isoetes tenella Léman",
      "ownership": "First Trust Taiwan AlphaDEX Fund",
      "laws": "4041375389079"
    },
    {
      "landUse": "Geranium cuneatum Hook. var. tridens (Hillebr.) Fosberg",
      "ownership": "Audentes Therapeutics, Inc.",
      "laws": "4041593019853586"
    },
    {
      "landUse": "Asplenium erosum L.",
      "ownership": "Colony Starwood Homes",
      "laws": null
    },
    {
      "landUse": "Cryphaea nervosa (Hook. & Wilson) Müll. Hal.",
      "ownership": "Citigroup Inc.",
      "laws": "4017956888697"
    },
    {
      "landUse": "Fuscidea V. Wirth & Vezda",
      "ownership": "Numerex Corp.",
      "laws": "4882815512245610"
    },
    {
      "landUse": "Camissonia walkeri (A. Nelson) P.H. Raven ssp. tortilis (Jeps.) P.H. Raven",
      "ownership": "Dynegy Inc.",
      "laws": "4952068867991"
    },
    {
      "landUse": "Centrosema molle Mart. ex Benth.",
      "ownership": "VelocityShares VIX Short-Term ETN",
      "laws": "4985198818360870"
    },
    {
      "landUse": "Reynosia Griseb.",
      "ownership": "Och-Ziff Capital Management Group LLC",
      "laws": "4017956219323"
    },
    {
      "landUse": "Abies bracteata (D. Don) D. Don ex Poit.",
      "ownership": "Caleres, Inc.",
      "laws": "4652081214956966"
    },
    {
      "landUse": "Dalea aurea Nutt. ex Pursh",
      "ownership": "GlycoMimetics, Inc.",
      "laws": "4017955877758"
    },
    {
      "landUse": "Agave utahensis Engelm. var. eborispina (Hester) Breitung",
      "ownership": "Sabra Healthcare REIT, Inc.",
      "laws": "4041599421081286"
    },
    {
      "landUse": "Desmodium procumbens (Mill.) Hitchc. var. procumbens",
      "ownership": "Brown Forman Corporation",
      "laws": "4041596381400"
    },
    {
      "landUse": "Crataegus meridionalis Sarg.",
      "ownership": "MYR Group, Inc.",
      "laws": "4873237905027"
    },
    {
      "landUse": "Peltula bolanderi (Tuck.) Wetmore",
      "ownership": "Global Partner Acquisition Corp.",
      "laws": "4041591504368896"
    },
    {
      "landUse": "Oxytheca parishii Parry var. cienegensis Ertter",
      "ownership": "PowerShares Global Agriculture Portfolio",
      "laws": null
    },
    {
      "landUse": "Erigeron canus A. Gray",
      "ownership": "Citigroup Inc.",
      "laws": "4017957360466563"
    },
    {
      "landUse": null,
      "ownership": "Global Sources Ltd.",
      "laws": "4041379339450"
    },
    {
      "landUse": "Justicia candicans (Nees) L.D. Benson",
      "ownership": "Associated Banc-Corp",
      "laws": null
    },
    {
      "landUse": "Achlys californica I. Fukuda & H.G. Baker",
      "ownership": "Chanticleer Holdings, Inc.",
      "laws": "4041372266934740"
    },
    {
      "landUse": "Pseudognaphalium canescens (DC.) W.A. Weber ssp. thermale (E.E. Nelson) Kartesz",
      "ownership": "Glu Mobile Inc.",
      "laws": "4017956763139959"
    },
    {
      "landUse": "Crataegus greggiana Eggl.",
      "ownership": "ImmuCell Corporation",
      "laws": "4041372156998904"
    },
    {
      "landUse": "Piptochaetium fimbriatum (Kunth) Hitchc.",
      "ownership": "E.W. Scripps Company (The)",
      "laws": "4041594185184806"
    },
    {
      "landUse": "Melilotus Mill.",
      "ownership": "Coastway Bancorp, Inc.",
      "laws": "4693340127453508"
    },
    {
      "landUse": "Piriqueta viscosa Griseb.",
      "ownership": "AmeriGas Partners, L.P.",
      "laws": "4810809291386"
    },
    {
      "landUse": "Platanthera cristata (Michx.) Lindl.",
      "ownership": "ABAXIS, Inc.",
      "laws": null
    },
    {
      "landUse": "Scutellaria resinosa Torr.",
      "ownership": null,
      "laws": "4248155758932"
    },
    {
      "landUse": "Sicyos laciniatus L.",
      "ownership": "Wells Fargo & Company",
      "laws": "4041370522854470"
    },
    {
      "landUse": "Phaeophyscia hirtella Essl.",
      "ownership": "LendingClub Corporation",
      "laws": "4041374995362342"
    },
    {
      "landUse": "Astragalus cimae M.E. Jones var. cimae",
      "ownership": "Occidental Petroleum Corporation",
      "laws": "4041591456679308"
    },
    {
      "landUse": "Navarretia nigelliformis Greene ssp. radians (J.T. Howell) Day",
      "ownership": "Taubman Centers, Inc.",
      "laws": "4448372552259777"
    },
    {
      "landUse": "Oxalis priceae Small",
      "ownership": "First Trust Emerging Markets AlphaDEX Fund",
      "laws": "4366799742390674"
    },
    {
      "landUse": "Athyrium filix-femina (L.) Roth ssp. angustum (Willd.) R.T. Clausen",
      "ownership": "Hamilton Lane Incorporated",
      "laws": "4041596671396"
    },
    {
      "landUse": "Juniperus occidentalis Hook.",
      "ownership": "Penn Virginia Corporation",
      "laws": "4041373997194000"
    },
    {
      "landUse": "Pecluma camptophyllaria (Fée) M.G. Price ssp. abbreviata (A.M. Evans) Kartesz & Gandhi",
      "ownership": "MyoKardia, Inc.",
      "laws": "4041598514403555"
    },
    {
      "landUse": "Salix petrophila Rydb.",
      "ownership": "Diamondrock Hospitality Company",
      "laws": "4041372567709775"
    },
    {
      "landUse": "Crotalaria juncea L.",
      "ownership": "Nike, Inc.",
      "laws": "4595058754982"
    },
    {
      "landUse": "Graphina columbina (Tuck.) M. Wirth & Hale",
      "ownership": "Citizens Community Bancorp, Inc.",
      "laws": "4041376060201859"
    },
    {
      "landUse": "Astragalus pseudiodanthus Barneby",
      "ownership": "1347 Property Insurance Holdings, Inc.",
      "laws": "4089803583861714"
    },
    {
      "landUse": "Vitis arizonica Engelm.",
      "ownership": "Oritani Financial Corp.",
      "laws": "4041377454108296"
    },
    {
      "landUse": "Aeschynomene pratensis Small",
      "ownership": "Wells Fargo & Company",
      "laws": "4041370187296"
    },
    {
      "landUse": "Carex magellanica Lam. ssp. irrigua (Wahlenb.) Hultén",
      "ownership": "Goldman Sachs Group, Inc. (The)",
      "laws": "4701801649459"
    },
    {
      "landUse": "Coreopsis tinctoria Nutt.",
      "ownership": "CDI Corporation",
      "laws": "4041375502572"
    },
    {
      "landUse": "Sabatia calycina (Lam.) A. Heller",
      "ownership": "Sotherly Hotels LP",
      "laws": "4041371371725"
    },
    {
      "landUse": "Rumex paucifolius Nutt. ssp. gracilescens (Rech. f.) Rech. f.",
      "ownership": "Target Corporation",
      "laws": "4041593350626591"
    },
    {
      "landUse": "Cladonia prolifica Ahti & S. Hammer",
      "ownership": "Healthcare Realty Trust Incorporated",
      "laws": "4041596400746434"
    },
    {
      "landUse": "Potentilla oblanceolata Rydb.",
      "ownership": "Nuveen New York Quality Municipal Income Fund",
      "laws": "4041594862181240"
    },
    {
      "landUse": null,
      "ownership": "Bank of America Corporation",
      "laws": "4017956538680"
    },
    {
      "landUse": "Penstemon crandallii A. Nelson ssp. crandallii",
      "ownership": "Wolverine World Wide, Inc.",
      "laws": "4041379556685320"
    },
    {
      "landUse": "Triphysaria versicolor Fisch. & C.A. Mey. ssp. versicolor",
      "ownership": "Sunshine Bancorp, Inc.",
      "laws": "4041590713964628"
    },
    {
      "landUse": "Archontophoenix alexandrae (F. Muell.) H. Wendl. & Drude",
      "ownership": "AllianzGI NFJ Dividend, Interest & Premium Strategy Fund",
      "laws": "4675974852689092"
    },
    {
      "landUse": "Pohlia elongata Hedw.",
      "ownership": "Bellerophon Therapeutics, Inc.",
      "laws": "4579892071627817"
    },
    {
      "landUse": "Stellaria ruscifolia Pall. ex Schltdl. ssp. ruscifolia",
      "ownership": "Abeona Therapeutics Inc.",
      "laws": "4041599760726020"
    },
    {
      "landUse": "Erythronium L.",
      "ownership": "Pengrowth Energy Corporation",
      "laws": "4041593477227"
    },
    {
      "landUse": "Trifolium masaiense J.B. Gillett",
      "ownership": "General Electric Capital Corporation",
      "laws": "4041592331359"
    },
    {
      "landUse": "Solanum viride G. Forst. ex Spreng.",
      "ownership": "Gevo, Inc.",
      "laws": "4041376599346"
    },
    {
      "landUse": "Bidens cynapiifolia Kunth",
      "ownership": "Diamond Hill Investment Group, Inc.",
      "laws": "4041598201184302"
    },
    {
      "landUse": "Melaleuca squarrosa Donn ex Sm.",
      "ownership": "Government Properties Income Trust",
      "laws": null
    },
    {
      "landUse": "Mertensia umbratilis Greenm.",
      "ownership": "Dril-Quip, Inc.",
      "laws": "4041595502659"
    },
    {
      "landUse": "Hesperolinon clevelandii (Greene) Small",
      "ownership": "Lazard World Dividend & Income Fund, Inc.",
      "laws": "4017953085818"
    },
    {
      "landUse": "Downingia bicornuta A. Gray var. bicornuta",
      "ownership": "Peregrine Pharmaceuticals Inc.",
      "laws": "4802917601374256"
    },
    {
      "landUse": "Astragalus laxmannii Jacq. var. tananaicus (Hultén) Barneby & S.L. Welsh",
      "ownership": "Seaspan Corporation",
      "laws": "4041591010293"
    },
    {
      "landUse": "Crocus imperati Ten.",
      "ownership": "Columbia Banking System, Inc.",
      "laws": "4017958743965"
    },
    {
      "landUse": "Lomatium rollinsii Mathias & Constance",
      "ownership": "SVB Financial Group",
      "laws": "4041593262926"
    },
    {
      "landUse": "Clematis heracleifolia DC.",
      "ownership": "Alliance One International, Inc.",
      "laws": "4017955039121593"
    },
    {
      "landUse": "Frasera tubulosa Coville",
      "ownership": "Kayne Anderson MLP Investment Company",
      "laws": null
    },
    {
      "landUse": "Abies lasiocarpa (Hook.) Nutt.",
      "ownership": "PBF Energy Inc.",
      "laws": "4017951842400"
    },
    {
      "landUse": "Deeringothamnus pulchellus Small",
      "ownership": "MSG Networks Inc.",
      "laws": "4041590901328"
    },
    {
      "landUse": "Brachythecium collinum (Schleich. ex Müll. Hal.) Schimp.",
      "ownership": "DTE Energy Company",
      "laws": "4041375479016130"
    },
    {
      "landUse": "Plantago subnuda Pilg.",
      "ownership": "Donnelley Financial Solutions, Inc.",
      "laws": "4488076082580773"
    },
    {
      "landUse": "Micarea peliocarpa (Anzi) Coppins & R. Sant.",
      "ownership": "Keane Group, Inc.",
      "laws": "4041592143328697"
    },
    {
      "landUse": "Impatiens aurella Rydb.",
      "ownership": "The KEYW Holding Corporation",
      "laws": "4041370598996783"
    },
    {
      "landUse": "Pilea multicaulis Urb.",
      "ownership": "500.com Limited",
      "laws": "4041375870557"
    },
    {
      "landUse": "Sidalcea neomexicana A. Gray",
      "ownership": "Sportsman's Warehouse Holdings, Inc.",
      "laws": "4017952055820"
    },
    {
      "landUse": "Anogeissus (DC.) Wall.",
      "ownership": "Marvell Technology Group Ltd.",
      "laws": "4573852137852"
    },
    {
      "landUse": "Broughtonia R. Br.",
      "ownership": "Centrais Electricas Brasileiras S.A.- Eletrobras",
      "laws": "4041374626760435"
    },
    {
      "landUse": "Celastrus paniculatus Willd.",
      "ownership": "Enersys",
      "laws": "4041599989258"
    },
    {
      "landUse": "Angadenia Miers",
      "ownership": "Carnival Corporation",
      "laws": "4554754229741180"
    },
    {
      "landUse": "Galium rubioides L.",
      "ownership": "Westell Technologies, Inc.",
      "laws": "4017950005256"
    },
    {
      "landUse": "Sedum moranense Kunth",
      "ownership": "WVS Financial Corp.",
      "laws": "4041594718621464"
    },
    {
      "landUse": "Hippophae L.",
      "ownership": "Fortis Inc.",
      "laws": "4041373222033"
    },
    {
      "landUse": "Cyperus hyalinus Vahl",
      "ownership": "Lion Biotechnologies, Inc.",
      "laws": "4847287992385007"
    },
    {
      "landUse": null,
      "ownership": "RPX Corporation",
      "laws": "4017951810249984"
    },
    {
      "landUse": "Dyschoriste Nees",
      "ownership": "Endo International plc",
      "laws": null
    },
    {
      "landUse": "Equisetum telmateia Ehrh. var. braunii (Milde) Milde",
      "ownership": "American Capital Senior Floating, Ltd.",
      "laws": "4041379309966"
    },
    {
      "landUse": "Hemitomes congestum A. Gray",
      "ownership": "World Wrestling Entertainment, Inc.",
      "laws": "4017954818743594"
    },
    { "landUse": null, "ownership": "FlexShopper, Inc.", "laws": null },
    {
      "landUse": null,
      "ownership": "Nordic American Offshore Ltd",
      "laws": "4079162236632184"
    },
    {
      "landUse": "Puccinellia distans (Jacq.) Parl. ssp. distans",
      "ownership": "Ardagh Group S.A.",
      "laws": "4041376406096"
    },
    {
      "landUse": "Eriogonum douglasii Benth. var. douglasii",
      "ownership": "Crown Holdings, Inc.",
      "laws": null
    },
    {
      "landUse": "Sarracenia rosea Naczi, Case & R.B. Case",
      "ownership": "R.R. Donnelley & Sons Company",
      "laws": "4041596487515975"
    },
    {
      "landUse": "Desmatodon Brid.",
      "ownership": "Pimco High Income Fund",
      "laws": null
    },
    {
      "landUse": "Graphina Müll. Arg.",
      "ownership": "Capital One Financial Corporation",
      "laws": "4338500002605"
    },
    {
      "landUse": "Physaria scrotiformis O'Kane",
      "ownership": "Ultra Clean Holdings, Inc.",
      "laws": "4041371161605"
    },
    {
      "landUse": "Dichanthelium acuminatum (Sw.) Gould & C.A. Clark var. sericeum (Schmoll) Freckmann",
      "ownership": "Bright Horizons Family Solutions Inc.",
      "laws": "4041372928606"
    },
    {
      "landUse": "Rubus prestonensis H.A. Davis & T. Davis",
      "ownership": "Energizer Holdings, Inc.",
      "laws": "4041378069553"
    },
    {
      "landUse": "Verrucaria silicicola Fink",
      "ownership": "Kohl's Corporation",
      "laws": "4026614562917"
    },
    {
      "landUse": "Saxifraga subapetala E.E. Nelson",
      "ownership": "Charles & Colvard Ltd",
      "laws": null
    },
    {
      "landUse": "Cyclodictyon Mitt.",
      "ownership": "Spirit Aerosystems Holdings, Inc.",
      "laws": "4041592983456"
    },
    {
      "landUse": "Primula laurentiana Fernald",
      "ownership": "Capital Product Partners L.P.",
      "laws": "4017957066201215"
    },
    {
      "landUse": "Phacelia ixodes Kellogg",
      "ownership": "Stellar Biotechnologies, Inc.",
      "laws": "4041375464091536"
    },
    {
      "landUse": "Lilium bulbiferum L.",
      "ownership": "Kemper Corporation",
      "laws": "4906628548958268"
    },
    {
      "landUse": "Anaptychia bryorum Poelt",
      "ownership": "Federated Investors, Inc.",
      "laws": "4041378928032245"
    },
    {
      "landUse": "Fissidens pallidinervis Mitt.",
      "ownership": "M.D.C. Holdings, Inc.",
      "laws": "4041595340560467"
    },
    {
      "landUse": "Lobelia spicata Lam. var. leptostachys (A. DC.) Mack. & Bush",
      "ownership": "Global X NASDAQ China Technology ETF",
      "laws": "4017955107123"
    },
    {
      "landUse": "Ficus palmata Forssk.",
      "ownership": "Coca-Cola Bottling Co. Consolidated",
      "laws": "4041375993094"
    },
    {
      "landUse": "Hylotelephium erythrostictum (Miq.) H. Ohba",
      "ownership": "Kandi Technologies Group, Inc.",
      "laws": "4041599738689"
    },
    { "landUse": "Caryota L.", "ownership": null, "laws": "4099712007309" },
    {
      "landUse": "Lathyrus lanszwertii Kellogg var. tracyi (Bradshaw) Isely",
      "ownership": "Sound Financial Bancorp, Inc.",
      "laws": "4033081332445108"
    },
    {
      "landUse": "Chamaesyce skottsbergii (Sherff) Croizat & O. Deg.",
      "ownership": "MFA Financial, Inc.",
      "laws": "4041596107592214"
    },
    {
      "landUse": "Nephrolepis multiflora (Roxb.) Jarrett ex Morton",
      "ownership": "CNO Financial Group, Inc.",
      "laws": "4017954160289"
    },
    {
      "landUse": "Buddleja officinalis Maxim.",
      "ownership": "Federated Premier Municipal Income Fund",
      "laws": "4017958321978"
    },
    {
      "landUse": "Evernia esorediosa (Müll. Arg.) Du Rietz",
      "ownership": "Preferred Bank",
      "laws": "4041595827767"
    },
    {
      "landUse": "Plagiothecium latebricola Schimp.",
      "ownership": "GCP Applied Technologies Inc.",
      "laws": "4041370269040218"
    },
    {
      "landUse": "Erythronium umbilicatum Parks & Hardin",
      "ownership": "X-Links Silver Shares Covered Call ETN",
      "laws": "4017950458364"
    },
    {
      "landUse": "Bauhinia galpinii N.E. Br.",
      "ownership": "Ultralife Corporation",
      "laws": "4487073797528008"
    },
    {
      "landUse": "Lupinus bicolor Lindl. ssp. bicolor",
      "ownership": "Heritage Commerce Corp",
      "laws": null
    },
    {
      "landUse": "Allocasuarina torulosa (Aiton) L.A.S. Johnson",
      "ownership": "Monmouth Real Estate Investment Corporation",
      "laws": "4920510431062"
    },
    {
      "landUse": "Antidesma pulvinatum Hillebr.",
      "ownership": "Marin Software Incorporated",
      "laws": "4041374820799668"
    },
    {
      "landUse": "Mielichhoferia tehamensis Showers",
      "ownership": "Western Asset High Yield Defined Opportunity Fund Inc.",
      "laws": "4017951465589619"
    },
    {
      "landUse": "Lantana velutina M. Martens & Galeotti",
      "ownership": "CNB Financial Corporation",
      "laws": "4041376323446606"
    },
    {
      "landUse": "Octoblepharum Hedw.",
      "ownership": "Independent Bank Group, Inc",
      "laws": "4446509229931286"
    },
    {
      "landUse": "Malpighia L.",
      "ownership": "Bravo Brio Restaurant Group, Inc.",
      "laws": "4041379542590"
    },
    {
      "landUse": "Agrostis rossiae Vasey",
      "ownership": "Matson, Inc.",
      "laws": "4041590286720"
    },
    {
      "landUse": "Neckera pennata Hedw.",
      "ownership": "CF Corporation",
      "laws": "4041370810194"
    },
    {
      "landUse": "Galium L.",
      "ownership": "Biostar Pharmaceuticals, Inc.",
      "laws": "4017953949429800"
    },
    {
      "landUse": "Polemonium reptans L.",
      "ownership": "Hancock Holding Company",
      "laws": "4041371338542"
    },
    {
      "landUse": "Buellia elegans Poelt",
      "ownership": "IPG Photonics Corporation",
      "laws": "4017955195078"
    },
    {
      "landUse": "Caloplaca livida (Hepp) Jatta",
      "ownership": "First Trust Developed Markets ex-US Small Cap AlphaDEX Fund",
      "laws": "4041597196278"
    },
    {
      "landUse": "Calochortus westonii Eastw.",
      "ownership": "DMC Global Inc.",
      "laws": "4041597856723"
    },
    {
      "landUse": "Amaranthus tamaulipensis Henrickson",
      "ownership": "Royce Value Trust, Inc.",
      "laws": "4041375915921349"
    },
    {
      "landUse": "Atriplex asterocarpa Stutz, G.L. Chu & S.C. Sand.",
      "ownership": "Rockwell Automation, Inc.",
      "laws": "4041370168469708"
    },
    {
      "landUse": "Allium peninsulare Lemmon ex Greene var. franciscanum McNeal & Ownbey",
      "ownership": "NetEase, Inc.",
      "laws": "4017952445468"
    },
    {
      "landUse": "Hibiscus cannabinus L.",
      "ownership": "Auris Medical Holding AG",
      "laws": "4041595990292"
    },
    {
      "landUse": "Schizachne purpurascens (Torr.) Swallen",
      "ownership": "CafePress Inc.",
      "laws": null
    },
    {
      "landUse": "Psorothamnus spinosus (A. Gray) Barneby",
      "ownership": "FRONTEO, Inc.",
      "laws": "4041376679257474"
    },
    {
      "landUse": "Puccinellia distans (Jacq.) Parl. ssp. hauptiana (Trin. ex Krecz.) W.E. Hughes",
      "ownership": "Vanguard Mortgage-Backed Securities ETF",
      "laws": "4598717363896175"
    },
    {
      "landUse": "Hymenopappus filifolius Hook. var. pauciflorus (I.M. Johnst.) B.L. Turner",
      "ownership": "Jason Industries, Inc.",
      "laws": "4041596683079198"
    },
    {
      "landUse": null,
      "ownership": "Fastenal Company",
      "laws": "4041594806215765"
    },
    {
      "landUse": "Lobelia glandulosa Walter",
      "ownership": "Acadia Realty Trust",
      "laws": "4291635860540833"
    },
    {
      "landUse": "Cecidonia umbonella (Nyl.) Triebel & Rambold",
      "ownership": "Cedar Realty Trust, Inc.",
      "laws": "4433227626074023"
    },
    {
      "landUse": "Poa hartzii Gandog. ssp. hartzii var. hartzii",
      "ownership": "Lindblad Expeditions Holdings Inc. ",
      "laws": null
    },
    {
      "landUse": "Sapium laurocerasus Desf.",
      "ownership": "China Xiniya Fashion Limited",
      "laws": "4346605787330845"
    },
    {
      "landUse": null,
      "ownership": "Dunkin' Brands Group, Inc.",
      "laws": "4017958507789818"
    },
    {
      "landUse": "Chamaesyce porteriana Small var. porteriana",
      "ownership": "Managed Duration Investment Grade Municipal Fund",
      "laws": "4318934071418"
    },
    {
      "landUse": "Cladidium Hafellner",
      "ownership": "Arcos Dorados Holdings Inc.",
      "laws": "4111624285894833"
    },
    {
      "landUse": "Tabebuia aurea (Manso) Benth. & Hook. f. ex S. Moore",
      "ownership": "World Point Terminals, LP",
      "laws": "4314919565383"
    },
    {
      "landUse": "Lecidea phaeops Nyl.",
      "ownership": "Dawson Geophysical Company",
      "laws": "4126802186858809"
    },
    {
      "landUse": "Pleurothallis pruinosa Lindl.",
      "ownership": "Source Capital, Inc.",
      "laws": null
    },
    {
      "landUse": "Horkelia congesta Douglas ex Hook.",
      "ownership": "Halozyme Therapeutics, Inc.",
      "laws": "4041375383288"
    },
    {
      "landUse": "Ipomopsis spicata (Nutt.) V.E. Grant ssp. robruthii Wilken & R.L. Hartm.",
      "ownership": "GasLog LP.",
      "laws": null
    },
    {
      "landUse": "Castilleja applegatei Fernald ssp. pinetorum (Fernald) T.I. Chuang & Heckard",
      "ownership": "Customers Bancorp, Inc",
      "laws": "4041595957907779"
    },
    {
      "landUse": "Rubus vagus L.H. Bailey",
      "ownership": "Vonage Holdings Corp.",
      "laws": "4533954204240"
    },
    {
      "landUse": "Astragalus cerussatus Sheldon",
      "ownership": "Ionis Pharmaceuticals, Inc.",
      "laws": "4041375080777"
    },
    {
      "landUse": "Harmonia hallii (D.D. Keck) B.G. Baldw.",
      "ownership": "ENI S.p.A.",
      "laws": "4041593590292"
    },
    {
      "landUse": "Rubus hirsutus Thunb.",
      "ownership": null,
      "laws": "4041370799281761"
    },
    {
      "landUse": "Quercus boyntonii Beadle",
      "ownership": "Toll Brothers Inc.",
      "laws": "4017959581380"
    },
    {
      "landUse": "Alyssum L.",
      "ownership": "Vantage Energy Acquisition Corp.",
      "laws": "4065095379344942"
    },
    {
      "landUse": "Liatris aspera Michx. var. intermedia (Lunell) Gaiser",
      "ownership": "Analog Devices, Inc.",
      "laws": "4866867668550"
    },
    {
      "landUse": "Chamaecrista lineata (Sw.) Greene",
      "ownership": "B. Riley Financial, Inc.",
      "laws": "4041378089833"
    },
    {
      "landUse": "Rinodina coloradiana H. Magn.",
      "ownership": "Stellus Capital Investment Corporation",
      "laws": "4041376683225749"
    },
    {
      "landUse": "Arctostaphylos parryana Lemmon ssp. tumescens J.E. Keeley, L. Boykin & A. Massihi",
      "ownership": "Snap-On Incorporated",
      "laws": null
    },
    {
      "landUse": "Pennisetum pedicellatum Trin.",
      "ownership": "Compugen Ltd.",
      "laws": "4041374499457"
    },
    {
      "landUse": "Ilex urbaniana Loes.",
      "ownership": "Trex Company, Inc.",
      "laws": "4107037889670895"
    },
    {
      "landUse": "Euphorbia herniarifolia Willd.",
      "ownership": "Iridium Communications Inc",
      "laws": "4041598412948"
    },
    {
      "landUse": "Micarea elachista (Körb.) Coppins & R. Sant.",
      "ownership": "Apollo Senior Floating Rate Fund Inc.",
      "laws": "4041376331120"
    },
    {
      "landUse": "Calochortus tiburonensis A.J. Hill",
      "ownership": "Telephone and Data Systems, Inc.",
      "laws": "4428211437180"
    },
    {
      "landUse": "Thelypteris pilosa (M. Martens & Galeotti) Crawford var. alabamensis Crawford",
      "ownership": "Trinity Biotech plc",
      "laws": "4041371394679276"
    },
    {
      "landUse": "Arceuthobium vaginatum (Willd.) J. Presl ssp. cryptopodum (Engelm.) Hawksw. & Wiens",
      "ownership": "AllianzGI Convertible & Income Fund",
      "laws": "4041378409421222"
    },
    {
      "landUse": "Frangula caroliniana (Walter) A. Gray",
      "ownership": "Time Inc.",
      "laws": null
    },
    {
      "landUse": "Hesperevax acaulis (Kellogg) Greene var. robustior Morefield",
      "ownership": "First Trust NASDAQ ABA Community Bank Index Fund",
      "laws": "4017951316090"
    },
    {
      "landUse": "Wisteria sinensis (Sims) DC.",
      "ownership": "NeoPhotonics Corporation",
      "laws": "4863452917610967"
    },
    {
      "landUse": "Anacolia menziesii (Turner) Par. var. baueri (Hampe) Flow.",
      "ownership": "Antares Pharma, Inc.",
      "laws": "4041372228866"
    },
    {
      "landUse": "Rolandra Rottb.",
      "ownership": "Interpublic Group of Companies, Inc. (The)",
      "laws": "4041598795953"
    },
    {
      "landUse": "Chamaesyce bombensis (Jacq.) Dugand",
      "ownership": "Envestnet, Inc",
      "laws": "4017954869681628"
    },
    {
      "landUse": null,
      "ownership": "PTC Therapeutics, Inc.",
      "laws": "4041599531124901"
    },
    {
      "landUse": "Frangula Mill.",
      "ownership": "Acceleron Pharma Inc.",
      "laws": "4017957898448"
    },
    {
      "landUse": "Calochortus kennedyi Porter",
      "ownership": "Madison Strategic Sector Premium Fund",
      "laws": "4041591896170"
    },
    {
      "landUse": "Senecio spartioides Torr. & A. Gray var. multicapitatus (Greenm. ex Rydb.) S.L. Welsh",
      "ownership": "Willamette Valley Vineyards, Inc.",
      "laws": "4848415688890936"
    },
    {
      "landUse": "Hemizonia congesta DC. ssp. luzulifolia (DC.) Babc. & H.M. Hall",
      "ownership": "Pitney Bowes Inc.",
      "laws": "4017950042515"
    },
    {
      "landUse": "Pteralyxia kauaiensis Caum",
      "ownership": "Thermo Fisher Scientific Inc",
      "laws": "4041599121654"
    },
    {
      "landUse": "Trifolium aureum Pollich",
      "ownership": "ProPetro Holding Corp.",
      "laws": "4041599168470221"
    },
    {
      "landUse": "Dryopteris arguta (Kaulf.) Watt",
      "ownership": "L3 Technologies, Inc.",
      "laws": "4017953509890"
    },
    {
      "landUse": "Saxifraga aizoides L.",
      "ownership": "ONEOK, Inc.",
      "laws": "4041592201896106"
    },
    {
      "landUse": "Synandra Nutt.",
      "ownership": "MGP Ingredients, Inc.",
      "laws": "4041376040119"
    },
    {
      "landUse": "Pappophorum Schreb.",
      "ownership": "Telecom Italia S.P.A.",
      "laws": null
    },
    {
      "landUse": "Maurandya Ortega",
      "ownership": "CB Financial Services, Inc.",
      "laws": "4017953431046"
    },
    {
      "landUse": "Schiedea Cham. & Schltdl.",
      "ownership": "Gabelli Equity Trust, Inc. (The)",
      "laws": "4378493286732"
    },
    {
      "landUse": "Aechmea fasciata (Lindl.) Baker",
      "ownership": "Cincinnati Bell Inc",
      "laws": "4041590824322"
    },
    {
      "landUse": "Poa hartzii Gandog.",
      "ownership": "BioLineRx Ltd.",
      "laws": "4091118532846112"
    },
    {
      "landUse": "Tagetes L.",
      "ownership": "FedEx Corporation",
      "laws": "4041970534243156"
    },
    {
      "landUse": "Agastache Clayton ex Gronov.",
      "ownership": "The Middleby Corporation",
      "laws": "4041599883147"
    },
    {
      "landUse": "Brachythecium oxycladon (Brid.) A. Jaeger",
      "ownership": "State National Companies, Inc.",
      "laws": "4772869478760156"
    },
    {
      "landUse": "Atriplex griffithsii Standl.",
      "ownership": "Natural Grocers by Vitamin Cottage, Inc.",
      "laws": "4041377580253"
    },
    {
      "landUse": "Oxydendrum arboreum (L.) DC.",
      "ownership": "Herc Holdings Inc.",
      "laws": "4041590073334"
    },
    {
      "landUse": "Luzula bulbosa (Alph. Wood) Smyth & Smyth",
      "ownership": "Clovis Oncology, Inc.",
      "laws": "4041596565845930"
    },
    {
      "landUse": "Salix lasiolepis Benth. var. bigelovii (Torr.) Bebb",
      "ownership": "Perion Network Ltd",
      "laws": "4832682130416531"
    },
    {
      "landUse": "Cornutia obovata Urb.",
      "ownership": "Aviat Networks, Inc.",
      "laws": "4041379912470"
    },
    {
      "landUse": "Umbellularia (Nees) Nutt.",
      "ownership": "Envision Healthcare Corporation",
      "laws": "4041378354542"
    },
    {
      "landUse": "Lomatium parryi (S. Watson) J.F. Macbr.",
      "ownership": "Dril-Quip, Inc.",
      "laws": "4845673423626105"
    },
    {
      "landUse": "Parthenocissus Planch.",
      "ownership": "Western Asset Investment Grade Defined Opportunity Trust Inc.",
      "laws": "4017952027162275"
    },
    {
      "landUse": "Epilobium saximontanum Hausskn.",
      "ownership": "Abeona Therapeutics Inc.",
      "laws": "4017954198602"
    },
    {
      "landUse": "Crataegus mollis Scheele",
      "ownership": "QCR Holdings, Inc.",
      "laws": "4560035381226"
    },
    {
      "landUse": "Cryptantha aperta (Eastw.) Payson",
      "ownership": "Gladstone Commercial Corporation",
      "laws": "4017957826641668"
    },
    {
      "landUse": "Portulaca L.",
      "ownership": "Petrobras Argentina S.A.",
      "laws": "4234205444723"
    },
    {
      "landUse": "Artemisia parryi A. Gray",
      "ownership": "West Marine, Inc.",
      "laws": "4017954473453216"
    },
    {
      "landUse": "Gomphrena globosa L.",
      "ownership": "TriplePoint Venture Growth BDC Corp.",
      "laws": "4041598685685998"
    },
    {
      "landUse": "Myosotis verna Nutt.",
      "ownership": "CASI Pharmaceuticals, Inc.",
      "laws": "4607248561126"
    },
    {
      "landUse": "Leptosiphon nuttallii (A. Gray) J.M. Porter & L.A. Johnson ssp. howellii (T.W. Nelson & R. Patt.) J.M. Porter & L.A. Johnson",
      "ownership": "Savara, Inc.",
      "laws": "4017953525712017"
    },
    {
      "landUse": "Bidens hyperborea Greene var. hyperborea",
      "ownership": "Invesco Value Municipal Income Trust",
      "laws": "4041379999329"
    },
    {
      "landUse": null,
      "ownership": "Stanley Black & Decker, Inc.",
      "laws": "4041590829230"
    },
    {
      "landUse": "Astragalus rattanii A. Gray var. rattanii",
      "ownership": "PNC Financial Services Group, Inc. (The)",
      "laws": "4017958837405259"
    },
    {
      "landUse": "Oxalis frutescens L.",
      "ownership": "Avnet, Inc.",
      "laws": "4017956644058"
    },
    {
      "landUse": "Oncostema peruviana (L.) Speta",
      "ownership": "Orbital ATK, Inc.",
      "laws": "4816826103207"
    },
    {
      "landUse": "Gypsoplaca macrophylla (Zahlbr.) Timdal",
      "ownership": null,
      "laws": "4041374355071"
    },
    {
      "landUse": "Rubus ×paracaulis L.H. Bailey (pro sp.)",
      "ownership": "Walt Disney Company (The)",
      "laws": null
    },
    {
      "landUse": "Collinsia sparsiflora Fisch. & C.A. Mey. var. arvensis (Greene) Jeps.",
      "ownership": "Digimarc Corporation",
      "laws": "4041371010137378"
    },
    {
      "landUse": "Panicum venezuelae Hack.",
      "ownership": "Royce Micro-Cap Trust, Inc.",
      "laws": "4163065997169022"
    },
    {
      "landUse": "Corydalis caseana A. Gray ssp. caseana",
      "ownership": "Tenneco Inc.",
      "laws": "4714518324423"
    },
    {
      "landUse": "Carex austrina (Small) Mack.",
      "ownership": "SEACOR Marine Holdings Inc.",
      "laws": "4041591574868"
    },
    {
      "landUse": "Lycium puberulum A. Gray var. puberulum",
      "ownership": "ARMOUR Residential REIT, Inc.",
      "laws": "4041598490936396"
    },
    {
      "landUse": "Pyxine sorediata (Ach.) Mont.",
      "ownership": "Eaton Vance Enhanced Equity Income Fund II",
      "laws": "4041595756396"
    },
    {
      "landUse": "Marsilea minuta L.",
      "ownership": "FTI Consulting, Inc.",
      "laws": "4949069362287725"
    },
    {
      "landUse": "Melicope elliptica A. Gray",
      "ownership": "Main Street Capital Corporation",
      "laws": "4041376099925"
    },
    {
      "landUse": "Brachythecium albicans (Hedw.) Schimp.",
      "ownership": "Blueprint Medicines Corporation",
      "laws": "4032870114229"
    },
    { "landUse": "Cypripedium guttatum Sw.", "ownership": null, "laws": null },
    {
      "landUse": "Penstemon nitidus Douglas ex Benth. var. polyphyllus (Pennell) Cronquist",
      "ownership": "Capital One Financial Corporation",
      "laws": "4017955121163602"
    },
    {
      "landUse": "Gaillardia spathulata A. Gray",
      "ownership": "CA Inc.",
      "laws": "4041592285324"
    },
    {
      "landUse": "Eustoma exaltatum (L.) Salisb. ex G. Don ssp. exaltatum",
      "ownership": "Kaiser Aluminum Corporation",
      "laws": "4065713227634"
    },
    {
      "landUse": "Lamiastrum galeobdolon (L.) Ehrend. & Polatschek",
      "ownership": "Nova Measuring Instruments Ltd.",
      "laws": null
    },
    {
      "landUse": "Selaginella cinerascens A.A. Eaton",
      "ownership": "Seaspan Corporation",
      "laws": "4006089201670"
    },
    {
      "landUse": "Camissonia andina (Nutt.) P.H. Raven",
      "ownership": "Bank Of Montreal",
      "laws": "4233270332494921"
    },
    {
      "landUse": "Tillandsia bartramii × fasciculata [unnamed hybrid]",
      "ownership": "Avangrid, Inc.",
      "laws": "4017950159491"
    },
    {
      "landUse": "Alopecurus geniculatus L. var. geniculatus",
      "ownership": "Grupo Aeroportuario del Centro Norte S.A.B. de C.V.",
      "laws": "4041373173376"
    },
    {
      "landUse": "Lomatium serpentinum (M.E. Jones) Mathias",
      "ownership": "News Corporation",
      "laws": "4041596123444952"
    },
    {
      "landUse": "Bromelia L.",
      "ownership": "NVE Corporation",
      "laws": "4041597485408"
    },
    {
      "landUse": "Matelea parviflora (Torr.) Woodson",
      "ownership": "Computer Task Group, Incorporated",
      "laws": "4017954094595031"
    },
    {
      "landUse": "Nemacladus secundiflorus G.T. Robbins",
      "ownership": "American Water Works",
      "laws": "4041372801248754"
    },
    {
      "landUse": "Medicago praecox DC.",
      "ownership": "PowerShares Variable Rate Investment Grade Portfolio",
      "laws": null
    },
    {
      "landUse": "Lepidium montanum Nutt. var. montanum",
      "ownership": "Arlington Asset Investment Corp",
      "laws": "4041592580509080"
    },
    {
      "landUse": "Triticum carthlicum Nevski",
      "ownership": "Foundation Medicine, Inc.",
      "laws": "4676425528152501"
    },
    {
      "landUse": "Saccharum baldwinii Spreng.",
      "ownership": "Drive Shack Inc.",
      "laws": "4041597231364"
    },
    {
      "landUse": "Bryonia cretica L.",
      "ownership": "Caleres, Inc.",
      "laws": "4041370549236222"
    },
    {
      "landUse": null,
      "ownership": "Cousins Properties Incorporated",
      "laws": "4017952280865"
    },
    {
      "landUse": "Hibiscus bifurcatus Cav.",
      "ownership": "iShares MSCI All Country Asia ex Japan Index Fund",
      "laws": "4017954257132689"
    },
    {
      "landUse": "Eriophorum callitrix Cham. ex C.A. Mey. var. moravium Raymond",
      "ownership": "Eagle Bulk Shipping Inc.",
      "laws": "4017953374709"
    },
    {
      "landUse": "Veronica spicata L. ssp. incana (L.) Walters",
      "ownership": "Computer Task Group, Incorporated",
      "laws": "4041373034438"
    },
    {
      "landUse": "Delphinium carolinianum Walter ssp. virescens (Nutt.) R.E. Brooks",
      "ownership": "Glu Mobile Inc.",
      "laws": "4041590124350"
    },
    {
      "landUse": "Selaginella substipitata Spring",
      "ownership": "Imperva, Inc.",
      "laws": "4041590739719451"
    },
    {
      "landUse": "Symphyotrichum lanceolatum (Willd.) G.L. Nesom ssp. lanceolatum var. hirsuticaule (Semple & Chmielewski) G.L. Nesom",
      "ownership": "Neonode Inc.",
      "laws": "4985325495957542"
    },
    {
      "landUse": "Entolasia Stapf",
      "ownership": "Albany International Corporation",
      "laws": "4017959378803"
    },
    {
      "landUse": "Lotus nevadensis (S. Watson) Greene var. nevadensis",
      "ownership": "John Hancock Preferred Income Fund",
      "laws": "4041596986497"
    },
    {
      "landUse": "Leptochloa decipiens (R. Br.) Stapf ex Maiden",
      "ownership": "HSBC Holdings plc",
      "laws": "4041592932279432"
    },
    {
      "landUse": "Erigeron strigosus Muhl. ex Willd.",
      "ownership": "TG Therapeutics, Inc.",
      "laws": "4288674229391062"
    },
    {
      "landUse": "Lasallia Mérat",
      "ownership": "ClearBridge Large Cap Growth ESG ETF",
      "laws": "4041370567166"
    },
    {
      "landUse": "Euphorbia bifurcata Engelm.",
      "ownership": "Drive Shack Inc.",
      "laws": "4041377327994"
    },
    {
      "landUse": "Rhizocarpon inarense (Vain.) Vain.",
      "ownership": "Motif Bio plc",
      "laws": "4041370990335"
    },
    {
      "landUse": "Arachis prostrata Benth.",
      "ownership": "SuperValu Inc.",
      "laws": "4557532735799430"
    },
    {
      "landUse": "Spigelia marilandica (L.) L.",
      "ownership": "Abeona Therapeutics Inc.",
      "laws": "4335386431578492"
    },
    {
      "landUse": "Hedysarum boreale Nutt. ssp. boreale var. boreale",
      "ownership": null,
      "laws": null
    },
    {
      "landUse": "Salix lucida Muhl. ssp. lucida",
      "ownership": "Broadridge Financial Solutions, Inc.",
      "laws": "4783457020912"
    },
    {
      "landUse": null,
      "ownership": "Maxwell Technologies, Inc.",
      "laws": "4218119187106"
    },
    {
      "landUse": "Thelypodium milleflorum A. Nelson",
      "ownership": "H. B. Fuller Company",
      "laws": "4017958652349"
    },
    {
      "landUse": "Fryxellia pygmaea (Correll) D.M. Bates",
      "ownership": "Cellectar Biosciences, Inc.",
      "laws": "4017956689202048"
    },
    {
      "landUse": "Populus ×berolinensis C. Koch",
      "ownership": "Asia Tigers Fund, Inc. (The)",
      "laws": "4041375739900750"
    },
    {
      "landUse": "Pycnanthemum pycnanthemoides (Leavenworth) Fernald",
      "ownership": "Digirad Corporation",
      "laws": "4041379615750"
    },
    {
      "landUse": "Carex filifolia Nutt.",
      "ownership": "Weingarten Realty Investors",
      "laws": "4041378531560"
    },
    {
      "landUse": "Thelypodiopsis juniperorum (Payson) Rydb.",
      "ownership": "SeaSpine Holdings Corporation",
      "laws": null
    },
    {
      "landUse": "Solidago radula Nutt. var. stenolepis Fernald",
      "ownership": "Gladstone Investment Corporation",
      "laws": "4041376753315"
    },
    {
      "landUse": "Flyriella parryi (A. Gray) R.M. King & H. Rob.",
      "ownership": "Foundation Medicine, Inc.",
      "laws": "4017958626406138"
    },
    {
      "landUse": "Jarilla Rusby",
      "ownership": "Consolidated Communications Holdings, Inc.",
      "laws": null
    },
    {
      "landUse": "Xylographa disseminata Willey",
      "ownership": "National Storage Affiliates Trust",
      "laws": "4133861901564"
    },
    {
      "landUse": "Festuca hyperborea Holmen ex Frederiksen",
      "ownership": "Kroger Company (The)",
      "laws": "4041591442818671"
    },
    {
      "landUse": "Chromatochlamys Trevis.",
      "ownership": "Albireo Pharma, Inc.",
      "laws": "4017958262501325"
    },
    {
      "landUse": "Dalea villosa (Nutt.) Spreng. var. villosa",
      "ownership": "Celgene Corporation",
      "laws": "4017958088281284"
    },
    {
      "landUse": "Chamaecrista glandulosa (L.) Greene var. mirabilis (Pollard) Irwin & Barneby",
      "ownership": "Cintas Corporation",
      "laws": "4041377009029484"
    },
    {
      "landUse": "Cardiospermum halicacabum L.",
      "ownership": "Clifton Bancorp Inc.",
      "laws": "4041593153150021"
    },
    {
      "landUse": "Bryonia dioica Jacq.",
      "ownership": "Kewaunee Scientific Corporation",
      "laws": "4234312249213"
    },
    {
      "landUse": "Trifolium echinatum M. Bieb. var. echinatum",
      "ownership": null,
      "laws": "4041378578423819"
    },
    {
      "landUse": "Henicodium geniculatum (Mitt.) W.R. Buck",
      "ownership": "Teck Resources Ltd",
      "laws": "4804291334101"
    },
    {
      "landUse": "Thyrea pulvinata (Schaerer) A. Massal.",
      "ownership": "CNH Industrial N.V.",
      "laws": "4017958861609164"
    },
    {
      "landUse": "Polypogon viridis (Gouan) Breistr.",
      "ownership": "Advent Claymore Convertible Securities and Income Fund",
      "laws": "4041379122708"
    },
    {
      "landUse": "Vicia acutifolia Elliott",
      "ownership": "Horizons DAX Germany ETF",
      "laws": "4041377858162"
    },
    {
      "landUse": "Hypericum exile P. Adams",
      "ownership": "Douglas Dynamics, Inc.",
      "laws": "4041371788852596"
    },
    {
      "landUse": "Ludwigia spathulata Torr. & A. Gray",
      "ownership": "KCG Holdings, Inc.",
      "laws": "4860889710193"
    },
    {
      "landUse": "Ficus altissima Blume",
      "ownership": "Repligen Corporation",
      "laws": "4984846622956967"
    },
    {
      "landUse": "Cajanus scarabaeoides (L.) Thouars",
      "ownership": "Urstadt Biddle Properties Inc.",
      "laws": null
    },
    {
      "landUse": "Spondias dulcis Parkinson",
      "ownership": "Dominion Energy, Inc.",
      "laws": "4041598782971457"
    },
    {
      "landUse": "Erythrina corallodendron L.",
      "ownership": "Stone Harbor Emerging Markets Total Income Fund",
      "laws": "4041375156999"
    },
    {
      "landUse": "Packera paupercula (Michx.) Á. Löve & D. Löve",
      "ownership": "Liberty Expedia Holdings, Inc.",
      "laws": "4041370858499031"
    },
    {
      "landUse": "Cynanchum ephedroides (Griseb.) Alain",
      "ownership": "VIVUS, Inc.",
      "laws": "4041592288753998"
    },
    {
      "landUse": "Carex cephalophora Muhl. ex Willd.",
      "ownership": "China Southern Airlines Company Limited",
      "laws": "4041370341680734"
    },
    {
      "landUse": null,
      "ownership": "Select Energy Services, Inc.",
      "laws": "4888450162643"
    },
    {
      "landUse": "Pinguicula macroceras Link",
      "ownership": "Green Plains Partners LP",
      "laws": "4034203504839061"
    },
    {
      "landUse": "Salix rotundifolia Trautv. ssp. dodgeana (Rydb.) Argus",
      "ownership": "Top Image Systems, Ltd.",
      "laws": "4041594372195"
    },
    {
      "landUse": "Crataegus pringlei Sarg.",
      "ownership": "Vornado Realty Trust",
      "laws": "4017954552308315"
    },
    {
      "landUse": "Allium ascalonicum L.",
      "ownership": "W.R. Berkley Corporation",
      "laws": "4041370094344"
    },
    {
      "landUse": "Valerianella radiata (L.) Dufr.",
      "ownership": "Coca-Cola European Partners plc",
      "laws": "4196618717554096"
    },
    {
      "landUse": "Clarkia mildrediae (A. Heller) F.H. Lewis & M.E. Lewis",
      "ownership": "The Priceline Group Inc. ",
      "laws": "4146143543659135"
    },
    {
      "landUse": "Houttuynia Thunb.",
      "ownership": "Lindsay Corporation",
      "laws": "4017957988322"
    },
    {
      "landUse": "Hylocomium splendens (Hedw.) Schimp.",
      "ownership": "TESARO, Inc.",
      "laws": "4017954075651"
    },
    {
      "landUse": "Usnea longissima Ach. var. corticata R. Howe",
      "ownership": "Bio-Path Holdings, Inc.",
      "laws": "4469392601079"
    },
    {
      "landUse": "Oenothera macrocarpa Nutt.",
      "ownership": "KCAP Financial, Inc.",
      "laws": "4041599269693416"
    },
    {
      "landUse": "Heuchera americana L. var. americana",
      "ownership": "Anworth Mortgage Asset  Corporation",
      "laws": "4146086939466"
    },
    {
      "landUse": "Tortula fragilis Taylor",
      "ownership": "AMERISAFE, Inc.",
      "laws": "4041599290228"
    },
    {
      "landUse": "Shepherdia canadensis (L.) Nutt.",
      "ownership": "Sociedad Quimica y Minera S.A.",
      "laws": "4041594767592368"
    },
    {
      "landUse": "Cymodocea serrulata (R. Br.) Asch. & Magnus",
      "ownership": "Ooma, Inc.",
      "laws": "4041593291008"
    },
    {
      "landUse": "Collema callibotrys Tuck.",
      "ownership": "Western Asset/Claymore U.S. Treasury Inflation Prot Secs Fd",
      "laws": "4017950742312"
    },
    {
      "landUse": "Eriogonum umbellatum Torr. var. cladophorum Gandog.",
      "ownership": "Addus HomeCare Corporation",
      "laws": "4041595217365"
    },
    {
      "landUse": "Cryptantha circumscissa (Hook. & Arn.) I.M. Johnst. var. hispida (J.F. Macbr.) I.M. Johnst.",
      "ownership": "Alexander's, Inc.",
      "laws": "4017958570723"
    },
    {
      "landUse": "Camptotheca acuminata Decne.",
      "ownership": "Nexstar Media Group, Inc.",
      "laws": "4522012342763782"
    },
    {
      "landUse": "Packera debilis (Nutt.) W.A. Weber & Á. Löve",
      "ownership": "Southside Bancshares, Inc.",
      "laws": "4017957063639"
    },
    {
      "landUse": "Henriettea macfadyenii (Triana) Alain",
      "ownership": "Macro Bank Inc.",
      "laws": "4041597937872818"
    },
    {
      "landUse": "Cirsium pyrenaicum (Jacq.) All.",
      "ownership": "Insulet Corporation",
      "laws": "4041593343064"
    },
    {
      "landUse": "Cyanea st.-johnii (Hosaka) Lammers, Givnish & Systma",
      "ownership": "ASML Holding N.V.",
      "laws": null
    },
    {
      "landUse": "Asplenium trichomanes-ramosum L.",
      "ownership": "Global Partner Acquisition Corp.",
      "laws": "4017957738176142"
    },
    {
      "landUse": "Pulsatilla vulgaris Mill.",
      "ownership": null,
      "laws": "4423258963156"
    },
    {
      "landUse": null,
      "ownership": "Eagle Pharmaceuticals, Inc.",
      "laws": "4041592854558"
    },
    {
      "landUse": "Agave L.",
      "ownership": "Texas Capital Bancshares, Inc.",
      "laws": "4041378797794487"
    },
    {
      "landUse": "Layia Hook. & Arn. ex DC.",
      "ownership": "Vanguard Russell 2000 Value ETF",
      "laws": "4041373332568"
    },
    {
      "landUse": "Viburnum australe Morton",
      "ownership": "Dycom Industries, Inc.",
      "laws": "4017954757370532"
    },
    {
      "landUse": "Pertusaria hypothamnolica Dibben",
      "ownership": "Senior Housing Properties Trust",
      "laws": "4041377822891151"
    },
    {
      "landUse": "Rubus triphyllus Thunb.",
      "ownership": "Customers Bancorp, Inc",
      "laws": "4041591292320950"
    },
    {
      "landUse": "Asclepias californica Greene",
      "ownership": "Inovalon Holdings, Inc.",
      "laws": "4041597787639"
    },
    {
      "landUse": "Encalypta intermedia Jur.",
      "ownership": "Telecom Italia S.P.A.",
      "laws": "4845165794774044"
    },
    {
      "landUse": "Caloplaca luteominia (Tuck.) Zahlbr.",
      "ownership": "Prudential Global Short Duration High Yield Fund, Inc.",
      "laws": "4017955805621370"
    },
    {
      "landUse": "Byrsonima Rich. ex Kunth",
      "ownership": "Hormel Foods Corporation",
      "laws": "4041597381405982"
    },
    {
      "landUse": "Geranium cuneatum Hook. var. hypoleucum A. Gray",
      "ownership": "Total System Services, Inc.",
      "laws": "4041378008775"
    },
    {
      "landUse": "Brickellia lemmonii A. Gray var. lemmonii",
      "ownership": "Glacier Bancorp, Inc.",
      "laws": null
    },
    {
      "landUse": "Arctostaphylos ×parvifolia Howell (pro sp.)",
      "ownership": "MYOS RENS Technology Inc.",
      "laws": "4017958623443134"
    },
    {
      "landUse": "Delphinium parryi A. Gray ssp. eastwoodiae Ewan",
      "ownership": "vTv Therapeutics Inc.",
      "laws": "4041598019699350"
    },
    {
      "landUse": "Aureolaria pedicularia (L.) Raf. var. ambigens (Fernald) Farw.",
      "ownership": "Covanta Holding Corporation",
      "laws": "4041593677784"
    },
    {
      "landUse": "Philadelphus argenteus Rydb.",
      "ownership": "WSFS Financial Corporation",
      "laws": "4041372599944"
    },
    {
      "landUse": "Sedum cockerellii Britton",
      "ownership": "Kosmos Energy Ltd.",
      "laws": "4017958551092366"
    },
    {
      "landUse": "Elymus ciliaris (Trin.) Tzvel. ssp. ciliaris",
      "ownership": "Korea Electric Power Corporation",
      "laws": "4017953900010615"
    },
    {
      "landUse": "Delphinium nuttallii A. Gray ssp. nuttallii",
      "ownership": "Seagate Technology PLC",
      "laws": "4041596674234"
    },
    {
      "landUse": null,
      "ownership": "AmTrust Financial Services, Inc.",
      "laws": "4041372405223146"
    },
    {
      "landUse": "Anredera vesicaria (Lam.) C.F. Gaertn.",
      "ownership": "Herbalife LTD.",
      "laws": "4306045747687"
    },
    {
      "landUse": "Parmotrema mordenii (Hale) Hale",
      "ownership": "Fortress Transportation and Infrastructure Investors LLC",
      "laws": "4041592125448117"
    },
    {
      "landUse": "Phacelia tetramera J.T. Howell",
      "ownership": "Nicholas Financial, Inc.",
      "laws": "4041371448663"
    },
    {
      "landUse": "Eucalyptus microtheca F. Muell.",
      "ownership": "Countrywide Financial Corporation",
      "laws": "4041370062610597"
    },
    {
      "landUse": "Glaucium corniculatum (L.) J.H. Rudolph",
      "ownership": "Kohl's Corporation",
      "laws": "4226385449108518"
    },
    {
      "landUse": "Symphyotrichum ×columbianum (Piper) G.L. Nesom",
      "ownership": "Till Capital Ltd.",
      "laws": "4017959510374986"
    },
    {
      "landUse": "Heliconia bihai (L.) L.",
      "ownership": "WisdomTree Barclays Negative Duration U.S. Aggregate Bond Fund",
      "laws": "4330864958592679"
    },
    {
      "landUse": null,
      "ownership": "Western Gas Equity Partners, LP",
      "laws": "4002156908131"
    },
    {
      "landUse": "Saxifraga spicata D. Don",
      "ownership": "Goldman Sachs MLP Income Opportunities Fund",
      "laws": "4017950334250"
    },
    {
      "landUse": "Phacelia vallicola Congd. ex Brand",
      "ownership": "Pimco Municipal Income Fund II",
      "laws": "4017958713525121"
    },
    {
      "landUse": "Cocculus carolinus (L.) DC.",
      "ownership": "Nomura Holdings Inc ADR",
      "laws": "4041599945672"
    },
    {
      "landUse": "Chelone obliqua L.",
      "ownership": "American Homes 4 Rent",
      "laws": "4041590717351"
    },
    {
      "landUse": "Cucurbita okeechobeensis (Small) L.H. Bailey",
      "ownership": "WisdomTree Western Asset Unconstrained Bond Fund",
      "laws": null
    },
    {
      "landUse": "Lecidea carnulenta (Tuck.) Fink",
      "ownership": "First Trust Indxx Global Agriculture ETF",
      "laws": "4017955538729383"
    },
    {
      "landUse": "Mycomicrothelia willeyana (Müll. Arg.) D. Hawksw.",
      "ownership": "Del Taco Restaurants, Inc.",
      "laws": "4041372290791"
    },
    {
      "landUse": "Solidago uliginosa Nutt. var. linoides (Torr. & A. Gray) Fernald",
      "ownership": "Qwest Corporation",
      "laws": "4041590143681"
    },
    {
      "landUse": "Galium catalinense A. Gray",
      "ownership": "GenVec, Inc.",
      "laws": "4017954996336"
    },
    {
      "landUse": "Lupinus polyphyllus Lindl. ssp. polyphyllus var. grandifolius (Lindl. ex J. Agardh) Torr. & A. Gray",
      "ownership": "FBL Financial Group, Inc.",
      "laws": "4041377740317172"
    },
    {
      "landUse": "Erigeron aequifolius H.M. Hall",
      "ownership": "Immuron Limited",
      "laws": "4041375663155975"
    },
    {
      "landUse": "Asparagus officinalis L.",
      "ownership": null,
      "laws": "4041375041371278"
    },
    {
      "landUse": "Rubus vitifolius Cham. & Schltdl. var. titanus (L.H. Bailey) L.H. Bailey",
      "ownership": "Capital One Financial Corporation",
      "laws": "4017951378977885"
    },
    {
      "landUse": "Phanopyrum gymnocarpon (Elliott) Nash",
      "ownership": "R1 RCM Inc.",
      "laws": "4017957719414983"
    },
    {
      "landUse": "Hippophae L.",
      "ownership": "PPL Corporation",
      "laws": "4041371041237"
    },
    {
      "landUse": "Ceanothus jepsonii Greene",
      "ownership": "R.R. Donnelley & Sons Company",
      "laws": "4041370019176"
    },
    {
      "landUse": "Palamocladium Müll. Hal.",
      "ownership": "Cellectar Biosciences, Inc.",
      "laws": "4041598508382757"
    },
    {
      "landUse": null,
      "ownership": "Tenneco Inc.",
      "laws": "4706401342487708"
    },
    {
      "landUse": "Ocotea moschata (Pav. ex Meisn.) Mez",
      "ownership": "The Charles Schwab Corporation",
      "laws": "4973012005330"
    },
    {
      "landUse": "Lepidium sativum L.",
      "ownership": "Government Properties Income Trust",
      "laws": "4017959513269324"
    },
    {
      "landUse": "Paullinia yoco R.E. Schult. & Killip",
      "ownership": "Cotiviti Holdings, Inc.",
      "laws": "4041372785993656"
    },
    {
      "landUse": "Archidium hallii Austin",
      "ownership": "Energy Recovery, Inc.",
      "laws": "4017951257456829"
    },
    {
      "landUse": "Cryptantha circumscissa (Hook. & Arn.) I.M. Johnst.",
      "ownership": "HNI Corporation",
      "laws": "4041598505725"
    },
    {
      "landUse": "Xanthoria parietina (L.) Th. Fr.",
      "ownership": "Carpenter Technology Corporation",
      "laws": "4041370309908"
    },
    {
      "landUse": "Megalospora porphyritis (Tuck.) R.C. Harris",
      "ownership": "Spark Energy, Inc.",
      "laws": "4041370826860223"
    },
    {
      "landUse": "Pinus palustris Mill.",
      "ownership": "Easterly Acquisition Corp.",
      "laws": "4041377842025228"
    },
    {
      "landUse": "Dennstaedtia cicutaria (Sw.) T. Moore",
      "ownership": "Full House Resorts, Inc.",
      "laws": null
    },
    {
      "landUse": "Toxicodendron radicans (L.) Kuntze",
      "ownership": "Impax Laboratories, Inc.",
      "laws": "4041593581168"
    },
    {
      "landUse": "Lechea tenuifolia Michx.",
      "ownership": "Mettler-Toledo International, Inc.",
      "laws": "4041371577602"
    },
    {
      "landUse": "Sagittaria sanfordii Greene",
      "ownership": "STAAR Surgical Company",
      "laws": "4453971246985"
    },
    {
      "landUse": "Brotherella roellii (Renauld & Cardot) Fleisch.",
      "ownership": "Corbus Pharmaceuticals Holdings, Inc.",
      "laws": "4318112415916"
    },
    {
      "landUse": "Lepidium montanum Nutt.",
      "ownership": "Medical Transcription Billing, Corp.",
      "laws": "4017950920962510"
    },
    {
      "landUse": "Kobresia Willd.",
      "ownership": "Under Armour, Inc.",
      "laws": "4017959199986126"
    },
    {
      "landUse": "Navarretia leptalea (A. Gray) L.A. Johnson ssp. bicolor (H. Mason & A.D. Grant) L.A. Johnson",
      "ownership": "Sequans Communications S.A.",
      "laws": "4017951537596"
    },
    {
      "landUse": "Drosera tracyi Macfarlane",
      "ownership": "Hortonworks, Inc.",
      "laws": "4041375619053"
    },
    {
      "landUse": "Rubus suus L.H. Bailey",
      "ownership": "Goldman Sachs Group, Inc. (The)",
      "laws": "4140681596007096"
    },
    {
      "landUse": "Helleborus foetidus L.",
      "ownership": "NASDAQ TEST STOCK",
      "laws": "4041597786037"
    },
    {
      "landUse": "Oxalis L.",
      "ownership": "Siebert Financial Corp.",
      "laws": null
    },
    {
      "landUse": "Actaea spicata L.",
      "ownership": "Fortress Biotech, Inc.",
      "laws": "4041598714678931"
    },
    {
      "landUse": "Cirsium virginense S.L. Welsh",
      "ownership": "Medley Capital Corporation",
      "laws": "4163583715672762"
    },
    {
      "landUse": "Youngia japonica (L.) DC.",
      "ownership": "VelocityShares VIX Short-Term ETN",
      "laws": null
    },
    {
      "landUse": "Bacidia laurocerasi (Delise ex Duby) Zahlbr.",
      "ownership": "Integra LifeSciences Holdings Corporation",
      "laws": "4522832683717"
    },
    {
      "landUse": "Paraserianthes I.C. Nielsen",
      "ownership": "Tiffany & Co.",
      "laws": "4017953908076287"
    },
    {
      "landUse": "Listera smallii Wiegand",
      "ownership": "First Trust Strategic High Income Fund II",
      "laws": "4041598971109"
    },
    { "landUse": "Iresine P. Br.", "ownership": "Alphabet Inc.", "laws": null },
    {
      "landUse": "Commelina diffusa Burm. f.",
      "ownership": "Allstate Corporation (The)",
      "laws": "4807726944599692"
    },
    {
      "landUse": "Arthrocnemum subterminale (Parish) Standl.",
      "ownership": "Meredith Corporation",
      "laws": "4818379684294"
    },
    {
      "landUse": "Anthriscus caucalis M. Bieb.",
      "ownership": "Moelis & Company",
      "laws": "4534730968595"
    },
    {
      "landUse": "Doronicum pardalianches L.",
      "ownership": "Aqua America, Inc.",
      "laws": null
    },
    {
      "landUse": "Carex kauaiensis R.W. Krauss",
      "ownership": "NOW Inc.",
      "laws": "4041370959716457"
    },
    {
      "landUse": "Philadelphus microphyllus A. Gray",
      "ownership": "Netshoes (Cayman) Limited",
      "laws": "4041596729422410"
    },
    {
      "landUse": "Crataegus suksdorfii (Sarg.) Kruschke",
      "ownership": "Principal Price Setters Index ETF",
      "laws": "4209590447937252"
    },
    {
      "landUse": "Mallotus Lour.",
      "ownership": "Webster Financial Corporation",
      "laws": null
    },
    {
      "landUse": "Leandra krugiana (Cogn.) W.S. Judd & Skean",
      "ownership": "NanoString Technologies, Inc.",
      "laws": "4822039019594254"
    },
    {
      "landUse": "Paxistima canbyi A. Gray",
      "ownership": "Sigma Designs, Inc.",
      "laws": null
    },
    {
      "landUse": "Minuartia michauxii (Fenzl) Farw. var. michauxii",
      "ownership": "POSCO",
      "laws": "4348887188901"
    },
    {
      "landUse": "Erigeron pulchellus Michx. var. tolsteadii Cronquist",
      "ownership": "Brasilagro Cia Brasileira De Propriedades Agricolas",
      "laws": "4041597440135794"
    },
    {
      "landUse": "Astragalus bourgovii A. Gray",
      "ownership": "Pan American Silver Corp.",
      "laws": "4017951286499394"
    },
    {
      "landUse": "Justicia pacifica (Oerst.) Hemsl.",
      "ownership": "Medical Transcription Billing, Corp.",
      "laws": "4696414323249551"
    },
    {
      "landUse": "Carex atrofusca Schkuhr",
      "ownership": "Safety Insurance Group, Inc.",
      "laws": "4017958546772"
    },
    {
      "landUse": "Rumex orthoneurus Rech. f.",
      "ownership": "Federal Realty Investment Trust",
      "laws": "4865185284565855"
    },
    {
      "landUse": "Lomatium sandbergii (J.M. Coult. & Rose) J.M. Coult. & Rose",
      "ownership": "Blackstone GSO Senior Floating Rate Term Fund",
      "laws": "4041372221353085"
    },
    {
      "landUse": "Piscidia carthagenensis Jacq.",
      "ownership": "Urstadt Biddle Properties Inc.",
      "laws": "4041371849718950"
    },
    {
      "landUse": "Perideridia bolanderi (A. Gray) A. Nelson & J.F. Macbr.",
      "ownership": "Surgery Partners, Inc.",
      "laws": "4041593398605"
    },
    {
      "landUse": "Calochortus pulchellus Douglas ex Benth.",
      "ownership": "RenaissanceRe Holdings Ltd.",
      "laws": "4309497128256672"
    },
    {
      "landUse": "Lonicera oblongifolia (Goldie) Hook.",
      "ownership": "Ares Dynamic Credit Allocation Fund, Inc.",
      "laws": "4041371027089919"
    },
    {
      "landUse": "Smelowskia calycina (Stephan ex Willd.) C.A. Mey. var. americana (Regel & Herder) Drury & Rollins",
      "ownership": "Calix, Inc",
      "laws": "4041374419523586"
    },
    {
      "landUse": "Humulus lupulus L. var. neomexicanus A. Nelson & Cockerell",
      "ownership": null,
      "laws": "4017950824342"
    },
    {
      "landUse": "Sidalcea covillei Greene",
      "ownership": "UMB Financial Corporation",
      "laws": "4041375574530"
    },
    {
      "landUse": "Graphis subparilis Nyl.",
      "ownership": "First Trust Nasdaq Food & Beverage ETF",
      "laws": "4962740419707"
    },
    {
      "landUse": "Funtumia africana (Benth.) Stapf",
      "ownership": "T-Mobile US, Inc.",
      "laws": "4017955893687655"
    },
    {
      "landUse": "Croton glandulosus L. var. lindheimeri Müll. Arg.",
      "ownership": "Cerecor Inc.",
      "laws": "4973355924329"
    },
    {
      "landUse": "Lecidea lapicida (Ach.) Ach.",
      "ownership": "Forum Energy Technologies, Inc.",
      "laws": "4041374332880"
    },
    {
      "landUse": "Leibnitzia lyrata (D. Don) G.L. Nesom",
      "ownership": "Blackrock Enhanced Government Fund, Inc",
      "laws": "4041376794641222"
    },
    {
      "landUse": "Iva imbricata Walter",
      "ownership": "SigmaTron International, Inc.",
      "laws": "4022510869334635"
    },
    {
      "landUse": "Douglasia laevigata A. Gray var. ciliolata Constance",
      "ownership": "Regulus Therapeutics Inc.",
      "laws": "4041593245914897"
    },
    {
      "landUse": "Notothylas breutelii (Gottsche) Gottsche",
      "ownership": "Goldman Sachs Group, Inc. (The)",
      "laws": "4041595444613"
    },
    {
      "landUse": "Alternanthera flavescens Kunth",
      "ownership": "First Trust Rising Dividend Achievers ETF",
      "laws": "4041372332155"
    },
    {
      "landUse": "Corylus avellana L.",
      "ownership": "Independence Holding Company",
      "laws": "4041599370289518"
    },
    { "landUse": null, "ownership": "AECOM", "laws": "4041379900193393" },
    {
      "landUse": "Gentiana plurisetosa C.T. Mason",
      "ownership": "LivaNova PLC",
      "laws": "4017950585653"
    },
    {
      "landUse": "Hippomane mancinella L.",
      "ownership": null,
      "laws": "4041596796425"
    },
    {
      "landUse": "Trapa bicornis Osbeck",
      "ownership": "AzurRx BioPharma, Inc.",
      "laws": "4041590762611088"
    },
    {
      "landUse": "Gilia latiflora (A. Gray) A. Gray ssp. cuyamensis A.D. Grant & V.E. Grant",
      "ownership": "SORL Auto Parts, Inc.",
      "laws": "4041374717411"
    },
    {
      "landUse": "Chamaesyce velleriflora (Klotzsch & Garcke) Millsp.",
      "ownership": "Cooper Companies, Inc. (The)",
      "laws": "4017955210445191"
    },
    {
      "landUse": "Trichosanthes anguina L.",
      "ownership": "Piedmont Office Realty Trust, Inc.",
      "laws": "4041598967354"
    },
    {
      "landUse": "Delphinium hesperium A. Gray ssp. hesperium",
      "ownership": "Oclaro, Inc.",
      "laws": "4041595233852526"
    },
    {
      "landUse": null,
      "ownership": "Caesars Entertainment Corporation",
      "laws": "4589925851295757"
    },
    {
      "landUse": "Dicentra formosa (Haw.) Walp. ssp. oregona (Eastw.) Munz",
      "ownership": "AveXis, Inc.",
      "laws": "4017953124435"
    },
    {
      "landUse": null,
      "ownership": "Sky Solar Holdings, Ltd.",
      "laws": "4017950662618239"
    },
    {
      "landUse": "Aptenia N.E. Br.",
      "ownership": "The Gabelli Healthcare & Wellness Trust",
      "laws": "4017957737649891"
    },
    {
      "landUse": "Sidalcea hirsuta A. Gray ex Benth.",
      "ownership": "Constellation Brands Inc",
      "laws": "4017950556391018"
    },
    {
      "landUse": "Cyrtandra propinqua Forbes",
      "ownership": "Lantheus Holdings, Inc.",
      "laws": "4017955004437"
    },
    {
      "landUse": null,
      "ownership": "Renewable Energy Group, Inc.",
      "laws": "4937276600763"
    },
    {
      "landUse": "Oleandra articulata (Sw.) C. Presl",
      "ownership": "Landauer, Inc.",
      "laws": "4017956035582705"
    },
    {
      "landUse": "Grindelia stricta DC. var. stricta",
      "ownership": "Nuveen New York AMT-Free Quality Municipal",
      "laws": "4017957296813474"
    },
    {
      "landUse": "Anemone drummondii S. Watson ssp. drummondii",
      "ownership": "GP Investments Acquisition Corp.",
      "laws": null
    },
    {
      "landUse": "Coryphantha recurvata (Engelm.) Britton & Rose",
      "ownership": "Blackrock California Municipal 2018 Term Trust",
      "laws": "4041373838028"
    },
    {
      "landUse": "Allium atroviolaceum Boiss.",
      "ownership": "Siebert Financial Corp.",
      "laws": "4017959900598"
    },
    {
      "landUse": "Priva portoricensis Urb.",
      "ownership": "National Holdings Corporation",
      "laws": "4041599450855"
    },
    {
      "landUse": "Trifolium piorkowskii Rand. Morgan & A.L. Barber",
      "ownership": "Great Elm Capital Corp.",
      "laws": "4323544545850"
    },
    {
      "landUse": "Psora pseudorussellii Timdal",
      "ownership": "Portland General Electric Company",
      "laws": "4967715946765811"
    },
    {
      "landUse": "Tordylium L.",
      "ownership": "HollyFrontier Corporation",
      "laws": "4844793363687"
    },
    {
      "landUse": "Croton elliottii Chapm.",
      "ownership": "Norwood Financial Corp.",
      "laws": "4546720048535"
    },
    {
      "landUse": "Botrychium spathulatum W.H. Wagner",
      "ownership": "iShares MSCI All Country Asia ex Japan Index Fund",
      "laws": "4041373585764115"
    },
    {
      "landUse": "Eriophorum russeolum Fr. ex Hartm.",
      "ownership": "Oxbridge Re Holdings Limited",
      "laws": "4041370213837"
    },
    {
      "landUse": "Nuttallanthus canadensis (L.) D.A. Sutton",
      "ownership": "Westell Technologies, Inc.",
      "laws": "4017957207202"
    },
    {
      "landUse": "Dirinaria confusa D.D. Awasthi var. saxicola (Rasanen) D.D. Awasthi",
      "ownership": "Teva Pharmaceutical Industries Limited",
      "laws": "4017950086785"
    },
    {
      "landUse": "Oenothera macrocarpa Nutt. ssp. macrocarpa",
      "ownership": "DNB Financial Corp",
      "laws": "4041375583754"
    },
    {
      "landUse": "Myrsine helleri (O. Deg. & I. Deg.) H. St. John",
      "ownership": "NeuroDerm Ltd.",
      "laws": "4926430470307598"
    },
    {
      "landUse": "Dipogon lignosus (L.) Verdc.",
      "ownership": "Packaging Corporation of America",
      "laws": "4036304716782483"
    },
    {
      "landUse": "Iris delavayi Micheli",
      "ownership": "Advanced Energy Industries, Inc.",
      "laws": "4589011562376"
    },
    {
      "landUse": "Aegiphila elata Sw.",
      "ownership": "BMC Stock Holdings, Inc.",
      "laws": "4017951647817904"
    },
    {
      "landUse": "Eriophyllum confertiflorum (DC.) A. Gray var. confertiflorum",
      "ownership": "Crown Castle International Corporation",
      "laws": "4041375797285045"
    },
    {
      "landUse": "Lespedeza Michx.",
      "ownership": "The Advisory Board Company",
      "laws": "4381039591599"
    },
    {
      "landUse": "Osmanthus americanus (L.) Benth. & Hook. f. ex A. Gray var. americanus",
      "ownership": "USD Partners LP",
      "laws": "4041594269987"
    },
    {
      "landUse": "Doyerea emetocathartica Gros.",
      "ownership": "Smith & Nephew SNATS, Inc.",
      "laws": "4903127179769576"
    },
    {
      "landUse": "Gamochaeta Weddell",
      "ownership": "Swiss Helvetia Fund, Inc. (The)",
      "laws": "4017952068237"
    },
    {
      "landUse": "Lolium ×hybridum Hausskn.",
      "ownership": "Cumulus Media Inc.",
      "laws": "4041373324677404"
    },
    {
      "landUse": "Packera flettii (Wiegand) W.A. Weber & Á. Löve",
      "ownership": "Cascadian Therapeutics, Inc.",
      "laws": "4041599242922"
    },
    {
      "landUse": "Holosteum L.",
      "ownership": null,
      "laws": "4041592712279255"
    },
    {
      "landUse": "Galium glabrescens (Ehrend.) Dempster & Ehrend. ssp. modocense Dempster & Ehrend.",
      "ownership": "Selective Insurance Group, Inc.",
      "laws": null
    },
    {
      "landUse": "Arthonia glebosa Tuck.",
      "ownership": "MarineMax, Inc.",
      "laws": "4730056233984260"
    },
    {
      "landUse": "Gymnocarpium appalachianum Pryer",
      "ownership": "Digital Realty Trust, Inc.",
      "laws": "4989544863865097"
    },
    {
      "landUse": "Amsonia ciliata Walter var. texana (A. Gray) J.M. Coult.",
      "ownership": "Merrill Lynch Depositor, Inc.",
      "laws": "4041370063368633"
    },
    {
      "landUse": "Setaria sphacelata (Schumach.) Stapf & C.E. Hubb. ex M.B. Moss",
      "ownership": "ACI Worldwide, Inc.",
      "laws": "4223846134504"
    },
    {
      "landUse": "Melampodium cinereum DC. var. cinereum",
      "ownership": "Bunge Limited",
      "laws": "4041378759062"
    },
    {
      "landUse": "Geranium oreganum Howell",
      "ownership": "CTS Corporation",
      "laws": "4041595758657"
    },
    {
      "landUse": "Cucurbita palmata S. Watson",
      "ownership": "Corium International, Inc.",
      "laws": "4041599056352770"
    },
    {
      "landUse": "Astragalus jejunus S. Watson var. jejunus",
      "ownership": "CHS Inc",
      "laws": "4041599744596"
    },
    {
      "landUse": "Terminalia bellirica (Gaertn.) Roxb.",
      "ownership": "Torchmark Corporation",
      "laws": "4470886913678822"
    },
    {
      "landUse": "Eriogonum latifolium Sm.",
      "ownership": "Wayfair Inc.",
      "laws": "4017956439665"
    },
    {
      "landUse": "Hesperocyparis Bartel & R.A. Price",
      "ownership": "Sunoco LP",
      "laws": "4041592553778019"
    },
    {
      "landUse": "Moricandia arvensis (L.) DC.",
      "ownership": "TCF Financial Corporation",
      "laws": "4017957504251"
    },
    {
      "landUse": "Lupinus albifrons Benth. var. collinus Greene",
      "ownership": "CrossAmerica Partners LP",
      "laws": "4017957993243868"
    },
    {
      "landUse": "Tauschia hooveri Mathias & Constance",
      "ownership": "Comstock Resources, Inc.",
      "laws": "4017958730242163"
    },
    {
      "landUse": "Eriogonum diatomaceum Reveal, J. Reynolds & Picciani",
      "ownership": "Woodward, Inc.",
      "laws": null
    },
    {
      "landUse": "Digitaria serotina (Walter) Michx.",
      "ownership": "Frankly, Inc.",
      "laws": "4041593249360"
    },
    {
      "landUse": "Perityle rupestris (A. Gray) Shinners",
      "ownership": "Popular, Inc.",
      "laws": "4017953792856471"
    },
    {
      "landUse": "Gentianopsis macounii (T. Holm) Iltis",
      "ownership": "Amerco",
      "laws": "4041593833726"
    },
    {
      "landUse": "Schismatomma rappii (Zahlbr.) R.C. Harris",
      "ownership": "CyberArk Software Ltd.",
      "laws": "4041597848639"
    },
    {
      "landUse": "Peltigera aphthosa (L.) Willd.",
      "ownership": "Archrock, Inc.",
      "laws": "4041594529687"
    },
    {
      "landUse": "Epidendrum magnoliae Muhl. var. mexicanum (L.O. Williams) P.M. Brown",
      "ownership": "NextEra Energy, Inc.",
      "laws": "4017952731579509"
    },
    {
      "landUse": "Ulmus crassifolia Nutt.",
      "ownership": "Duff & Phelps Utilities Tax-Free Income, Inc.",
      "laws": "4162769275714380"
    },
    {
      "landUse": "Pseudognaphalium helleri (Britton) Anderb. ssp. micradenium (Weath.) Kartesz",
      "ownership": "Star Bulk Carriers Corp.",
      "laws": "4474111785632484"
    },
    {
      "landUse": "Lessingia nana A. Gray",
      "ownership": "Bassett Furniture Industries, Incorporated",
      "laws": null
    },
    {
      "landUse": "Scleropogon Phil.",
      "ownership": "Insys Therapeutics, Inc.",
      "laws": "4156610699636999"
    },
    {
      "landUse": "Wikstroemia uva-ursi A. Gray",
      "ownership": "Peoples Bancorp of North Carolina, Inc.",
      "laws": "4041372318428519"
    },
    {
      "landUse": "Sorghastrum nutans (L.) Nash",
      "ownership": "Superconductor Technologies Inc.",
      "laws": "4561098527150"
    },
    {
      "landUse": "Allium plummerae S. Watson",
      "ownership": null,
      "laws": "4041379724420"
    },
    {
      "landUse": "Lupinus leucophyllus Douglas ex Lindl. ssp. leucophyllus var. canescens (Howell) C.P. Sm.",
      "ownership": "Pebblebrook Hotel Trust",
      "laws": "4041590088044691"
    },
    {
      "landUse": "Luzula luzuloides (Lam.) Dandy & Wilmott",
      "ownership": null,
      "laws": "4041590601811"
    },
    {
      "landUse": "Aristida basiramea Engelm. ex Vasey",
      "ownership": "iShares Fallen Angels USD Bond ETF",
      "laws": "4041374400054906"
    },
    {
      "landUse": "Leptosiphon ciliatus (Benth.) Jeps.",
      "ownership": "Blackrock New York Municipal Income Quality Trust",
      "laws": "4525428498917435"
    },
    {
      "landUse": "Gonocalyx concolor Nevl.",
      "ownership": "Cooper Companies, Inc. (The)",
      "laws": "4041374249506"
    },
    {
      "landUse": "Sanicula canadensis L. var. canadensis",
      "ownership": "Panera Bread Company",
      "laws": "4041371881434"
    },
    { "landUse": "Caesalpinia L.", "ownership": null, "laws": "4017956674014" },
    {
      "landUse": "Helenium quadridentatum Labill.",
      "ownership": "Targa Resources Partners LP",
      "laws": "4853776577650"
    },
    {
      "landUse": "Townsendia leptotes (A. Gray) Osterh.",
      "ownership": "Eaton Vance NextShares Trust",
      "laws": "4041598191310"
    },
    {
      "landUse": "Cassia fistula L.",
      "ownership": "iShares MSCI China ETF",
      "laws": "4017952077659"
    },
    {
      "landUse": "Carex lucorum Willd. ex Link",
      "ownership": "Churchill Downs, Incorporated",
      "laws": "4432189099766"
    },
    {
      "landUse": "Aletes humilis J.M. Coult. & Rose",
      "ownership": "Enterprise Financial Services Corporation",
      "laws": "4808839121284"
    },
    {
      "landUse": "Caryocar F. Allam. ex L.",
      "ownership": "Atlantic Capital Bancshares, Inc.",
      "laws": "4124792133129853"
    },
    {
      "landUse": "Salix euxina I.V. Belyaeva",
      "ownership": "MGM Resorts International",
      "laws": "4017953001773"
    },
    {
      "landUse": "Caloplaca vicaria H. Magn.",
      "ownership": "Western Asset Mortgage Defined Opportunity Fund Inc",
      "laws": null
    },
    {
      "landUse": "Cladonia thomsonii Ahti",
      "ownership": "Reinsurance Group of America, Incorporated",
      "laws": "4041376745794724"
    },
    {
      "landUse": "Allium geyeri S. Watson",
      "ownership": "DRDGOLD Limited",
      "laws": null
    },
    {
      "landUse": "Lomatium dasycarpum (Torr. & A. Gray) J.M. Coult. & Rose",
      "ownership": "Peabody Energy Corporation",
      "laws": "4017950002915"
    },
    {
      "landUse": "Pontederia cordata L.",
      "ownership": "PayPal Holdings, Inc.",
      "laws": "4041379596215682"
    },
    {
      "landUse": "Phlox hoodii Richardson ssp. muscoides (Nutt.) Wherry",
      "ownership": "Welbilt, Inc.",
      "laws": "4017953811653305"
    },
    {
      "landUse": "Prunus angustifolia Marshall",
      "ownership": "Transocean Ltd.",
      "laws": "4852101532943"
    },
    {
      "landUse": "Larix kaempferi (Lam.) Carrière",
      "ownership": "Snap-On Incorporated",
      "laws": "4301257432000325"
    },
    {
      "landUse": "Micarea Fr.",
      "ownership": "Waterstone Financial, Inc.",
      "laws": "4041373659317"
    },
    {
      "landUse": "Crataegus spatiosa Sarg.",
      "ownership": "Ironwood Pharmaceuticals, Inc.",
      "laws": "4041599000346"
    },
    {
      "landUse": "Euphorbia resinifera Berg",
      "ownership": "ModusLink Global Solutions, Inc",
      "laws": "4823003394583"
    },
    {
      "landUse": "Elymus californicus (Bol. ex Thurb.) Gould",
      "ownership": null,
      "laws": "4017959475236352"
    },
    {
      "landUse": "Isocoma arguta Greene",
      "ownership": null,
      "laws": "4041594720962542"
    },
    {
      "landUse": "Castilleja cryptantha Pennell & G.N. Jones",
      "ownership": "Sierra Wireless, Inc.",
      "laws": "4041372331225025"
    },
    {
      "landUse": null,
      "ownership": "support.com, Inc.",
      "laws": "4041371751918"
    },
    {
      "landUse": "Gladiolus communis L. ssp. communis",
      "ownership": "Toll Brothers Inc.",
      "laws": "4041597705013645"
    },
    { "landUse": null, "ownership": "Biostage, Inc.", "laws": "4041378985055" },
    {
      "landUse": "Mimulus pulchellus (E. Drew ex Greene) A.L. Grant",
      "ownership": "China Information Technology, Inc.",
      "laws": null
    },
    {
      "landUse": "Oclemena ×blakei (Porter) G.L. Nesom",
      "ownership": "Nivalis Therapeutics, Inc.",
      "laws": "4017956259215081"
    },
    {
      "landUse": "Arthraxon P. Beauv.",
      "ownership": "PowerShares S&P SmallCap Energy Portfolio",
      "laws": "4761697556564"
    },
    {
      "landUse": "Calamagrostis Adans.",
      "ownership": "Selective Insurance Group, Inc.",
      "laws": "4041597906197"
    },
    {
      "landUse": "Eriodictyon crassifolium Benth. var. crassifolium",
      "ownership": "Great Southern Bancorp, Inc.",
      "laws": "4574413520735"
    },
    {
      "landUse": "Diphyscium foliosum (Hedw.) D. Mohr",
      "ownership": "Blueknight Energy Partners L.P., L.L.C.",
      "laws": null
    },
    {
      "landUse": "Vezdaea Tsch.-Woess & Poelt",
      "ownership": "Crane Company",
      "laws": "4041599314058045"
    },
    {
      "landUse": "Fremontodendron mexicanum Davidson",
      "ownership": "Canada Goose Holdings Inc.",
      "laws": "4017953423381568"
    },
    {
      "landUse": "Hypoxis L.",
      "ownership": "IDACORP, Inc.",
      "laws": "4212685158627038"
    },
    {
      "landUse": "Picradeniopsis woodhousei (A. Gray) Rydb.",
      "ownership": "Eagle Point Credit Company Inc.",
      "laws": "4041593728272"
    },
    {
      "landUse": "Calycophyllum DC.",
      "ownership": null,
      "laws": "4667374799942797"
    },
    {
      "landUse": "Eugenia brasiliensis Lam.",
      "ownership": "Cincinnati Bell Inc",
      "laws": "4017958126281833"
    },
    {
      "landUse": "Wolffiella oblonga (Phil.) Hegelm.",
      "ownership": "Regis Corporation",
      "laws": "4883137726522"
    },
    {
      "landUse": "Phacelia laxiflora J.T. Howell",
      "ownership": "Heartland Express, Inc.",
      "laws": "4041379388514110"
    },
    {
      "landUse": "Berberis harrisoniana Kearney & Peebles",
      "ownership": "Sprott Focus Trust, Inc.",
      "laws": "4017956744924"
    },
    {
      "landUse": "Daniellia ogea (Harms) Rolfe ex Holland",
      "ownership": "MAM Software Group, Inc.",
      "laws": "4017955727580464"
    },
    {
      "landUse": "Schistidium cryptocarpum Nog. & Blum",
      "ownership": "Natural Grocers by Vitamin Cottage, Inc.",
      "laws": "4041379192123"
    },
    {
      "landUse": "Agave delamateri W.C. Hodgson & L. Slauson",
      "ownership": "M I Acquisitions, Inc.",
      "laws": "4017951834211929"
    },
    {
      "landUse": "Rhus virens Lindh. ex A. Gray var. virens",
      "ownership": "Cedar Realty Trust, Inc.",
      "laws": "4017953018033"
    },
    {
      "landUse": "Phlox glabriflora (Brand) Whitehouse",
      "ownership": "Triple-S Management Corporation",
      "laws": "4017954991873"
    },
    {
      "landUse": "Pertusaria valliculata Dibben",
      "ownership": "National CineMedia, Inc.",
      "laws": "4041370692963705"
    },
    {
      "landUse": "Astragalus castaneiformis S. Watson",
      "ownership": "Clearwater Paper Corporation",
      "laws": "4041376852778"
    },
    {
      "landUse": "Acalypha rhomboidea Raf.",
      "ownership": "Citizens, Inc.",
      "laws": "4017952753978"
    },
    {
      "landUse": "Limnocharis Humb. & Bonpl.",
      "ownership": null,
      "laws": "4041599995251521"
    },
    {
      "landUse": "Wisteria sinensis (Sims) DC.",
      "ownership": "Legg Mason Emerging Markets Diversified Core ETF",
      "laws": "4174660975225601"
    },
    {
      "landUse": "Aconitum maximum Pall. ex DC.",
      "ownership": "Net 1 UEPS Technologies, Inc.",
      "laws": "4041378974893"
    },
    {
      "landUse": "Sisyrinchium funereum E.P. Bicknell",
      "ownership": "Intersect ENT, Inc.",
      "laws": "4017959531894145"
    },
    {
      "landUse": "Brothera leana (Sull.) Müll. Hal.",
      "ownership": "First Trust Large Cap Growth AlphaDEX Fund",
      "laws": "4017959487958704"
    },
    {
      "landUse": "Schismus barbatus (Loefl. ex L.) Thell.",
      "ownership": "Boston Properties, Inc.",
      "laws": null
    },
    {
      "landUse": "Robinia pseudoacacia L.",
      "ownership": "ILG, Inc",
      "laws": "4017958082481054"
    },
    {
      "landUse": "Streptanthus maculatus Nutt.",
      "ownership": "American Electric Power Company, Inc.",
      "laws": "4041590288886446"
    },
    {
      "landUse": "Rauiella Reim.",
      "ownership": "Eaton Corporation, PLC",
      "laws": "4041596406129387"
    },
    {
      "landUse": "Euterpe oleracea Mart.",
      "ownership": "New York Community Bancorp, Inc.",
      "laws": null
    },
    {
      "landUse": "Hypogymnia subcapitata (Nyl.) Rass.",
      "ownership": "ExlService Holdings, Inc.",
      "laws": "4041599983765631"
    },
    {
      "landUse": "Clematis ligusticifolia Nutt.",
      "ownership": "Teekay Offshore Partners L.P.",
      "laws": "4888991645288316"
    },
    {
      "landUse": "Drosera ×hybrida Macfarlane (pro sp.)",
      "ownership": "WisdomTree Barclays Interest Rate Hedged U.S. Aggregate Bond F",
      "laws": "4687284512754377"
    },
    {
      "landUse": "Malacothamnus jonesii (Munz) Kearney",
      "ownership": "TerraForm Global, Inc.",
      "laws": "4041372705489157"
    },
    {
      "landUse": "Thelypteris yaucoensis Proctor",
      "ownership": "Genpact Limited",
      "laws": "4041372462465"
    },
    {
      "landUse": "Pinus elliottii Engelm. var. densa Little & Dorman",
      "ownership": "Key Tronic Corporation",
      "laws": "4017954524716"
    },
    {
      "landUse": "Ligularia dentata (A. Gray) H. Hara",
      "ownership": "Meridian Bancorp, Inc.",
      "laws": "4041599118220676"
    },
    {
      "landUse": "Atriplex wolfii S. Watson",
      "ownership": "Everbridge, Inc.",
      "laws": "4041372893180741"
    },
    {
      "landUse": "Gutierrezia sphaerocephala A. Gray",
      "ownership": "DelMar Pharmaceuticals, Inc.",
      "laws": "4041598281651055"
    },
    {
      "landUse": "Nephroma occultum Wetmore",
      "ownership": "Dolby Laboratories",
      "laws": "4041595593211"
    },
    {
      "landUse": "Salix planifolia Pursh",
      "ownership": "iShares MSCI EAFE Small-Cap ETF",
      "laws": "4464329814097360"
    },
    {
      "landUse": "Vitex trifolia L. var. subtrisecta (Kuntze) Moldenke",
      "ownership": "Molson Coors Brewing  Company",
      "laws": "4041597883685"
    },
    {
      "landUse": "Trisetum sibiricum Rupr.",
      "ownership": "ORBCOMM Inc.",
      "laws": "4041591762554"
    },
    {
      "landUse": "Carex ×kyyhkynenii Hidén (pro sp.)",
      "ownership": "Sturm, Ruger & Company, Inc.",
      "laws": "4446510270880125"
    },
    {
      "landUse": "Lindernia dubia (L.) Pennell var. dubia",
      "ownership": "East West Bancorp, Inc.",
      "laws": "4017956405484268"
    },
    {
      "landUse": "Coccoloba diversifolia Jacq.",
      "ownership": "Boot Barn Holdings, Inc.",
      "laws": "4041370581688"
    },
    {
      "landUse": "Erigeron peregrinus (Banks ex Pursh) Greene ssp. peregrinus var. thompsonii (S.F. Blake ex J.W. Thompson) Cronquist",
      "ownership": "Kornit Digital Ltd.",
      "laws": "4041594468332"
    },
    {
      "landUse": "Astragalus arrectus A. Gray",
      "ownership": "MYOS RENS Technology Inc.",
      "laws": null
    },
    {
      "landUse": "Leptodontium (Müll. Hal.) Hampe ex Lindb.",
      "ownership": "Silver Standard Resources Inc.",
      "laws": "4041590116166"
    },
    {
      "landUse": "Carex ×helvola Blytt (pro sp.)",
      "ownership": "Customers Bancorp, Inc",
      "laws": "4017953593327250"
    },
    {
      "landUse": "Meconella Nutt.",
      "ownership": "Medtronic plc",
      "laws": "4990555366963277"
    },
    {
      "landUse": "Trifolium pratense L.",
      "ownership": "CSI Compressco LP",
      "laws": "4017950006361"
    },
    {
      "landUse": "Huperzia reflexa (Lam.) Trevis.",
      "ownership": "ClearBridge Dividend Strategy ESG ETF",
      "laws": "4017952729033568"
    },
    {
      "landUse": "Loranthus L.",
      "ownership": "Davis Select Worldwide ETF",
      "laws": "4041595897653"
    },
    {
      "landUse": "Bidens campylotheca Sch. Bip. ssp. campylotheca",
      "ownership": "MKS Instruments, Inc.",
      "laws": "4041372152868"
    },
    {
      "landUse": "Baccharis L.",
      "ownership": "WisdomTree Interest Rate Hedged High Yield Bond Fund",
      "laws": "4425479885571"
    },
    {
      "landUse": "Erigeron concinnus (Hook. & Arn.) Torr. & A. Gray var. concinnus",
      "ownership": "Newtek Business Services Corp.",
      "laws": "4090616284870140"
    },
    {
      "landUse": "Camissonia hirtella (Greene) P.H. Raven",
      "ownership": "Zion Oil & Gas Inc",
      "laws": null
    },
    {
      "landUse": "Encephalartos ferox G. Bertol.",
      "ownership": null,
      "laws": null
    },
    {
      "landUse": "Gentiana andrewsii Griseb. var. andrewsii",
      "ownership": "Tetraphase Pharmaceuticals, Inc.",
      "laws": "4041372772772550"
    },
    {
      "landUse": "Polyctenium williamsiae Rollins",
      "ownership": "Nuveen Select Maturities Municipal Fund",
      "laws": "4041594779878"
    },
    {
      "landUse": "Malva moschata L.",
      "ownership": "First Trust China AlphaDEX Fund",
      "laws": "4017951924422"
    },
    {
      "landUse": "Saltugilia (V.E. Grant) L.A. Johnson",
      "ownership": "Cytokinetics, Incorporated",
      "laws": "4041595984907"
    },
    {
      "landUse": "Psophocarpus palustris Desv.",
      "ownership": null,
      "laws": "4041379456238402"
    },
    {
      "landUse": "Ruellia devosiana hort. Makoy ex A.E. Murray",
      "ownership": "Daily Journal Corp. (S.C.)",
      "laws": "4041592038506910"
    },
    {
      "landUse": null,
      "ownership": "SteadyMed Ltd.",
      "laws": "4017957822903500"
    },
    {
      "landUse": "Lepidium montanum Nutt. var. alpinum S. Watson",
      "ownership": "Four Corners Property Trust, Inc.",
      "laws": "4041378050462"
    },
    {
      "landUse": "Bulbostylis capillaris (L.) Kunth ex C.B. Clarke ssp. capillaris",
      "ownership": "American Woodmark Corporation",
      "laws": "4041592922470"
    },
    {
      "landUse": "Vinca minor L.",
      "ownership": "Ultrapar Participacoes S.A.",
      "laws": "4041379158934"
    },
    {
      "landUse": "Solanum torvum Sw.",
      "ownership": null,
      "laws": "4633157002357"
    },
    {
      "landUse": "Aphanisma Nutt. ex Moq.",
      "ownership": "Akari Therapeutics Plc",
      "laws": "4041593743628"
    },
    {
      "landUse": "Physostegia leptophylla Small",
      "ownership": "Hess Corporation",
      "laws": "4017955726625"
    },
    {
      "landUse": "Stachys rigida Nutt. ex Benth. var. rigida",
      "ownership": "Lumos Networks Corp.",
      "laws": "4946275364974"
    },
    {
      "landUse": "Phanopyrum (Raf.) Nash",
      "ownership": "Universal Forest Products, Inc.",
      "laws": "4041378203707"
    },
    {
      "landUse": "Thermopsis robusta Howell",
      "ownership": "Morgan Stanley",
      "laws": "4017957859069"
    },
    {
      "landUse": "Bouchea Cham.",
      "ownership": "TransMontaigne Partners L.P.",
      "laws": "4017956783718253"
    },
    {
      "landUse": "Arnica latifolia Bong.",
      "ownership": "Pernix Therapeutics Holdings, Inc.",
      "laws": "4041591249412"
    },
    {
      "landUse": "Isoetes tenella Léman",
      "ownership": "Chesapeake Energy Corporation",
      "laws": "4041590482691"
    },
    {
      "landUse": "Eriogonum flavum Nutt.",
      "ownership": "Highwoods Properties, Inc.",
      "laws": null
    },
    {
      "landUse": "Parkinsonia L.",
      "ownership": "Western Asset Mortgage Defined Opportunity Fund Inc",
      "laws": "4041379196575220"
    },
    {
      "landUse": "Croton leucophyllus Müll. Arg.",
      "ownership": "Atlantic Capital Bancshares, Inc.",
      "laws": "4041599251874370"
    },
    {
      "landUse": "Critonia P. Br.",
      "ownership": "Real Goods Solar, Inc.",
      "laws": "4967309169445"
    },
    {
      "landUse": "Opuntia engelmannii Salm-Dyck ex Engelm. var. lindheimeri (Engelm.) Parfitt & Pinkava",
      "ownership": "GoDaddy Inc.",
      "laws": "4767657615997998"
    },
    {
      "landUse": "Lecidella subauriculata (de Lesd.) ?, ined.?",
      "ownership": "Groupon, Inc.",
      "laws": "4041597599437850"
    },
    {
      "landUse": "Marina parryi (Torr. & A. Gray) Barneby",
      "ownership": "ENI S.p.A.",
      "laws": "4041590390940198"
    },
    {
      "landUse": "Stanfordia californica S. Watson",
      "ownership": "Arlington Asset Investment Corp",
      "laws": "4041375794120"
    },
    {
      "landUse": "Phlox maculata L. ssp. maculata",
      "ownership": "Apartment Investment and Management Company",
      "laws": null
    },
    {
      "landUse": "Bergerocactus Britton & Rose",
      "ownership": "Aetna Inc.",
      "laws": "4041377542227165"
    },
    {
      "landUse": "Baccharis pteronioides DC.",
      "ownership": "Mednax, Inc",
      "laws": "4647996868825761"
    },
    {
      "landUse": "Desmodium axillare (Sw.) DC. var. axillare",
      "ownership": null,
      "laws": "4017954993736900"
    },
    {
      "landUse": "Erythronium pluriflorum Shevock, Bartel & Allen",
      "ownership": "FinTech Acquisition Corp. II",
      "laws": "4017959608258"
    },
    {
      "landUse": "Asparagus officinalis L.",
      "ownership": "Prudential Financial, Inc.",
      "laws": "4017955198042838"
    },
    {
      "landUse": "Froelichia floridana (Nutt.) Moq.",
      "ownership": "PowerShares Multi-Strategy Alternative Portfolio",
      "laws": "4041594919545280"
    },
    {
      "landUse": null,
      "ownership": "Cardiome Pharma Corporation",
      "laws": "4041597679059"
    },
    {
      "landUse": "Paspalum secans Hitchc. & Chase",
      "ownership": "ArQule, Inc.",
      "laws": "4041372044553101"
    },
    {
      "landUse": "Adenostemma J.R. Forst. & G. Forst.",
      "ownership": "Invuity, Inc.",
      "laws": null
    },
    {
      "landUse": "Nyctaginia Choisy",
      "ownership": "Ambac Financial Group, Inc.",
      "laws": "4041374713550"
    },
    {
      "landUse": "Alliaria petiolata (M. Bieb.) Cavara & Grande",
      "ownership": "Consolidated Communications Holdings, Inc.",
      "laws": "4041594654451"
    },
    {
      "landUse": "Vicia lutea L.",
      "ownership": "CONMED Corporation",
      "laws": "4462116684489"
    },
    {
      "landUse": "Saccharum alopecuroides (L.) Nutt.",
      "ownership": "Avis Budget Group, Inc.",
      "laws": "4041377198195302"
    },
    {
      "landUse": "Astragalus desperatus M.E. Jones var. petrophilus M.E. Jones",
      "ownership": "Sequential Brands Group, Inc.",
      "laws": "4751393272459332"
    },
    {
      "landUse": "Silene latifolia Poir.",
      "ownership": "Public Storage",
      "laws": "4111445969398"
    },
    {
      "landUse": "Eriogonum umbellatum Torr. var. vernum Reveal",
      "ownership": "Alere Inc.",
      "laws": "4787554545101955"
    },
    {
      "landUse": "Linanthus jaegeri (Munz) J.M. Porter & L.A. Johnson",
      "ownership": "StarTek, Inc.",
      "laws": "4017953539418593"
    },
    {
      "landUse": null,
      "ownership": "Jensyn Acquistion Corp.",
      "laws": "4041374702137441"
    },
    {
      "landUse": "Monardella hypoleuca A. Gray",
      "ownership": "Bank Mutual Corporation",
      "laws": "4041594303300979"
    },
    {
      "landUse": "Lupinus croceus Eastw.",
      "ownership": "China Automotive Systems, Inc.",
      "laws": "4041374957930367"
    },
    {
      "landUse": "Usnea condensata Mot.",
      "ownership": "Conatus Pharmaceuticals Inc.",
      "laws": null
    },
    {
      "landUse": "Salix laevigata Bebb",
      "ownership": "Genesis Healthcare, Inc.",
      "laws": "4660478162115993"
    },
    {
      "landUse": "Astragalus desperatus M.E. Jones",
      "ownership": "Pacific Drilling S.A.",
      "laws": "4041595004740884"
    },
    {
      "landUse": "Argemone sanguinea Greene",
      "ownership": "MDC Partners Inc.",
      "laws": "4041372525824"
    },
    {
      "landUse": "Lupinus caudatus Kellogg ssp. cutleri (Eastw.) Hess & D. Dunn",
      "ownership": "Boston Private Financial Holdings, Inc.",
      "laws": "4041596046652608"
    },
    {
      "landUse": "Gluta L.",
      "ownership": "Echelon Corporation",
      "laws": "4041373586656765"
    },
    {
      "landUse": "Lomatium oreganum (J.M. Coult. & Rose) J.M. Coult. & Rose",
      "ownership": "Companhia de saneamento Basico Do Estado De Sao Paulo - Sabesp",
      "laws": "4017957548212475"
    },
    {
      "landUse": "Canavalia virosa (Roxb.) Wight & Arn.",
      "ownership": "Red Robin Gourmet Burgers, Inc.",
      "laws": "4017957886153"
    },
    {
      "landUse": "Cryptantha maritima (Greene) Greene var. pilosa I.M. Johnst.",
      "ownership": "Mackinac Financial Corporation",
      "laws": "4392128938658"
    },
    {
      "landUse": "Ipomopsis havardii (A. Gray) V.E. Grant",
      "ownership": "Multi-Color Corporation",
      "laws": "4017951775469"
    },
    {
      "landUse": "Lotus stipularis (Benth.) Greene",
      "ownership": "Tsakos Energy Navigation Ltd",
      "laws": "4623548871087315"
    },
    {
      "landUse": "Aquilegia grahamii S.L. Welsh & Goodrich",
      "ownership": "Paylocity Holding Corporation",
      "laws": "4017950965295552"
    },
    {
      "landUse": "Mimulus douglasii (Benth.) A. Gray",
      "ownership": "USLIFE Income Fund, Inc.",
      "laws": "4696863393643152"
    },
    {
      "landUse": "Erigeron reductus (Cronquist) G.L. Nesom var. angustatus (A. Gray) G.L. Nesom",
      "ownership": "Dawson Geophysical Company",
      "laws": "4041376417267"
    },
    {
      "landUse": "Plantago australis Lam. ssp. hirtella (Kunth) Rahn",
      "ownership": "Hawaiian Electric Industries, Inc.",
      "laws": "4041595321241"
    },
    {
      "landUse": "Gaillardia amblyodon J. Gay",
      "ownership": "BioScrip, Inc.",
      "laws": null
    },
    {
      "landUse": "Caloplaca neonii de Lesd.",
      "ownership": null,
      "laws": "4041379824618"
    },
    {
      "landUse": "Catapodium Link",
      "ownership": "Gemphire Therapeutics Inc.",
      "laws": "4299761633340"
    },
    {
      "landUse": "Placynthiella oligotropha (J.R. Laundon) Coppins & P. James",
      "ownership": "Alexion Pharmaceuticals, Inc.",
      "laws": "4922529804586"
    },
    {
      "landUse": "Alnus glutinosa (L.) Gaertn.",
      "ownership": "Essendant Inc.",
      "laws": "4041377631569"
    },
    {
      "landUse": "Digitaria seriata Stapf [excluded]",
      "ownership": "First Trust Nasdaq Food & Beverage ETF",
      "laws": "4041372178379737"
    },
    {
      "landUse": "Coprosma rhynchocarpa A. Gray",
      "ownership": "Sensata Technologies Holding N.V.",
      "laws": "4041595400228666"
    },
    {
      "landUse": "Lonchocarpus Kunth",
      "ownership": "Investment Technology Group, Inc.",
      "laws": "4041597462285840"
    },
    {
      "landUse": "Gollania turgens (Müll. Hal.) Ando",
      "ownership": "Tri Continental Corporation",
      "laws": "4041377969317150"
    },
    {
      "landUse": "Cocculus DC.",
      "ownership": "Nuveen Preferred and Income 2022 Term Fund",
      "laws": "4474416757626"
    },
    {
      "landUse": "Ruellia caroliniensis (J.F. Gmel.) Steud. ssp. ciliosa (Pursh) R.W. Long",
      "ownership": "Genesee & Wyoming, Inc.",
      "laws": "4041376654393765"
    },
    {
      "landUse": "Rhynchospora grayi Kunth",
      "ownership": null,
      "laws": "4017958368623"
    },
    {
      "landUse": "Lysimachia loomisii Torr.",
      "ownership": "Liberty Interactive Corporation",
      "laws": "4017959122698"
    },
    {
      "landUse": null,
      "ownership": "Cantel Medical Corp.",
      "laws": "4516972939988"
    },
    {
      "landUse": "Rosa ×rudiuscula Greene (pro sp.)",
      "ownership": "Lawson Products, Inc.",
      "laws": "4041379437458384"
    },
    {
      "landUse": "Racomitrium elongatum Ehrh. ex Frisvoll",
      "ownership": "Sykes Enterprises, Incorporated",
      "laws": "4041372860858"
    },
    {
      "landUse": "Tragopogon mirus Ownbey",
      "ownership": "Auburn National Bancorporation, Inc.",
      "laws": "4041594302291377"
    },
    {
      "landUse": "Raphia farinifera (Gaertn.) Hyl.",
      "ownership": "Citigroup Inc.",
      "laws": null
    },
    {
      "landUse": "Penstemon caespitosus Nutt. ex A. Gray var. perbrevis (Pennell) N.H. Holmgren",
      "ownership": "Axar Acquisition Corp.",
      "laws": "4017952971695"
    },
    {
      "landUse": "×Schedolium loliaceum (Huds.) Holub",
      "ownership": "Smith Micro Software, Inc.",
      "laws": "4517061870900479"
    },
    {
      "landUse": "Climacium F. Weber & D. Mohr ex Mohr",
      "ownership": null,
      "laws": "4291726354578965"
    },
    {
      "landUse": "Digitaria iburua Stapf [excluded]",
      "ownership": "Franklin Covey Company",
      "laws": "4041372765130857"
    },
    {
      "landUse": "Palicourea Aubl.",
      "ownership": "Bank of America Corporation",
      "laws": "4309999481696857"
    },
    {
      "landUse": "Quercus ×ashei Trel.",
      "ownership": "Suncor Energy  Inc.",
      "laws": "4041376337994"
    },
    {
      "landUse": "Acalypha deamii (Weath.) H.E. Ahles",
      "ownership": "AmTrust Financial Services, Inc.",
      "laws": "4041595373051"
    },
    {
      "landUse": "Pterygoneurum Jur.",
      "ownership": "China HGS Real Estate, Inc.",
      "laws": "4041372580688"
    },
    {
      "landUse": "Cylindropuntia acanthocarpa (Engelm. & J.M. Bigelow) F.M. Knuth",
      "ownership": "VelocityShares 3x Long Silver ETN",
      "laws": "4017954692019293"
    },
    {
      "landUse": "Biatorella cyphalea (Tuck.) Zahlbr.",
      "ownership": "Pimco Global Stocksplus & Income Fund",
      "laws": "4041598380335"
    },
    {
      "landUse": "Eriogonum pusillum Torr. & A. Gray",
      "ownership": "Virtu Financial, Inc.",
      "laws": "4041377408281"
    },
    {
      "landUse": "Vitis vulpina L.",
      "ownership": "Sapiens International Corporation N.V.",
      "laws": "4041591729223900"
    },
    {
      "landUse": "Balsamorhiza careyana A. Gray var. careyana",
      "ownership": "Transcontinental Realty Investors, Inc.",
      "laws": null
    },
    {
      "landUse": null,
      "ownership": "Eastern Virginia Bankshares, Inc.",
      "laws": "4041375477185259"
    },
    {
      "landUse": "Calycoseris A. Gray",
      "ownership": "Kraton Corporation",
      "laws": "4041376290276"
    }
  ]
}
